<?xml version="1.0" encoding="UTF-8"?>
<gpx creator="https://gpx.studio" version="1.1" schemaLocation="http://www.topografix.com/GPX/1/1 http://www.topografix.com/GPX/1/1/gpx.xsd http://www.garmin.com/xmlschemas/GpxExtensions/v3 http://www.garmin.com/xmlschemas/GpxExtensionsv3.xsd http://www.garmin.com/xmlschemas/TrackPointExtension/v1 http://www.garmin.com/xmlschemas/TrackPointExtensionv1.xsd http://www.garmin.com/xmlschemas/PowerExtension/v1 http://www.garmin.com/xmlschemas/PowerExtensionv1.xsd http://www.topografix.com/GPX/gpx_style/0/2 http://www.topografix.com/GPX/gpx_style/0/2/gpx_style.xsd" xmlns="http://www.topografix.com/GPX/1/1" xmlns:xsi="http://www.w3.org/2001/XMLSchema-instance" xsi:schemaLocation="http://www.topografix.com/GPX/1/1 http://www.topografix.com/GPX/1/1/gpx.xsd http://www.garmin.com/xmlschemas/GpxExtensions/v3 http://www.garmin.com/xmlschemas/GpxExtensionsv3.xsd http://www.garmin.com/xmlschemas/TrackPointExtension/v1 http://www.garmin.com/xmlschemas/TrackPointExtensionv1.xsd http://www.garmin.com/xmlschemas/PowerExtension/v1 http://www.garmin.com/xmlschemas/PowerExtensionv1.xsd http://www.topografix.com/GPX/gpx_style/0/2 http://www.topografix.com/GPX/gpx_style/0/2/gpx_style.xsd" xmlns:gpxtpx="http://www.garmin.com/xmlschemas/TrackPointExtension/v1" xmlns:gpxx="http://www.garmin.com/xmlschemas/GpxExtensions/v3" xmlns:gpxpx="http://www.garmin.com/xmlschemas/PowerExtension/v1" xmlns:gpx_style="http://www.topografix.com/GPX/gpx_style/0/2">
  <metadata>
    <name>Nuevo archivo 5</name>
    <author>
      <name>gpx.studio</name>
      <link href="https://gpx.studio"/>
    </author>
  </metadata>
  <trk>
    <name>Nuevo archivo 5</name>
    <trkseg>
      <trkpt lat="41.247794" lon="0.733941">
        <ele>356.52</ele>
      </trkpt>
      <trkpt lat="41.247844" lon="0.73388">
        <ele>356.72</ele>
      </trkpt>
      <trkpt lat="41.247972" lon="0.734061">
        <ele>356.8</ele>
      </trkpt>
      <trkpt lat="41.248196" lon="0.73456">
        <ele>358.65</ele>
      </trkpt>
      <trkpt lat="41.248394" lon="0.734851">
        <ele>361.45</ele>
      </trkpt>
      <trkpt lat="41.248547" lon="0.735201">
        <ele>364.67</ele>
      </trkpt>
      <trkpt lat="41.248608" lon="0.735361">
        <ele>367.58</ele>
      </trkpt>
      <trkpt lat="41.24863" lon="0.735377">
        <ele>368.17</ele>
      </trkpt>
      <trkpt lat="41.248608" lon="0.735361">
        <ele>367.58</ele>
      </trkpt>
      <trkpt lat="41.248547" lon="0.735201">
        <ele>364.67</ele>
      </trkpt>
      <trkpt lat="41.248795" lon="0.735262">
        <ele>365.93</ele>
      </trkpt>
      <trkpt lat="41.24917" lon="0.73541">
        <ele>367.65</ele>
      </trkpt>
      <trkpt lat="41.249438" lon="0.735219">
        <ele>364.94</ele>
      </trkpt>
      <trkpt lat="41.249445" lon="0.735201">
        <ele>364.65</ele>
      </trkpt>
      <trkpt lat="41.249491" lon="0.73509">
        <ele>362.82</ele>
      </trkpt>
      <trkpt lat="41.249651" lon="0.734894">
        <ele>363.21</ele>
      </trkpt>
      <trkpt lat="41.249728" lon="0.734741">
        <ele>362.71</ele>
      </trkpt>
      <trkpt lat="41.249745" lon="0.734616">
        <ele>361.44</ele>
      </trkpt>
      <trkpt lat="41.249748" lon="0.734488">
        <ele>360.36</ele>
      </trkpt>
      <trkpt lat="41.249779" lon="0.734391">
        <ele>359.62</ele>
      </trkpt>
      <trkpt lat="41.249834" lon="0.734323">
        <ele>357.7</ele>
      </trkpt>
      <trkpt lat="41.249907" lon="0.734274">
        <ele>356.24</ele>
      </trkpt>
      <trkpt lat="41.250173" lon="0.734223">
        <ele>356.08</ele>
      </trkpt>
      <trkpt lat="41.250196" lon="0.734179">
        <ele>354.73</ele>
      </trkpt>
      <trkpt lat="41.250305" lon="0.734156">
        <ele>354.67</ele>
      </trkpt>
      <trkpt lat="41.250409" lon="0.734148">
        <ele>354.19</ele>
      </trkpt>
      <trkpt lat="41.250523" lon="0.734186">
        <ele>355.43</ele>
      </trkpt>
      <trkpt lat="41.25074" lon="0.73418">
        <ele>356.18</ele>
      </trkpt>
      <trkpt lat="41.250949" lon="0.734065">
        <ele>353.79</ele>
      </trkpt>
      <trkpt lat="41.251089" lon="0.734011">
        <ele>354.54</ele>
      </trkpt>
      <trkpt lat="41.251266" lon="0.733764">
        <ele>345.86</ele>
      </trkpt>
      <trkpt lat="41.251327" lon="0.733801">
        <ele>347.13</ele>
      </trkpt>
      <trkpt lat="41.251359" lon="0.733821">
        <ele>347.64</ele>
      </trkpt>
      <trkpt lat="41.251327" lon="0.733801">
        <ele>347.13</ele>
      </trkpt>
      <trkpt lat="41.251484" lon="0.733896">
        <ele>349.62</ele>
      </trkpt>
      <trkpt lat="41.251615" lon="0.73392">
        <ele>347.45</ele>
      </trkpt>
      <trkpt lat="41.25171" lon="0.734162">
        <ele>351.74</ele>
      </trkpt>
      <trkpt lat="41.251848" lon="0.734359">
        <ele>355.15</ele>
      </trkpt>
      <trkpt lat="41.252224" lon="0.734712">
        <ele>357.18</ele>
      </trkpt>
      <trkpt lat="41.252268" lon="0.734752">
        <ele>357.42</ele>
      </trkpt>
      <trkpt lat="41.252358" lon="0.734909">
        <ele>358.4</ele>
      </trkpt>
      <trkpt lat="41.252435" lon="0.735126">
        <ele>359.68</ele>
      </trkpt>
      <trkpt lat="41.252518" lon="0.73529">
        <ele>359.66</ele>
      </trkpt>
      <trkpt lat="41.252633" lon="0.73546">
        <ele>360.07</ele>
      </trkpt>
      <trkpt lat="41.252644" lon="0.735584">
        <ele>361.09</ele>
      </trkpt>
      <trkpt lat="41.25263" lon="0.735789">
        <ele>363.31</ele>
      </trkpt>
      <trkpt lat="41.252762" lon="0.736181">
        <ele>368.13</ele>
      </trkpt>
      <trkpt lat="41.252844" lon="0.736295">
        <ele>367.54</ele>
      </trkpt>
      <trkpt lat="41.252898" lon="0.736368">
        <ele>367.16</ele>
      </trkpt>
      <trkpt lat="41.252993" lon="0.736573">
        <ele>368.8</ele>
      </trkpt>
      <trkpt lat="41.253056" lon="0.736627">
        <ele>367.82</ele>
      </trkpt>
      <trkpt lat="41.253274" lon="0.736965">
        <ele>367.47</ele>
      </trkpt>
      <trkpt lat="41.253364" lon="0.737188">
        <ele>367.46</ele>
      </trkpt>
      <trkpt lat="41.253496" lon="0.737471">
        <ele>366.75</ele>
      </trkpt>
      <trkpt lat="41.253668" lon="0.737987">
        <ele>374.39</ele>
      </trkpt>
      <trkpt lat="41.253644" lon="0.737978">
        <ele>375.28</ele>
      </trkpt>
      <trkpt lat="41.253668" lon="0.737987">
        <ele>374.39</ele>
      </trkpt>
      <trkpt lat="41.253969" lon="0.73846">
        <ele>375.55</ele>
      </trkpt>
      <trkpt lat="41.254029" lon="0.738597">
        <ele>376.58</ele>
      </trkpt>
      <trkpt lat="41.254022" lon="0.738749">
        <ele>378.74</ele>
      </trkpt>
      <trkpt lat="41.254032" lon="0.738853">
        <ele>380.17</ele>
      </trkpt>
      <trkpt lat="41.254076" lon="0.73893">
        <ele>380.12</ele>
      </trkpt>
      <trkpt lat="41.254148" lon="0.739026">
        <ele>383.03</ele>
      </trkpt>
      <trkpt lat="41.254338" lon="0.738997">
        <ele>385.83</ele>
      </trkpt>
      <trkpt lat="41.254692" lon="0.73893">
        <ele>388.01</ele>
      </trkpt>
      <trkpt lat="41.254881" lon="0.738941">
        <ele>389.66</ele>
      </trkpt>
      <trkpt lat="41.255333" lon="0.73907">
        <ele>396.55</ele>
      </trkpt>
      <trkpt lat="41.25558" lon="0.739186">
        <ele>399.98</ele>
      </trkpt>
      <trkpt lat="41.25592" lon="0.739412">
        <ele>402.11</ele>
      </trkpt>
      <trkpt lat="41.256005" lon="0.739452">
        <ele>402.31</ele>
      </trkpt>
      <trkpt lat="41.256197" lon="0.739442">
        <ele>402.49</ele>
      </trkpt>
      <trkpt lat="41.256276" lon="0.73946">
        <ele>403.75</ele>
      </trkpt>
      <trkpt lat="41.256347" lon="0.739524">
        <ele>405.56</ele>
      </trkpt>
      <trkpt lat="41.256517" lon="0.73961">
        <ele>406.52</ele>
      </trkpt>
      <trkpt lat="41.256656" lon="0.739642">
        <ele>407.58</ele>
      </trkpt>
      <trkpt lat="41.25675" lon="0.739685">
        <ele>408.44</ele>
      </trkpt>
      <trkpt lat="41.257035" lon="0.739945">
        <ele>412.91</ele>
      </trkpt>
      <trkpt lat="41.25712" lon="0.739972">
        <ele>413.55</ele>
      </trkpt>
      <trkpt lat="41.257179" lon="0.739991">
        <ele>414</ele>
      </trkpt>
      <trkpt lat="41.257323" lon="0.740289">
        <ele>418.85</ele>
      </trkpt>
      <trkpt lat="41.257388" lon="0.740505">
        <ele>420.54</ele>
      </trkpt>
      <trkpt lat="41.257448" lon="0.740567">
        <ele>420.77</ele>
      </trkpt>
      <trkpt lat="41.257509" lon="0.740631">
        <ele>421.01</ele>
      </trkpt>
      <trkpt lat="41.257769" lon="0.740736">
        <ele>419.02</ele>
      </trkpt>
      <trkpt lat="41.257843" lon="0.74078">
        <ele>418.47</ele>
      </trkpt>
      <trkpt lat="41.257889" lon="0.740837">
        <ele>418.95</ele>
      </trkpt>
      <trkpt lat="41.257918" lon="0.740925">
        <ele>419.75</ele>
      </trkpt>
      <trkpt lat="41.257945" lon="0.741155">
        <ele>421.89</ele>
      </trkpt>
      <trkpt lat="41.25798" lon="0.741337">
        <ele>423.03</ele>
      </trkpt>
      <trkpt lat="41.258036" lon="0.741759">
        <ele>425.43</ele>
      </trkpt>
      <trkpt lat="41.2581" lon="0.742332">
        <ele>430.59</ele>
      </trkpt>
      <trkpt lat="41.258129" lon="0.742534">
        <ele>433.16</ele>
      </trkpt>
      <trkpt lat="41.258119" lon="0.742744">
        <ele>435.86</ele>
      </trkpt>
      <trkpt lat="41.25812" lon="0.742912">
        <ele>438.04</ele>
      </trkpt>
      <trkpt lat="41.258263" lon="0.743295">
        <ele>443.71</ele>
      </trkpt>
      <trkpt lat="41.258323" lon="0.743508">
        <ele>444.36</ele>
      </trkpt>
      <trkpt lat="41.258372" lon="0.743622">
        <ele>442.71</ele>
      </trkpt>
      <trkpt lat="41.258443" lon="0.743819">
        <ele>444.66</ele>
      </trkpt>
      <trkpt lat="41.258511" lon="0.743964">
        <ele>446.95</ele>
      </trkpt>
      <trkpt lat="41.258655" lon="0.744183">
        <ele>447.96</ele>
      </trkpt>
      <trkpt lat="41.258782" lon="0.744389">
        <ele>451.66</ele>
      </trkpt>
      <trkpt lat="41.258941" lon="0.744566">
        <ele>454.3</ele>
      </trkpt>
      <trkpt lat="41.259147" lon="0.744733">
        <ele>458.13</ele>
      </trkpt>
      <trkpt lat="41.25928" lon="0.744889">
        <ele>460.37</ele>
      </trkpt>
      <trkpt lat="41.259318" lon="0.744947">
        <ele>461.54</ele>
      </trkpt>
      <trkpt lat="41.259425" lon="0.745114">
        <ele>463.62</ele>
      </trkpt>
      <trkpt lat="41.259558" lon="0.745255">
        <ele>466.54</ele>
      </trkpt>
      <trkpt lat="41.259591" lon="0.745251">
        <ele>467.02</ele>
      </trkpt>
      <trkpt lat="41.259636" lon="0.745246">
        <ele>467.66</ele>
      </trkpt>
      <trkpt lat="41.259691" lon="0.745169">
        <ele>468.56</ele>
      </trkpt>
      <trkpt lat="41.259732" lon="0.745071">
        <ele>469.91</ele>
      </trkpt>
      <trkpt lat="41.259763" lon="0.744985">
        <ele>473.09</ele>
      </trkpt>
      <trkpt lat="41.259713" lon="0.744916">
        <ele>472.39</ele>
      </trkpt>
      <trkpt lat="41.259613" lon="0.744718">
        <ele>473.96</ele>
      </trkpt>
      <trkpt lat="41.259603" lon="0.744443">
        <ele>478.53</ele>
      </trkpt>
      <trkpt lat="41.259541" lon="0.744142">
        <ele>482.3</ele>
      </trkpt>
      <trkpt lat="41.259451" lon="0.743833">
        <ele>482.6</ele>
      </trkpt>
      <trkpt lat="41.259412" lon="0.743618">
        <ele>482.39</ele>
      </trkpt>
      <trkpt lat="41.259309" lon="0.743451">
        <ele>479.35</ele>
      </trkpt>
      <trkpt lat="41.259222" lon="0.743206">
        <ele>480.07</ele>
      </trkpt>
      <trkpt lat="41.259153" lon="0.742926">
        <ele>480.5</ele>
      </trkpt>
      <trkpt lat="41.259082" lon="0.742683">
        <ele>481.32</ele>
      </trkpt>
      <trkpt lat="41.25907" lon="0.742539">
        <ele>483</ele>
      </trkpt>
      <trkpt lat="41.259115" lon="0.74239">
        <ele>484.81</ele>
      </trkpt>
      <trkpt lat="41.259278" lon="0.741912">
        <ele>486.09</ele>
      </trkpt>
      <trkpt lat="41.259381" lon="0.741876">
        <ele>487.03</ele>
      </trkpt>
      <trkpt lat="41.259637" lon="0.741871">
        <ele>487.35</ele>
      </trkpt>
      <trkpt lat="41.259932" lon="0.741886">
        <ele>487.4</ele>
      </trkpt>
      <trkpt lat="41.260108" lon="0.741992">
        <ele>489.61</ele>
      </trkpt>
      <trkpt lat="41.260249" lon="0.742131">
        <ele>494.58</ele>
      </trkpt>
      <trkpt lat="41.260342" lon="0.742135">
        <ele>495.32</ele>
      </trkpt>
      <trkpt lat="41.260443" lon="0.742114">
        <ele>495.67</ele>
      </trkpt>
      <trkpt lat="41.260598" lon="0.742217">
        <ele>500.33</ele>
      </trkpt>
      <trkpt lat="41.260798" lon="0.742226">
        <ele>501.27</ele>
      </trkpt>
      <trkpt lat="41.26095" lon="0.742306">
        <ele>500.45</ele>
      </trkpt>
      <trkpt lat="41.261098" lon="0.742423">
        <ele>503.12</ele>
      </trkpt>
      <trkpt lat="41.261308" lon="0.742338">
        <ele>500.77</ele>
      </trkpt>
      <trkpt lat="41.261457" lon="0.742466">
        <ele>499.73</ele>
      </trkpt>
      <trkpt lat="41.261517" lon="0.742633">
        <ele>499.67</ele>
      </trkpt>
      <trkpt lat="41.261539" lon="0.742803">
        <ele>499.56</ele>
      </trkpt>
      <trkpt lat="41.261533" lon="0.742923">
        <ele>500.58</ele>
      </trkpt>
      <trkpt lat="41.261555" lon="0.74305">
        <ele>500.34</ele>
      </trkpt>
      <trkpt lat="41.261694" lon="0.743293">
        <ele>499.77</ele>
      </trkpt>
      <trkpt lat="41.261844" lon="0.743662">
        <ele>499.54</ele>
      </trkpt>
      <trkpt lat="41.26189" lon="0.74384">
        <ele>499.15</ele>
      </trkpt>
      <trkpt lat="41.26192" lon="0.744344">
        <ele>501.6</ele>
      </trkpt>
      <trkpt lat="41.261974" lon="0.744624">
        <ele>500.75</ele>
      </trkpt>
      <trkpt lat="41.262037" lon="0.744758">
        <ele>501.79</ele>
      </trkpt>
      <trkpt lat="41.26208" lon="0.744851">
        <ele>502.52</ele>
      </trkpt>
      <trkpt lat="41.262168" lon="0.744959">
        <ele>503.52</ele>
      </trkpt>
      <trkpt lat="41.262299" lon="0.744956">
        <ele>501.8</ele>
      </trkpt>
      <trkpt lat="41.262517" lon="0.745058">
        <ele>502.44</ele>
      </trkpt>
      <trkpt lat="41.262628" lon="0.745141">
        <ele>501.2</ele>
      </trkpt>
      <trkpt lat="41.262673" lon="0.745205">
        <ele>501.56</ele>
      </trkpt>
      <trkpt lat="41.262706" lon="0.745407">
        <ele>505.49</ele>
      </trkpt>
      <trkpt lat="41.262843" lon="0.745565">
        <ele>507.34</ele>
      </trkpt>
      <trkpt lat="41.262992" lon="0.745701">
        <ele>506.76</ele>
      </trkpt>
      <trkpt lat="41.263149" lon="0.745865">
        <ele>505.37</ele>
      </trkpt>
      <trkpt lat="41.263185" lon="0.746161">
        <ele>509.85</ele>
      </trkpt>
      <trkpt lat="41.263183" lon="0.746457">
        <ele>514.78</ele>
      </trkpt>
      <trkpt lat="41.263236" lon="0.746543">
        <ele>514.04</ele>
      </trkpt>
      <trkpt lat="41.263274" lon="0.746589">
        <ele>512.1</ele>
      </trkpt>
      <trkpt lat="41.263289" lon="0.746578">
        <ele>511.88</ele>
      </trkpt>
      <trkpt lat="41.263314" lon="0.746557">
        <ele>511.5</ele>
      </trkpt>
      <trkpt lat="41.263388" lon="0.746371">
        <ele>510.07</ele>
      </trkpt>
      <trkpt lat="41.263463" lon="0.746259">
        <ele>510.8</ele>
      </trkpt>
      <trkpt lat="41.263522" lon="0.746193">
        <ele>511.43</ele>
      </trkpt>
      <trkpt lat="41.263562" lon="0.746147">
        <ele>511.87</ele>
      </trkpt>
      <trkpt lat="41.263603" lon="0.746063">
        <ele>513.44</ele>
      </trkpt>
      <trkpt lat="41.263664" lon="0.745644">
        <ele>518.61</ele>
      </trkpt>
      <trkpt lat="41.263652" lon="0.745554">
        <ele>519.8</ele>
      </trkpt>
      <trkpt lat="41.263647" lon="0.745522">
        <ele>520.23</ele>
      </trkpt>
      <trkpt lat="41.263586" lon="0.745361">
        <ele>520.61</ele>
      </trkpt>
      <trkpt lat="41.26351" lon="0.745246">
        <ele>520.64</ele>
      </trkpt>
      <trkpt lat="41.263444" lon="0.745102">
        <ele>520.52</ele>
      </trkpt>
      <trkpt lat="41.263379" lon="0.745002">
        <ele>519.28</ele>
      </trkpt>
      <trkpt lat="41.263285" lon="0.744837">
        <ele>520.13</ele>
      </trkpt>
      <trkpt lat="41.263285" lon="0.744802">
        <ele>520.72</ele>
      </trkpt>
      <trkpt lat="41.263286" lon="0.744725">
        <ele>522.01</ele>
      </trkpt>
      <trkpt lat="41.263272" lon="0.744563">
        <ele>523.73</ele>
      </trkpt>
      <trkpt lat="41.26317" lon="0.744462">
        <ele>520.85</ele>
      </trkpt>
      <trkpt lat="41.263153" lon="0.744392">
        <ele>521.11</ele>
      </trkpt>
      <trkpt lat="41.263164" lon="0.744281">
        <ele>522.54</ele>
      </trkpt>
      <trkpt lat="41.263153" lon="0.74422">
        <ele>522.46</ele>
      </trkpt>
      <trkpt lat="41.263036" lon="0.744072">
        <ele>521.59</ele>
      </trkpt>
      <trkpt lat="41.262952" lon="0.743979">
        <ele>522.12</ele>
      </trkpt>
      <trkpt lat="41.262902" lon="0.743863">
        <ele>522.09</ele>
      </trkpt>
      <trkpt lat="41.262814" lon="0.743562">
        <ele>521.94</ele>
      </trkpt>
      <trkpt lat="41.262789" lon="0.743449">
        <ele>521.15</ele>
      </trkpt>
      <trkpt lat="41.262773" lon="0.743281">
        <ele>520.73</ele>
      </trkpt>
      <trkpt lat="41.262771" lon="0.743222">
        <ele>520.74</ele>
      </trkpt>
      <trkpt lat="41.262791" lon="0.742935">
        <ele>522.18</ele>
      </trkpt>
      <trkpt lat="41.262738" lon="0.742865">
        <ele>520.54</ele>
      </trkpt>
      <trkpt lat="41.262685" lon="0.742777">
        <ele>519.77</ele>
      </trkpt>
      <trkpt lat="41.262658" lon="0.742683">
        <ele>520.28</ele>
      </trkpt>
      <trkpt lat="41.262665" lon="0.74257">
        <ele>519.83</ele>
      </trkpt>
      <trkpt lat="41.262687" lon="0.742447">
        <ele>519.2</ele>
      </trkpt>
      <trkpt lat="41.262727" lon="0.742221">
        <ele>518.03</ele>
      </trkpt>
      <trkpt lat="41.262836" lon="0.741757">
        <ele>517.12</ele>
      </trkpt>
      <trkpt lat="41.26288" lon="0.74167">
        <ele>517.14</ele>
      </trkpt>
      <trkpt lat="41.262918" lon="0.741617">
        <ele>517.12</ele>
      </trkpt>
      <trkpt lat="41.262931" lon="0.741598">
        <ele>517.12</ele>
      </trkpt>
      <trkpt lat="41.262986" lon="0.741597">
        <ele>517.53</ele>
      </trkpt>
      <trkpt lat="41.263032" lon="0.741672">
        <ele>518.09</ele>
      </trkpt>
      <trkpt lat="41.263056" lon="0.741762">
        <ele>518.38</ele>
      </trkpt>
      <trkpt lat="41.26315" lon="0.742443">
        <ele>520.94</ele>
      </trkpt>
      <trkpt lat="41.263192" lon="0.742746">
        <ele>523.68</ele>
      </trkpt>
      <trkpt lat="41.263212" lon="0.742805">
        <ele>524.12</ele>
      </trkpt>
      <trkpt lat="41.263258" lon="0.74294">
        <ele>525.13</ele>
      </trkpt>
      <trkpt lat="41.263308" lon="0.743031">
        <ele>526.04</ele>
      </trkpt>
      <trkpt lat="41.263515" lon="0.743249">
        <ele>527.51</ele>
      </trkpt>
      <trkpt lat="41.263805" lon="0.743322">
        <ele>526.6</ele>
      </trkpt>
      <trkpt lat="41.26396" lon="0.743274">
        <ele>525.57</ele>
      </trkpt>
      <trkpt lat="41.263996" lon="0.743251">
        <ele>525.41</ele>
      </trkpt>
      <trkpt lat="41.264232" lon="0.743094">
        <ele>524.32</ele>
      </trkpt>
      <trkpt lat="41.264613" lon="0.742625">
        <ele>516.17</ele>
      </trkpt>
      <trkpt lat="41.264676" lon="0.742495">
        <ele>513.56</ele>
      </trkpt>
      <trkpt lat="41.264716" lon="0.742359">
        <ele>512.04</ele>
      </trkpt>
      <trkpt lat="41.264703" lon="0.742191">
        <ele>509.81</ele>
      </trkpt>
      <trkpt lat="41.264739" lon="0.741921">
        <ele>508.44</ele>
      </trkpt>
      <trkpt lat="41.26474" lon="0.741831">
        <ele>507.15</ele>
      </trkpt>
      <trkpt lat="41.264742" lon="0.741598">
        <ele>503.79</ele>
      </trkpt>
      <trkpt lat="41.264751" lon="0.741539">
        <ele>502.83</ele>
      </trkpt>
      <trkpt lat="41.264787" lon="0.741491">
        <ele>501.59</ele>
      </trkpt>
      <trkpt lat="41.26483" lon="0.741474">
        <ele>500.57</ele>
      </trkpt>
      <trkpt lat="41.264897" lon="0.741491">
        <ele>499.27</ele>
      </trkpt>
      <trkpt lat="41.265143" lon="0.74174">
        <ele>497.66</ele>
      </trkpt>
      <trkpt lat="41.265305" lon="0.741868">
        <ele>497.03</ele>
      </trkpt>
      <trkpt lat="41.265444" lon="0.742041">
        <ele>495.19</ele>
      </trkpt>
      <trkpt lat="41.265591" lon="0.742224">
        <ele>493.26</ele>
      </trkpt>
      <trkpt lat="41.265826" lon="0.742409">
        <ele>490.06</ele>
      </trkpt>
      <trkpt lat="41.265857" lon="0.742479">
        <ele>489.51</ele>
      </trkpt>
      <trkpt lat="41.265857" lon="0.742733">
        <ele>488.46</ele>
      </trkpt>
      <trkpt lat="41.26576" lon="0.743025">
        <ele>489.71</ele>
      </trkpt>
      <trkpt lat="41.265771" lon="0.743056">
        <ele>489.98</ele>
      </trkpt>
      <trkpt lat="41.265791" lon="0.743112">
        <ele>490.47</ele>
      </trkpt>
      <trkpt lat="41.26584" lon="0.743163">
        <ele>491.3</ele>
      </trkpt>
      <trkpt lat="41.2661" lon="0.743306">
        <ele>498.37</ele>
      </trkpt>
      <trkpt lat="41.266361" lon="0.743435">
        <ele>499.17</ele>
      </trkpt>
      <trkpt lat="41.266481" lon="0.743594">
        <ele>498.65</ele>
      </trkpt>
      <trkpt lat="41.266564" lon="0.743811">
        <ele>500.85</ele>
      </trkpt>
      <trkpt lat="41.266641" lon="0.744117">
        <ele>505.02</ele>
      </trkpt>
      <trkpt lat="41.266646" lon="0.744116">
        <ele>505.06</ele>
      </trkpt>
      <trkpt lat="41.266939" lon="0.744082">
        <ele>507.26</ele>
      </trkpt>
      <trkpt lat="41.267209" lon="0.744201">
        <ele>509.01</ele>
      </trkpt>
      <trkpt lat="41.267223" lon="0.744207">
        <ele>509.1</ele>
      </trkpt>
      <trkpt lat="41.2673" lon="0.744312">
        <ele>510.29</ele>
      </trkpt>
      <trkpt lat="41.267349" lon="0.744456">
        <ele>512.42</ele>
      </trkpt>
      <trkpt lat="41.267261" lon="0.744471">
        <ele>513.89</ele>
      </trkpt>
      <trkpt lat="41.267254" lon="0.744554">
        <ele>515.71</ele>
      </trkpt>
      <trkpt lat="41.267246" lon="0.744658">
        <ele>518.02</ele>
      </trkpt>
      <trkpt lat="41.267316" lon="0.744831">
        <ele>521.04</ele>
      </trkpt>
      <trkpt lat="41.267394" lon="0.744945">
        <ele>523.76</ele>
      </trkpt>
      <trkpt lat="41.267448" lon="0.745002">
        <ele>525.36</ele>
      </trkpt>
      <trkpt lat="41.267501" lon="0.745013">
        <ele>525.7</ele>
      </trkpt>
      <trkpt lat="41.267553" lon="0.745054">
        <ele>527.57</ele>
      </trkpt>
      <trkpt lat="41.267669" lon="0.745012">
        <ele>529.55</ele>
      </trkpt>
      <trkpt lat="41.267786" lon="0.744855">
        <ele>529.03</ele>
      </trkpt>
      <trkpt lat="41.267835" lon="0.744817">
        <ele>529.3</ele>
      </trkpt>
      <trkpt lat="41.268041" lon="0.744648">
        <ele>528.97</ele>
      </trkpt>
      <trkpt lat="41.268076" lon="0.744485">
        <ele>528.62</ele>
      </trkpt>
      <trkpt lat="41.268171" lon="0.744109">
        <ele>531.87</ele>
      </trkpt>
      <trkpt lat="41.268194" lon="0.743882">
        <ele>535.92</ele>
      </trkpt>
      <trkpt lat="41.268029" lon="0.743438">
        <ele>540.71</ele>
      </trkpt>
      <trkpt lat="41.267907" lon="0.743167">
        <ele>540.18</ele>
      </trkpt>
      <trkpt lat="41.267794" lon="0.74278">
        <ele>542.5</ele>
      </trkpt>
      <trkpt lat="41.267871" lon="0.742233">
        <ele>541.64</ele>
      </trkpt>
      <trkpt lat="41.267906" lon="0.741827">
        <ele>541.74</ele>
      </trkpt>
      <trkpt lat="41.268152" lon="0.741173">
        <ele>544.78</ele>
      </trkpt>
      <trkpt lat="41.268466" lon="0.740734">
        <ele>547.26</ele>
      </trkpt>
      <trkpt lat="41.268623" lon="0.740514">
        <ele>546.12</ele>
      </trkpt>
      <trkpt lat="41.268814" lon="0.740299">
        <ele>542.45</ele>
      </trkpt>
      <trkpt lat="41.26922" lon="0.739945">
        <ele>534.66</ele>
      </trkpt>
      <trkpt lat="41.269109" lon="0.739817">
        <ele>529.9</ele>
      </trkpt>
      <trkpt lat="41.269166" lon="0.739703">
        <ele>528.3</ele>
      </trkpt>
      <trkpt lat="41.269042" lon="0.739716">
        <ele>525</ele>
      </trkpt>
      <trkpt lat="41.269138" lon="0.739589">
        <ele>524.09</ele>
      </trkpt>
      <trkpt lat="41.269309" lon="0.739285">
        <ele>519.02</ele>
      </trkpt>
      <trkpt lat="41.269323" lon="0.739274">
        <ele>518.94</ele>
      </trkpt>
      <trkpt lat="41.269642" lon="0.739032">
        <ele>516.29</ele>
      </trkpt>
      <trkpt lat="41.269776" lon="0.738753">
        <ele>508.57</ele>
      </trkpt>
      <trkpt lat="41.27002" lon="0.738486">
        <ele>504.05</ele>
      </trkpt>
      <trkpt lat="41.270128" lon="0.738259">
        <ele>498.99</ele>
      </trkpt>
      <trkpt lat="41.27029" lon="0.738031">
        <ele>497.26</ele>
      </trkpt>
      <trkpt lat="41.270299" lon="0.737613">
        <ele>491.22</ele>
      </trkpt>
      <trkpt lat="41.270338" lon="0.737169">
        <ele>485.28</ele>
      </trkpt>
      <trkpt lat="41.270566" lon="0.736738">
        <ele>481.06</ele>
      </trkpt>
      <trkpt lat="41.270742" lon="0.73658">
        <ele>476.41</ele>
      </trkpt>
      <trkpt lat="41.270918" lon="0.736422">
        <ele>476.11</ele>
      </trkpt>
      <trkpt lat="41.270884" lon="0.736259">
        <ele>471.27</ele>
      </trkpt>
      <trkpt lat="41.270852" lon="0.736105">
        <ele>466.69</ele>
      </trkpt>
      <trkpt lat="41.271004" lon="0.735649">
        <ele>462.97</ele>
      </trkpt>
      <trkpt lat="41.271061" lon="0.735307">
        <ele>462.63</ele>
      </trkpt>
      <trkpt lat="41.270966" lon="0.734926">
        <ele>457.39</ele>
      </trkpt>
      <trkpt lat="41.271004" lon="0.734597">
        <ele>455.29</ele>
      </trkpt>
      <trkpt lat="41.271318" lon="0.734306">
        <ele>452.86</ele>
      </trkpt>
      <trkpt lat="41.271537" lon="0.733951">
        <ele>451.9</ele>
      </trkpt>
      <trkpt lat="41.271795" lon="0.733571">
        <ele>449.02</ele>
      </trkpt>
      <trkpt lat="41.272004" lon="0.733305">
        <ele>442.95</ele>
      </trkpt>
      <trkpt lat="41.272233" lon="0.733347">
        <ele>444.52</ele>
      </trkpt>
      <trkpt lat="41.272414" lon="0.733381">
        <ele>440.32</ele>
      </trkpt>
      <trkpt lat="41.272642" lon="0.733267">
        <ele>437.79</ele>
      </trkpt>
      <trkpt lat="41.272785" lon="0.732874">
        <ele>433.51</ele>
      </trkpt>
      <trkpt lat="41.272882" lon="0.732399">
        <ele>431.1</ele>
      </trkpt>
      <trkpt lat="41.273033" lon="0.732101">
        <ele>434.99</ele>
      </trkpt>
      <trkpt lat="41.273242" lon="0.731645">
        <ele>430.36</ele>
      </trkpt>
      <trkpt lat="41.273385" lon="0.731227">
        <ele>428.01</ele>
      </trkpt>
      <trkpt lat="41.273461" lon="0.730821">
        <ele>428.12</ele>
      </trkpt>
      <trkpt lat="41.273594" lon="0.730441">
        <ele>424.84</ele>
      </trkpt>
      <trkpt lat="41.273956" lon="0.729985">
        <ele>423.25</ele>
      </trkpt>
      <trkpt lat="41.274261" lon="0.729795">
        <ele>414.14</ele>
      </trkpt>
      <trkpt lat="41.274479" lon="0.729763">
        <ele>407.33</ele>
      </trkpt>
      <trkpt lat="41.274518" lon="0.729757">
        <ele>406.11</ele>
      </trkpt>
      <trkpt lat="41.274661" lon="0.729947">
        <ele>407.4</ele>
      </trkpt>
      <trkpt lat="41.274842" lon="0.729732">
        <ele>400.55</ele>
      </trkpt>
      <trkpt lat="41.274966" lon="0.729554">
        <ele>397.11</ele>
      </trkpt>
      <trkpt lat="41.275137" lon="0.729301">
        <ele>391.68</ele>
      </trkpt>
      <trkpt lat="41.275271" lon="0.729062">
        <ele>386.94</ele>
      </trkpt>
      <trkpt lat="41.275445" lon="0.729083">
        <ele>385.6</ele>
      </trkpt>
      <trkpt lat="41.275656" lon="0.729055">
        <ele>384.49</ele>
      </trkpt>
      <trkpt lat="41.275866" lon="0.728742">
        <ele>382.9</ele>
      </trkpt>
      <trkpt lat="41.275903" lon="0.728531">
        <ele>383.24</ele>
      </trkpt>
      <trkpt lat="41.275931" lon="0.72837">
        <ele>383.51</ele>
      </trkpt>
      <trkpt lat="41.276015" lon="0.728228">
        <ele>384.43</ele>
      </trkpt>
      <trkpt lat="41.276106" lon="0.728141">
        <ele>385.22</ele>
      </trkpt>
      <trkpt lat="41.276243" lon="0.727895">
        <ele>383.84</ele>
      </trkpt>
      <trkpt lat="41.276294" lon="0.727725">
        <ele>382.07</ele>
      </trkpt>
      <trkpt lat="41.276313" lon="0.727526">
        <ele>379.73</ele>
      </trkpt>
      <trkpt lat="41.276744" lon="0.727334">
        <ele>374.01</ele>
      </trkpt>
      <trkpt lat="41.276788" lon="0.72735">
        <ele>373.55</ele>
      </trkpt>
      <trkpt lat="41.276797" lon="0.72734">
        <ele>373.3</ele>
      </trkpt>
      <trkpt lat="41.277046" lon="0.727089">
        <ele>366.67</ele>
      </trkpt>
      <trkpt lat="41.277208" lon="0.726968">
        <ele>362.06</ele>
      </trkpt>
      <trkpt lat="41.277572" lon="0.726961">
        <ele>358.03</ele>
      </trkpt>
      <trkpt lat="41.277612" lon="0.72696">
        <ele>357.59</ele>
      </trkpt>
      <trkpt lat="41.277813" lon="0.72683">
        <ele>354.82</ele>
      </trkpt>
      <trkpt lat="41.27803" lon="0.726464">
        <ele>351.54</ele>
      </trkpt>
      <trkpt lat="41.278333" lon="0.726265">
        <ele>346.86</ele>
      </trkpt>
      <trkpt lat="41.278385" lon="0.726119">
        <ele>345.76</ele>
      </trkpt>
      <trkpt lat="41.278357" lon="0.725863">
        <ele>344.77</ele>
      </trkpt>
      <trkpt lat="41.278371" lon="0.725829">
        <ele>344.35</ele>
      </trkpt>
      <trkpt lat="41.278644" lon="0.725192">
        <ele>336.16</ele>
      </trkpt>
      <trkpt lat="41.278983" lon="0.725018">
        <ele>333.69</ele>
      </trkpt>
      <trkpt lat="41.279066" lon="0.724961">
        <ele>332.38</ele>
      </trkpt>
      <trkpt lat="41.279124" lon="0.724875">
        <ele>330.35</ele>
      </trkpt>
      <trkpt lat="41.279165" lon="0.724875">
        <ele>329.89</ele>
      </trkpt>
      <trkpt lat="41.279636" lon="0.724821">
        <ele>330.92</ele>
      </trkpt>
      <trkpt lat="41.279826" lon="0.724754">
        <ele>331.36</ele>
      </trkpt>
      <trkpt lat="41.280162" lon="0.724646">
        <ele>338.87</ele>
      </trkpt>
      <trkpt lat="41.280236" lon="0.724623">
        <ele>340.51</ele>
      </trkpt>
      <trkpt lat="41.280382" lon="0.72514">
        <ele>343.14</ele>
      </trkpt>
      <trkpt lat="41.280434" lon="0.724807">
        <ele>347.09</ele>
      </trkpt>
      <trkpt lat="41.280352" lon="0.724561">
        <ele>346.34</ele>
      </trkpt>
      <trkpt lat="41.280269" lon="0.724139">
        <ele>350.2</ele>
      </trkpt>
      <trkpt lat="41.280123" lon="0.723651">
        <ele>356.81</ele>
      </trkpt>
      <trkpt lat="41.280114" lon="0.723639">
        <ele>356.87</ele>
      </trkpt>
      <trkpt lat="41.279936" lon="0.723417">
        <ele>357.96</ele>
      </trkpt>
      <trkpt lat="41.279778" lon="0.723265">
        <ele>357.21</ele>
      </trkpt>
      <trkpt lat="41.279689" lon="0.723154">
        <ele>357.04</ele>
      </trkpt>
      <trkpt lat="41.279727" lon="0.723171">
        <ele>357.95</ele>
      </trkpt>
      <trkpt lat="41.279812" lon="0.723209">
        <ele>359.99</ele>
      </trkpt>
      <trkpt lat="41.280155" lon="0.723461">
        <ele>364.05</ele>
      </trkpt>
      <trkpt lat="41.280174" lon="0.723448">
        <ele>365.14</ele>
      </trkpt>
      <trkpt lat="41.280227" lon="0.723413">
        <ele>368.23</ele>
      </trkpt>
      <trkpt lat="41.280154" lon="0.72325">
        <ele>368.96</ele>
      </trkpt>
      <trkpt lat="41.280184" lon="0.723228">
        <ele>369.84</ele>
      </trkpt>
      <trkpt lat="41.280261" lon="0.723354">
        <ele>370.03</ele>
      </trkpt>
      <trkpt lat="41.280338" lon="0.723389">
        <ele>372.15</ele>
      </trkpt>
      <trkpt lat="41.280435" lon="0.723467">
        <ele>374.19</ele>
      </trkpt>
      <trkpt lat="41.28057" lon="0.723565">
        <ele>378.19</ele>
      </trkpt>
      <trkpt lat="41.280747" lon="0.723639">
        <ele>379.54</ele>
      </trkpt>
      <trkpt lat="41.280743" lon="0.724019">
        <ele>381.59</ele>
      </trkpt>
      <trkpt lat="41.280784" lon="0.724135">
        <ele>381.98</ele>
      </trkpt>
      <trkpt lat="41.280954" lon="0.724619">
        <ele>383.59</ele>
      </trkpt>
      <trkpt lat="41.281019" lon="0.724927">
        <ele>383.81</ele>
      </trkpt>
      <trkpt lat="41.281085" lon="0.725236">
        <ele>386.3</ele>
      </trkpt>
      <trkpt lat="41.280984" lon="0.725871">
        <ele>387.09</ele>
      </trkpt>
      <trkpt lat="41.280982" lon="0.726063">
        <ele>386.1</ele>
      </trkpt>
      <trkpt lat="41.280977" lon="0.726446">
        <ele>384.14</ele>
      </trkpt>
      <trkpt lat="41.281035" lon="0.726602">
        <ele>384.85</ele>
      </trkpt>
      <trkpt lat="41.281063" lon="0.726678">
        <ele>385.19</ele>
      </trkpt>
      <trkpt lat="41.281094" lon="0.726969">
        <ele>385.57</ele>
      </trkpt>
      <trkpt lat="41.281149" lon="0.727588">
        <ele>384.48</ele>
      </trkpt>
      <trkpt lat="41.281211" lon="0.728269">
        <ele>376.05</ele>
      </trkpt>
      <trkpt lat="41.281139" lon="0.728496">
        <ele>374.37</ele>
      </trkpt>
      <trkpt lat="41.280902" lon="0.728796">
        <ele>367.62</ele>
      </trkpt>
      <trkpt lat="41.280797" lon="0.729019">
        <ele>363.49</ele>
      </trkpt>
      <trkpt lat="41.280805" lon="0.729111">
        <ele>363.63</ele>
      </trkpt>
      <trkpt lat="41.280787" lon="0.729211">
        <ele>363.84</ele>
      </trkpt>
      <trkpt lat="41.280734" lon="0.729398">
        <ele>363.3</ele>
      </trkpt>
      <trkpt lat="41.280725" lon="0.72949">
        <ele>363.65</ele>
      </trkpt>
      <trkpt lat="41.280739" lon="0.729566">
        <ele>364.53</ele>
      </trkpt>
      <trkpt lat="41.280818" lon="0.729837">
        <ele>366.15</ele>
      </trkpt>
      <trkpt lat="41.28083" lon="0.729974">
        <ele>365.79</ele>
      </trkpt>
      <trkpt lat="41.280846" lon="0.730061">
        <ele>366.04</ele>
      </trkpt>
      <trkpt lat="41.280841" lon="0.730142">
        <ele>366.29</ele>
      </trkpt>
      <trkpt lat="41.280795" lon="0.730196">
        <ele>367.05</ele>
      </trkpt>
      <trkpt lat="41.280678" lon="0.730247">
        <ele>366.61</ele>
      </trkpt>
      <trkpt lat="41.280616" lon="0.730301">
        <ele>367.26</ele>
      </trkpt>
      <trkpt lat="41.280413" lon="0.73039">
        <ele>366.74</ele>
      </trkpt>
      <trkpt lat="41.280052" lon="0.730793">
        <ele>366.34</ele>
      </trkpt>
      <trkpt lat="41.279483" lon="0.73166">
        <ele>366.07</ele>
      </trkpt>
      <trkpt lat="41.279378" lon="0.731961">
        <ele>365.74</ele>
      </trkpt>
      <trkpt lat="41.279332" lon="0.732094">
        <ele>365.6</ele>
      </trkpt>
      <trkpt lat="41.279027" lon="0.732215">
        <ele>366.4</ele>
      </trkpt>
      <trkpt lat="41.278721" lon="0.732336">
        <ele>363.23</ele>
      </trkpt>
      <trkpt lat="41.278487" lon="0.732665">
        <ele>359.14</ele>
      </trkpt>
      <trkpt lat="41.278476" lon="0.732663">
        <ele>359.06</ele>
      </trkpt>
      <trkpt lat="41.278299" lon="0.732635">
        <ele>357.88</ele>
      </trkpt>
      <trkpt lat="41.278127" lon="0.732707">
        <ele>356.92</ele>
      </trkpt>
      <trkpt lat="41.278001" lon="0.732884">
        <ele>355.02</ele>
      </trkpt>
      <trkpt lat="41.278007" lon="0.732923">
        <ele>355.12</ele>
      </trkpt>
      <trkpt lat="41.278009" lon="0.732935">
        <ele>355.16</ele>
      </trkpt>
      <trkpt lat="41.278041" lon="0.733142">
        <ele>354.43</ele>
      </trkpt>
      <trkpt lat="41.278289" lon="0.733727">
        <ele>351.65</ele>
      </trkpt>
      <trkpt lat="41.278339" lon="0.733809">
        <ele>350.95</ele>
      </trkpt>
      <trkpt lat="41.2784" lon="0.733875">
        <ele>349.99</ele>
      </trkpt>
      <trkpt lat="41.27865" lon="0.733991">
        <ele>348.28</ele>
      </trkpt>
      <trkpt lat="41.278758" lon="0.733995">
        <ele>348.13</ele>
      </trkpt>
      <trkpt lat="41.278797" lon="0.734015">
        <ele>347.78</ele>
      </trkpt>
      <trkpt lat="41.279034" lon="0.734143">
        <ele>345.64</ele>
      </trkpt>
      <trkpt lat="41.279152" lon="0.734194">
        <ele>345.11</ele>
      </trkpt>
      <trkpt lat="41.279304" lon="0.734245">
        <ele>343.53</ele>
      </trkpt>
      <trkpt lat="41.279658" lon="0.73426">
        <ele>341.89</ele>
      </trkpt>
      <trkpt lat="41.279886" lon="0.73427">
        <ele>339.07</ele>
      </trkpt>
      <trkpt lat="41.280059" lon="0.734233">
        <ele>338.26</ele>
      </trkpt>
      <trkpt lat="41.280112" lon="0.734245">
        <ele>337.19</ele>
      </trkpt>
      <trkpt lat="41.280197" lon="0.734607">
        <ele>335.07</ele>
      </trkpt>
      <trkpt lat="41.280159" lon="0.734631">
        <ele>335.06</ele>
      </trkpt>
      <trkpt lat="41.280126" lon="0.734652">
        <ele>335.05</ele>
      </trkpt>
      <trkpt lat="41.280074" lon="0.734739">
        <ele>335.65</ele>
      </trkpt>
      <trkpt lat="41.280117" lon="0.734871">
        <ele>339.09</ele>
      </trkpt>
      <trkpt lat="41.280112" lon="0.734872">
        <ele>339.05</ele>
      </trkpt>
      <trkpt lat="41.280117" lon="0.734871">
        <ele>339.09</ele>
      </trkpt>
      <trkpt lat="41.280199" lon="0.734844">
        <ele>339.52</ele>
      </trkpt>
      <trkpt lat="41.280384" lon="0.734828">
        <ele>340.39</ele>
      </trkpt>
      <trkpt lat="41.28069" lon="0.73487">
        <ele>343.83</ele>
      </trkpt>
      <trkpt lat="41.280817" lon="0.734951">
        <ele>345.25</ele>
      </trkpt>
      <trkpt lat="41.280916" lon="0.735073">
        <ele>345.75</ele>
      </trkpt>
      <trkpt lat="41.281435" lon="0.735522">
        <ele>347.35</ele>
      </trkpt>
      <trkpt lat="41.281458" lon="0.735619">
        <ele>347.92</ele>
      </trkpt>
      <trkpt lat="41.28159" lon="0.736006">
        <ele>351.86</ele>
      </trkpt>
      <trkpt lat="41.28169" lon="0.736254">
        <ele>354.67</ele>
      </trkpt>
      <trkpt lat="41.281745" lon="0.736391">
        <ele>356.22</ele>
      </trkpt>
      <trkpt lat="41.281788" lon="0.736562">
        <ele>359.01</ele>
      </trkpt>
      <trkpt lat="41.281795" lon="0.736659">
        <ele>360.47</ele>
      </trkpt>
      <trkpt lat="41.281774" lon="0.736758">
        <ele>361.54</ele>
      </trkpt>
      <trkpt lat="41.281754" lon="0.736924">
        <ele>362.73</ele>
      </trkpt>
      <trkpt lat="41.28171" lon="0.737153">
        <ele>362.55</ele>
      </trkpt>
      <trkpt lat="41.281547" lon="0.737583">
        <ele>365.35</ele>
      </trkpt>
      <trkpt lat="41.281441" lon="0.738134">
        <ele>364.08</ele>
      </trkpt>
      <trkpt lat="41.281353" lon="0.738468">
        <ele>363.28</ele>
      </trkpt>
      <trkpt lat="41.281335" lon="0.73862">
        <ele>362.8</ele>
      </trkpt>
      <trkpt lat="41.281355" lon="0.738739">
        <ele>362.26</ele>
      </trkpt>
      <trkpt lat="41.281445" lon="0.738945">
        <ele>360.06</ele>
      </trkpt>
      <trkpt lat="41.28146" lon="0.739113">
        <ele>358.18</ele>
      </trkpt>
      <trkpt lat="41.281454" lon="0.739184">
        <ele>357.36</ele>
      </trkpt>
      <trkpt lat="41.281472" lon="0.739245">
        <ele>356.29</ele>
      </trkpt>
      <trkpt lat="41.281499" lon="0.739289">
        <ele>356.81</ele>
      </trkpt>
      <trkpt lat="41.281555" lon="0.73938">
        <ele>357.86</ele>
      </trkpt>
      <trkpt lat="41.281544" lon="0.739424">
        <ele>358.66</ele>
      </trkpt>
      <trkpt lat="41.281502" lon="0.739467">
        <ele>359.85</ele>
      </trkpt>
      <trkpt lat="41.281391" lon="0.739523">
        <ele>361.73</ele>
      </trkpt>
      <trkpt lat="41.281351" lon="0.739587">
        <ele>363.94</ele>
      </trkpt>
      <trkpt lat="41.28138" lon="0.739594">
        <ele>364.16</ele>
      </trkpt>
      <trkpt lat="41.28146" lon="0.739613">
        <ele>364.75</ele>
      </trkpt>
      <trkpt lat="41.28153" lon="0.739675">
        <ele>366.37</ele>
      </trkpt>
      <trkpt lat="41.281709" lon="0.740131">
        <ele>372.56</ele>
      </trkpt>
      <trkpt lat="41.2818" lon="0.740435">
        <ele>376.58</ele>
      </trkpt>
      <trkpt lat="41.28183" lon="0.740609">
        <ele>377.99</ele>
      </trkpt>
      <trkpt lat="41.281835" lon="0.740767">
        <ele>379.13</ele>
      </trkpt>
      <trkpt lat="41.281697" lon="0.741157">
        <ele>381.23</ele>
      </trkpt>
      <trkpt lat="41.281606" lon="0.741411">
        <ele>382.6</ele>
      </trkpt>
      <trkpt lat="41.281586" lon="0.741566">
        <ele>383</ele>
      </trkpt>
      <trkpt lat="41.281618" lon="0.741776">
        <ele>383.72</ele>
      </trkpt>
      <trkpt lat="41.281776" lon="0.742229">
        <ele>383.51</ele>
      </trkpt>
      <trkpt lat="41.281818" lon="0.742464">
        <ele>382.02</ele>
      </trkpt>
      <trkpt lat="41.281814" lon="0.742591">
        <ele>381.75</ele>
      </trkpt>
      <trkpt lat="41.281832" lon="0.742702">
        <ele>380.97</ele>
      </trkpt>
      <trkpt lat="41.281845" lon="0.742744">
        <ele>380.89</ele>
      </trkpt>
      <trkpt lat="41.281877" lon="0.742793">
        <ele>380.3</ele>
      </trkpt>
      <trkpt lat="41.281928" lon="0.742828">
        <ele>380.55</ele>
      </trkpt>
      <trkpt lat="41.281986" lon="0.74283">
        <ele>380.43</ele>
      </trkpt>
      <trkpt lat="41.282231" lon="0.7428">
        <ele>378.45</ele>
      </trkpt>
      <trkpt lat="41.282515" lon="0.742782">
        <ele>378.87</ele>
      </trkpt>
      <trkpt lat="41.282799" lon="0.742763">
        <ele>376.54</ele>
      </trkpt>
      <trkpt lat="41.28306" lon="0.742779">
        <ele>373.06</ele>
      </trkpt>
      <trkpt lat="41.283288" lon="0.742875">
        <ele>372.96</ele>
      </trkpt>
      <trkpt lat="41.283422" lon="0.742838">
        <ele>369.56</ele>
      </trkpt>
      <trkpt lat="41.283817" lon="0.742739">
        <ele>366.23</ele>
      </trkpt>
      <trkpt lat="41.284408" lon="0.742659">
        <ele>364.25</ele>
      </trkpt>
      <trkpt lat="41.284606" lon="0.742571">
        <ele>363.13</ele>
      </trkpt>
      <trkpt lat="41.285076" lon="0.742367">
        <ele>357.09</ele>
      </trkpt>
      <trkpt lat="41.285097" lon="0.742358">
        <ele>356.82</ele>
      </trkpt>
      <trkpt lat="41.285339" lon="0.742329">
        <ele>355.59</ele>
      </trkpt>
      <trkpt lat="41.285693" lon="0.742347">
        <ele>353.7</ele>
      </trkpt>
      <trkpt lat="41.285903" lon="0.742386">
        <ele>353.37</ele>
      </trkpt>
      <trkpt lat="41.286069" lon="0.742462">
        <ele>351.97</ele>
      </trkpt>
      <trkpt lat="41.286238" lon="0.742754">
        <ele>351.55</ele>
      </trkpt>
      <trkpt lat="41.286465" lon="0.743118">
        <ele>350.88</ele>
      </trkpt>
      <trkpt lat="41.286518" lon="0.743238">
        <ele>348.92</ele>
      </trkpt>
      <trkpt lat="41.286526" lon="0.743254">
        <ele>348.65</ele>
      </trkpt>
      <trkpt lat="41.286741" lon="0.74331">
        <ele>349.59</ele>
      </trkpt>
      <trkpt lat="41.286831" lon="0.743366">
        <ele>349.75</ele>
      </trkpt>
      <trkpt lat="41.286887" lon="0.743574">
        <ele>350.32</ele>
      </trkpt>
      <trkpt lat="41.286905" lon="0.74386">
        <ele>350.43</ele>
      </trkpt>
      <trkpt lat="41.286873" lon="0.744084">
        <ele>351.98</ele>
      </trkpt>
      <trkpt lat="41.286747" lon="0.744569">
        <ele>353.22</ele>
      </trkpt>
      <trkpt lat="41.286693" lon="0.744894">
        <ele>355.71</ele>
      </trkpt>
      <trkpt lat="41.286679" lon="0.744922">
        <ele>355.74</ele>
      </trkpt>
      <trkpt lat="41.28645" lon="0.745379">
        <ele>356.22</ele>
      </trkpt>
      <trkpt lat="41.286456" lon="0.745449">
        <ele>356.86</ele>
      </trkpt>
      <trkpt lat="41.286468" lon="0.745585">
        <ele>358.09</ele>
      </trkpt>
      <trkpt lat="41.286545" lon="0.745689">
        <ele>359.65</ele>
      </trkpt>
      <trkpt lat="41.286696" lon="0.745723">
        <ele>364.79</ele>
      </trkpt>
      <trkpt lat="41.286704" lon="0.745791">
        <ele>363.59</ele>
      </trkpt>
      <trkpt lat="41.286707" lon="0.745814">
        <ele>363.19</ele>
      </trkpt>
      <trkpt lat="41.286687" lon="0.74598">
        <ele>361.45</ele>
      </trkpt>
      <trkpt lat="41.286672" lon="0.746076">
        <ele>363.09</ele>
      </trkpt>
      <trkpt lat="41.286644" lon="0.74614">
        <ele>364.35</ele>
      </trkpt>
      <trkpt lat="41.286599" lon="0.746171">
        <ele>365.3</ele>
      </trkpt>
      <trkpt lat="41.286126" lon="0.746139">
        <ele>366.36</ele>
      </trkpt>
      <trkpt lat="41.286037" lon="0.746157">
        <ele>365.53</ele>
      </trkpt>
      <trkpt lat="41.285933" lon="0.746245">
        <ele>367.15</ele>
      </trkpt>
      <trkpt lat="41.285626" lon="0.74655">
        <ele>368.27</ele>
      </trkpt>
      <trkpt lat="41.285392" lon="0.746842">
        <ele>369.39</ele>
      </trkpt>
      <trkpt lat="41.285079" lon="0.747054">
        <ele>373.14</ele>
      </trkpt>
      <trkpt lat="41.284463" lon="0.747298">
        <ele>374.61</ele>
      </trkpt>
      <trkpt lat="41.284348" lon="0.747329">
        <ele>376.01</ele>
      </trkpt>
      <trkpt lat="41.284077" lon="0.747338">
        <ele>376.22</ele>
      </trkpt>
      <trkpt lat="41.283956" lon="0.747412">
        <ele>377.07</ele>
      </trkpt>
      <trkpt lat="41.283922" lon="0.747508">
        <ele>378.05</ele>
      </trkpt>
      <trkpt lat="41.28391" lon="0.74763">
        <ele>377.47</ele>
      </trkpt>
      <trkpt lat="41.283916" lon="0.747684">
        <ele>376.71</ele>
      </trkpt>
      <trkpt lat="41.283963" lon="0.747797">
        <ele>374.87</ele>
      </trkpt>
      <trkpt lat="41.284024" lon="0.747872">
        <ele>374.55</ele>
      </trkpt>
      <trkpt lat="41.284111" lon="0.74794">
        <ele>374.05</ele>
      </trkpt>
      <trkpt lat="41.28441" lon="0.74802">
        <ele>375.09</ele>
      </trkpt>
      <trkpt lat="41.284692" lon="0.748208">
        <ele>376.24</ele>
      </trkpt>
      <trkpt lat="41.284907" lon="0.748356">
        <ele>374.63</ele>
      </trkpt>
      <trkpt lat="41.285016" lon="0.748451">
        <ele>374.85</ele>
      </trkpt>
      <trkpt lat="41.285109" lon="0.748536">
        <ele>372.93</ele>
      </trkpt>
      <trkpt lat="41.285194" lon="0.748659">
        <ele>373.46</ele>
      </trkpt>
      <trkpt lat="41.285277" lon="0.748843">
        <ele>372.53</ele>
      </trkpt>
      <trkpt lat="41.285499" lon="0.749339">
        <ele>370.02</ele>
      </trkpt>
      <trkpt lat="41.285581" lon="0.749687">
        <ele>368.63</ele>
      </trkpt>
      <trkpt lat="41.285662" lon="0.750035">
        <ele>369.56</ele>
      </trkpt>
      <trkpt lat="41.285686" lon="0.750203">
        <ele>369.5</ele>
      </trkpt>
      <trkpt lat="41.285682" lon="0.750447">
        <ele>368.66</ele>
      </trkpt>
      <trkpt lat="41.285644" lon="0.75094">
        <ele>369.84</ele>
      </trkpt>
      <trkpt lat="41.28563" lon="0.751124">
        <ele>368.25</ele>
      </trkpt>
      <trkpt lat="41.285601" lon="0.751308">
        <ele>367.51</ele>
      </trkpt>
      <trkpt lat="41.285576" lon="0.751395">
        <ele>367.72</ele>
      </trkpt>
      <trkpt lat="41.285466" lon="0.751622">
        <ele>366.25</ele>
      </trkpt>
      <trkpt lat="41.285188" lon="0.752152">
        <ele>364.21</ele>
      </trkpt>
      <trkpt lat="41.285032" lon="0.752389">
        <ele>363.95</ele>
      </trkpt>
      <trkpt lat="41.284224" lon="0.753501">
        <ele>366.59</ele>
      </trkpt>
      <trkpt lat="41.284047" lon="0.753745">
        <ele>367.18</ele>
      </trkpt>
      <trkpt lat="41.283931" lon="0.753923">
        <ele>367.15</ele>
      </trkpt>
      <trkpt lat="41.283929" lon="0.754098">
        <ele>368.66</ele>
      </trkpt>
      <trkpt lat="41.283928" lon="0.754222">
        <ele>369.73</ele>
      </trkpt>
      <trkpt lat="41.284001" lon="0.754261">
        <ele>372.06</ele>
      </trkpt>
      <trkpt lat="41.284048" lon="0.754493">
        <ele>372.79</ele>
      </trkpt>
      <trkpt lat="41.284105" lon="0.754494">
        <ele>373.7</ele>
      </trkpt>
      <trkpt lat="41.284288" lon="0.754496">
        <ele>376.61</ele>
      </trkpt>
      <trkpt lat="41.284347" lon="0.754174">
        <ele>378.08</ele>
      </trkpt>
      <trkpt lat="41.284417" lon="0.753969">
        <ele>377.9</ele>
      </trkpt>
      <trkpt lat="41.284421" lon="0.754002">
        <ele>378.23</ele>
      </trkpt>
    </trkseg>
  </trk>
</gpx>
