<?xml version="1.0" encoding="UTF-8"?>
<gpx creator="https://gpx.studio" version="1.1" xmlns="http://www.topografix.com/GPX/1/1" xmlns:xsi="http://www.w3.org/2001/XMLSchema-instance" xsi:schemaLocation="http://www.topografix.com/GPX/1/1 http://www.topografix.com/GPX/1/1/gpx.xsd http://www.garmin.com/xmlschemas/GpxExtensions/v3 http://www.garmin.com/xmlschemas/GpxExtensionsv3.xsd http://www.garmin.com/xmlschemas/TrackPointExtension/v1 http://www.garmin.com/xmlschemas/TrackPointExtensionv1.xsd http://www.garmin.com/xmlschemas/PowerExtension/v1 http://www.garmin.com/xmlschemas/PowerExtensionv1.xsd http://www.topografix.com/GPX/gpx_style/0/2 http://www.topografix.com/GPX/gpx_style/0/2/gpx_style.xsd" xmlns:gpxtpx="http://www.garmin.com/xmlschemas/TrackPointExtension/v1" xmlns:gpxx="http://www.garmin.com/xmlschemas/GpxExtensions/v3" xmlns:gpxpx="http://www.garmin.com/xmlschemas/PowerExtension/v1" xmlns:gpx_style="http://www.topografix.com/GPX/gpx_style/0/2">
  <metadata>
    <name>Nuevo archivo 9</name>
    <author>
      <name>gpx.studio</name>
      <link href="https://gpx.studio"/>
    </author>
  </metadata>
  <trk>
    <name>Nuevo archivo 9</name>
    <trkseg>
      <trkpt lat="41.234684" lon="0.844799">
        <ele>357.63</ele>
      </trkpt>
      <trkpt lat="41.234692" lon="0.84472">
        <ele>357.32</ele>
      </trkpt>
      <trkpt lat="41.234779" lon="0.844348">
        <ele>353.82</ele>
      </trkpt>
      <trkpt lat="41.234865" lon="0.844188">
        <ele>353.64</ele>
      </trkpt>
      <trkpt lat="41.234916" lon="0.844118">
        <ele>353.61</ele>
      </trkpt>
      <trkpt lat="41.234991" lon="0.844058">
        <ele>353.69</ele>
      </trkpt>
      <trkpt lat="41.235181" lon="0.843943">
        <ele>352.3</ele>
      </trkpt>
      <trkpt lat="41.235213" lon="0.843884">
        <ele>351.85</ele>
      </trkpt>
      <trkpt lat="41.235231" lon="0.843814">
        <ele>351.21</ele>
      </trkpt>
      <trkpt lat="41.235231" lon="0.843723">
        <ele>350.92</ele>
      </trkpt>
      <trkpt lat="41.235173" lon="0.84328">
        <ele>349.39</ele>
      </trkpt>
      <trkpt lat="41.235177" lon="0.84317">
        <ele>348.7</ele>
      </trkpt>
      <trkpt lat="41.23526" lon="0.842753">
        <ele>345.62</ele>
      </trkpt>
      <trkpt lat="41.235259" lon="0.842622">
        <ele>344.81</ele>
      </trkpt>
      <trkpt lat="41.235212" lon="0.842486">
        <ele>344.88</ele>
      </trkpt>
      <trkpt lat="41.235129" lon="0.842306">
        <ele>343.98</ele>
      </trkpt>
      <trkpt lat="41.23506" lon="0.842156">
        <ele>343.24</ele>
      </trkpt>
      <trkpt lat="41.235018" lon="0.841965">
        <ele>341.46</ele>
      </trkpt>
      <trkpt lat="41.234999" lon="0.84179">
        <ele>340.85</ele>
      </trkpt>
      <trkpt lat="41.235013" lon="0.841648">
        <ele>341.08</ele>
      </trkpt>
      <trkpt lat="41.23495" lon="0.841583">
        <ele>340.11</ele>
      </trkpt>
      <trkpt lat="41.234902" lon="0.841433">
        <ele>339.01</ele>
      </trkpt>
      <trkpt lat="41.234866" lon="0.841272">
        <ele>338.38</ele>
      </trkpt>
      <trkpt lat="41.234862" lon="0.841132">
        <ele>339.65</ele>
      </trkpt>
      <trkpt lat="41.234938" lon="0.840982">
        <ele>339.54</ele>
      </trkpt>
      <trkpt lat="41.235055" lon="0.840966">
        <ele>337.06</ele>
      </trkpt>
      <trkpt lat="41.235285" lon="0.84102">
        <ele>334.78</ele>
      </trkpt>
      <trkpt lat="41.235555" lon="0.841079">
        <ele>334.68</ele>
      </trkpt>
      <trkpt lat="41.235761" lon="0.841041">
        <ele>334.25</ele>
      </trkpt>
      <trkpt lat="41.235979" lon="0.840931">
        <ele>334.24</ele>
      </trkpt>
      <trkpt lat="41.23597" lon="0.84101">
        <ele>334.66</ele>
      </trkpt>
      <trkpt lat="41.235979" lon="0.840931">
        <ele>334.24</ele>
      </trkpt>
      <trkpt lat="41.235968" lon="0.840767">
        <ele>333.79</ele>
      </trkpt>
      <trkpt lat="41.235928" lon="0.840539">
        <ele>333.16</ele>
      </trkpt>
      <trkpt lat="41.235803" lon="0.840069">
        <ele>333.67</ele>
      </trkpt>
      <trkpt lat="41.235716" lon="0.839879">
        <ele>334.02</ele>
      </trkpt>
      <trkpt lat="41.235632" lon="0.839759">
        <ele>334.27</ele>
      </trkpt>
      <trkpt lat="41.235562" lon="0.839693">
        <ele>334.74</ele>
      </trkpt>
      <trkpt lat="41.235472" lon="0.83964">
        <ele>335.4</ele>
      </trkpt>
      <trkpt lat="41.235562" lon="0.839693">
        <ele>334.74</ele>
      </trkpt>
      <trkpt lat="41.235632" lon="0.839759">
        <ele>334.27</ele>
      </trkpt>
      <trkpt lat="41.235661" lon="0.839687">
        <ele>335.66</ele>
      </trkpt>
      <trkpt lat="41.235616" lon="0.839581">
        <ele>338.27</ele>
      </trkpt>
      <trkpt lat="41.235591" lon="0.839467">
        <ele>341.51</ele>
      </trkpt>
      <trkpt lat="41.235686" lon="0.839395">
        <ele>343.07</ele>
      </trkpt>
      <trkpt lat="41.235689" lon="0.839306">
        <ele>344.52</ele>
      </trkpt>
      <trkpt lat="41.235629" lon="0.839221">
        <ele>345.94</ele>
      </trkpt>
      <trkpt lat="41.235623" lon="0.839026">
        <ele>350.37</ele>
      </trkpt>
      <trkpt lat="41.235728" lon="0.838772">
        <ele>354.71</ele>
      </trkpt>
      <trkpt lat="41.235874" lon="0.838472">
        <ele>359.43</ele>
      </trkpt>
      <trkpt lat="41.23589" lon="0.838277">
        <ele>363.8</ele>
      </trkpt>
      <trkpt lat="41.235982" lon="0.838137">
        <ele>363.09</ele>
      </trkpt>
      <trkpt lat="41.236036" lon="0.837938">
        <ele>367.67</ele>
      </trkpt>
      <trkpt lat="41.236046" lon="0.837752">
        <ele>370.6</ele>
      </trkpt>
      <trkpt lat="41.236173" lon="0.837646">
        <ele>370.98</ele>
      </trkpt>
      <trkpt lat="41.236234" lon="0.837557">
        <ele>373.04</ele>
      </trkpt>
      <trkpt lat="41.236161" lon="0.837303">
        <ele>379.53</ele>
      </trkpt>
      <trkpt lat="41.236185" lon="0.837205">
        <ele>380.45</ele>
      </trkpt>
      <trkpt lat="41.236463" lon="0.837122">
        <ele>385.36</ele>
      </trkpt>
      <trkpt lat="41.236503" lon="0.837101">
        <ele>386.06</ele>
      </trkpt>
      <trkpt lat="41.236563" lon="0.836994">
        <ele>387.4</ele>
      </trkpt>
      <trkpt lat="41.23663" lon="0.836731">
        <ele>391.88</ele>
      </trkpt>
      <trkpt lat="41.23658" lon="0.836624">
        <ele>393.01</ele>
      </trkpt>
      <trkpt lat="41.236493" lon="0.836535">
        <ele>391.23</ele>
      </trkpt>
      <trkpt lat="41.236436" lon="0.836347">
        <ele>389.86</ele>
      </trkpt>
      <trkpt lat="41.23646" lon="0.83625">
        <ele>391.73</ele>
      </trkpt>
      <trkpt lat="41.23654" lon="0.836143">
        <ele>391.98</ele>
      </trkpt>
      <trkpt lat="41.236573" lon="0.836028">
        <ele>391.29</ele>
      </trkpt>
      <trkpt lat="41.236591" lon="0.835873">
        <ele>389.98</ele>
      </trkpt>
      <trkpt lat="41.236643" lon="0.83572">
        <ele>389.99</ele>
      </trkpt>
      <trkpt lat="41.236734" lon="0.835634">
        <ele>389.6</ele>
      </trkpt>
      <trkpt lat="41.236837" lon="0.835481">
        <ele>389.44</ele>
      </trkpt>
      <trkpt lat="41.236859" lon="0.835325">
        <ele>389.76</ele>
      </trkpt>
      <trkpt lat="41.236851" lon="0.835116">
        <ele>390.2</ele>
      </trkpt>
      <trkpt lat="41.236891" lon="0.834982">
        <ele>390.84</ele>
      </trkpt>
      <trkpt lat="41.237006" lon="0.834832">
        <ele>391.25</ele>
      </trkpt>
      <trkpt lat="41.237202" lon="0.83462">
        <ele>392.37</ele>
      </trkpt>
      <trkpt lat="41.237347" lon="0.834357">
        <ele>393.53</ele>
      </trkpt>
      <trkpt lat="41.237276" lon="0.833794">
        <ele>394.46</ele>
      </trkpt>
      <trkpt lat="41.237288" lon="0.833629">
        <ele>395.93</ele>
      </trkpt>
      <trkpt lat="41.237281" lon="0.833485">
        <ele>397.94</ele>
      </trkpt>
      <trkpt lat="41.23731" lon="0.833315">
        <ele>397.67</ele>
      </trkpt>
      <trkpt lat="41.237346" lon="0.833202">
        <ele>397.63</ele>
      </trkpt>
      <trkpt lat="41.237428" lon="0.832943">
        <ele>397.53</ele>
      </trkpt>
      <trkpt lat="41.237561" lon="0.832748">
        <ele>398.61</ele>
      </trkpt>
      <trkpt lat="41.237717" lon="0.832659">
        <ele>399</ele>
      </trkpt>
      <trkpt lat="41.237778" lon="0.83246">
        <ele>397.75</ele>
      </trkpt>
      <trkpt lat="41.237733" lon="0.832198">
        <ele>398.76</ele>
      </trkpt>
      <trkpt lat="41.237743" lon="0.831889">
        <ele>398.93</ele>
      </trkpt>
      <trkpt lat="41.237832" lon="0.831486">
        <ele>401.32</ele>
      </trkpt>
      <trkpt lat="41.23794" lon="0.831224">
        <ele>402.46</ele>
      </trkpt>
      <trkpt lat="41.237861" lon="0.830995">
        <ele>401.9</ele>
      </trkpt>
      <trkpt lat="41.237819" lon="0.830657">
        <ele>403.52</ele>
      </trkpt>
      <trkpt lat="41.237749" lon="0.830449">
        <ele>406.11</ele>
      </trkpt>
      <trkpt lat="41.237711" lon="0.830153">
        <ele>407.53</ele>
      </trkpt>
      <trkpt lat="41.23774" lon="0.829856">
        <ele>408.24</ele>
      </trkpt>
      <trkpt lat="41.237943" lon="0.829454">
        <ele>408.36</ele>
      </trkpt>
      <trkpt lat="41.238125" lon="0.829204">
        <ele>406.92</ele>
      </trkpt>
      <trkpt lat="41.2383" lon="0.828845">
        <ele>405.81</ele>
      </trkpt>
      <trkpt lat="41.23844" lon="0.828608">
        <ele>407.2</ele>
      </trkpt>
      <trkpt lat="41.238615" lon="0.828422">
        <ele>407.54</ele>
      </trkpt>
      <trkpt lat="41.238585" lon="0.828342">
        <ele>406.2</ele>
      </trkpt>
      <trkpt lat="41.238746" lon="0.828234">
        <ele>407.35</ele>
      </trkpt>
      <trkpt lat="41.238854" lon="0.82819">
        <ele>408.53</ele>
      </trkpt>
      <trkpt lat="41.238954" lon="0.828174">
        <ele>409.12</ele>
      </trkpt>
      <trkpt lat="41.23915" lon="0.828191">
        <ele>408.54</ele>
      </trkpt>
      <trkpt lat="41.239507" lon="0.828252">
        <ele>408.77</ele>
      </trkpt>
      <trkpt lat="41.240133" lon="0.828401">
        <ele>412.41</ele>
      </trkpt>
      <trkpt lat="41.240298" lon="0.828474">
        <ele>413.04</ele>
      </trkpt>
      <trkpt lat="41.24066" lon="0.828689">
        <ele>415.28</ele>
      </trkpt>
      <trkpt lat="41.240739" lon="0.828716">
        <ele>416.37</ele>
      </trkpt>
      <trkpt lat="41.240819" lon="0.828727">
        <ele>416.69</ele>
      </trkpt>
      <trkpt lat="41.240945" lon="0.828698">
        <ele>415.96</ele>
      </trkpt>
      <trkpt lat="41.241036" lon="0.828789">
        <ele>419.53</ele>
      </trkpt>
      <trkpt lat="41.240945" lon="0.828698">
        <ele>415.96</ele>
      </trkpt>
      <trkpt lat="41.240819" lon="0.828727">
        <ele>416.69</ele>
      </trkpt>
      <trkpt lat="41.240739" lon="0.828716">
        <ele>416.37</ele>
      </trkpt>
      <trkpt lat="41.24066" lon="0.828689">
        <ele>415.28</ele>
      </trkpt>
      <trkpt lat="41.240298" lon="0.828474">
        <ele>413.04</ele>
      </trkpt>
      <trkpt lat="41.240184" lon="0.828423">
        <ele>412.7</ele>
      </trkpt>
      <trkpt lat="41.240346" lon="0.828384">
        <ele>411.58</ele>
      </trkpt>
      <trkpt lat="41.240547" lon="0.82843">
        <ele>410.8</ele>
      </trkpt>
      <trkpt lat="41.240821" lon="0.828464">
        <ele>410.14</ele>
      </trkpt>
      <trkpt lat="41.240879" lon="0.828383">
        <ele>407.97</ele>
      </trkpt>
      <trkpt lat="41.240793" lon="0.828256">
        <ele>406.56</ele>
      </trkpt>
      <trkpt lat="41.240745" lon="0.82815">
        <ele>405.56</ele>
      </trkpt>
      <trkpt lat="41.240732" lon="0.827985">
        <ele>405.03</ele>
      </trkpt>
      <trkpt lat="41.240697" lon="0.827795">
        <ele>404.03</ele>
      </trkpt>
      <trkpt lat="41.240634" lon="0.827469">
        <ele>409.94</ele>
      </trkpt>
      <trkpt lat="41.24071" lon="0.827316">
        <ele>409.67</ele>
      </trkpt>
      <trkpt lat="41.240901" lon="0.827083">
        <ele>409.29</ele>
      </trkpt>
      <trkpt lat="41.241047" lon="0.826935">
        <ele>410.33</ele>
      </trkpt>
      <trkpt lat="41.241054" lon="0.826652">
        <ele>410.04</ele>
      </trkpt>
      <trkpt lat="41.24107" lon="0.826355">
        <ele>411.85</ele>
      </trkpt>
      <trkpt lat="41.241172" lon="0.826177">
        <ele>415.13</ele>
      </trkpt>
      <trkpt lat="41.241242" lon="0.825809">
        <ele>418.81</ele>
      </trkpt>
      <trkpt lat="41.24141" lon="0.825657">
        <ele>421.22</ele>
      </trkpt>
      <trkpt lat="41.241659" lon="0.825513">
        <ele>423.52</ele>
      </trkpt>
      <trkpt lat="41.241805" lon="0.825335">
        <ele>425.26</ele>
      </trkpt>
      <trkpt lat="41.242187" lon="0.824924">
        <ele>430.33</ele>
      </trkpt>
      <trkpt lat="41.24241" lon="0.82478">
        <ele>434.77</ele>
      </trkpt>
      <trkpt lat="41.24198" lon="0.825366">
        <ele>430.89</ele>
      </trkpt>
      <trkpt lat="41.24276" lon="0.824313">
        <ele>437.76</ele>
      </trkpt>
      <trkpt lat="41.242811" lon="0.8242">
        <ele>437.45</ele>
      </trkpt>
      <trkpt lat="41.242843" lon="0.824013">
        <ele>437.56</ele>
      </trkpt>
      <trkpt lat="41.242849" lon="0.823893">
        <ele>438.39</ele>
      </trkpt>
      <trkpt lat="41.242838" lon="0.823642">
        <ele>438.77</ele>
      </trkpt>
      <trkpt lat="41.242753" lon="0.823289">
        <ele>441.72</ele>
      </trkpt>
      <trkpt lat="41.242736" lon="0.823132">
        <ele>443.53</ele>
      </trkpt>
      <trkpt lat="41.242746" lon="0.823002">
        <ele>444.35</ele>
      </trkpt>
      <trkpt lat="41.242819" lon="0.822724">
        <ele>445.45</ele>
      </trkpt>
      <trkpt lat="41.242847" lon="0.822616">
        <ele>445.87</ele>
      </trkpt>
      <trkpt lat="41.242852" lon="0.822489">
        <ele>445.33</ele>
      </trkpt>
      <trkpt lat="41.242825" lon="0.822338">
        <ele>447.34</ele>
      </trkpt>
      <trkpt lat="41.242771" lon="0.822206">
        <ele>448.04</ele>
      </trkpt>
      <trkpt lat="41.242707" lon="0.822129">
        <ele>449.46</ele>
      </trkpt>
      <trkpt lat="41.242627" lon="0.82207">
        <ele>450.79</ele>
      </trkpt>
      <trkpt lat="41.242353" lon="0.821954">
        <ele>454.05</ele>
      </trkpt>
      <trkpt lat="41.242219" lon="0.821843">
        <ele>455.63</ele>
      </trkpt>
      <trkpt lat="41.242151" lon="0.82172">
        <ele>454.74</ele>
      </trkpt>
      <trkpt lat="41.242103" lon="0.821567">
        <ele>453.48</ele>
      </trkpt>
      <trkpt lat="41.242197" lon="0.821495">
        <ele>455.27</ele>
      </trkpt>
      <trkpt lat="41.242255" lon="0.821407">
        <ele>456.75</ele>
      </trkpt>
      <trkpt lat="41.242278" lon="0.821334">
        <ele>457.35</ele>
      </trkpt>
      <trkpt lat="41.242279" lon="0.821267">
        <ele>457.79</ele>
      </trkpt>
      <trkpt lat="41.242268" lon="0.821212">
        <ele>458.59</ele>
      </trkpt>
      <trkpt lat="41.242309" lon="0.820824">
        <ele>468.64</ele>
      </trkpt>
      <trkpt lat="41.242355" lon="0.820739">
        <ele>470.42</ele>
      </trkpt>
      <trkpt lat="41.242391" lon="0.820628">
        <ele>471.53</ele>
      </trkpt>
      <trkpt lat="41.242378" lon="0.820528">
        <ele>471.04</ele>
      </trkpt>
      <trkpt lat="41.242427" lon="0.820426">
        <ele>472.31</ele>
      </trkpt>
      <trkpt lat="41.242509" lon="0.820351">
        <ele>473.18</ele>
      </trkpt>
      <trkpt lat="41.242596" lon="0.820254">
        <ele>473.66</ele>
      </trkpt>
      <trkpt lat="41.242566" lon="0.820133">
        <ele>468.58</ele>
      </trkpt>
      <trkpt lat="41.242652" lon="0.820042">
        <ele>468.98</ele>
      </trkpt>
      <trkpt lat="41.242777" lon="0.819806">
        <ele>470.43</ele>
      </trkpt>
      <trkpt lat="41.242805" lon="0.819778">
        <ele>471.35</ele>
      </trkpt>
      <trkpt lat="41.242837" lon="0.819763">
        <ele>472.55</ele>
      </trkpt>
      <trkpt lat="41.242939" lon="0.819749">
        <ele>475.53</ele>
      </trkpt>
      <trkpt lat="41.243255" lon="0.819725">
        <ele>479.48</ele>
      </trkpt>
      <trkpt lat="41.243275" lon="0.819698">
        <ele>479.41</ele>
      </trkpt>
      <trkpt lat="41.243287" lon="0.81966">
        <ele>478.96</ele>
      </trkpt>
      <trkpt lat="41.243282" lon="0.819611">
        <ele>477.79</ele>
      </trkpt>
      <trkpt lat="41.243263" lon="0.819501">
        <ele>477.22</ele>
      </trkpt>
      <trkpt lat="41.24323" lon="0.819386">
        <ele>477.51</ele>
      </trkpt>
      <trkpt lat="41.243232" lon="0.819242">
        <ele>479.87</ele>
      </trkpt>
      <trkpt lat="41.243244" lon="0.819164">
        <ele>480.65</ele>
      </trkpt>
      <trkpt lat="41.243637" lon="0.818759">
        <ele>485.33</ele>
      </trkpt>
      <trkpt lat="41.244009" lon="0.818367">
        <ele>487.46</ele>
      </trkpt>
      <trkpt lat="41.244303" lon="0.81814">
        <ele>491.18</ele>
      </trkpt>
      <trkpt lat="41.244633" lon="0.818097">
        <ele>497.37</ele>
      </trkpt>
      <trkpt lat="41.244962" lon="0.818169">
        <ele>505.51</ele>
      </trkpt>
      <trkpt lat="41.245199" lon="0.818316">
        <ele>511.59</ele>
      </trkpt>
      <trkpt lat="41.245455" lon="0.818416">
        <ele>515.81</ele>
      </trkpt>
      <trkpt lat="41.245547" lon="0.818427">
        <ele>517.82</ele>
      </trkpt>
      <trkpt lat="41.245606" lon="0.818406">
        <ele>518.69</ele>
      </trkpt>
      <trkpt lat="41.245665" lon="0.818311">
        <ele>517.75</ele>
      </trkpt>
      <trkpt lat="41.245697" lon="0.818243">
        <ele>516.79</ele>
      </trkpt>
      <trkpt lat="41.245742" lon="0.818092">
        <ele>513.48</ele>
      </trkpt>
      <trkpt lat="41.245766" lon="0.818077">
        <ele>512.87</ele>
      </trkpt>
      <trkpt lat="41.2458" lon="0.818075">
        <ele>512.39</ele>
      </trkpt>
      <trkpt lat="41.245867" lon="0.818096">
        <ele>513.91</ele>
      </trkpt>
      <trkpt lat="41.245919" lon="0.818098">
        <ele>514.98</ele>
      </trkpt>
      <trkpt lat="41.245964" lon="0.818081">
        <ele>515.93</ele>
      </trkpt>
      <trkpt lat="41.245999" lon="0.818032">
        <ele>516.2</ele>
      </trkpt>
      <trkpt lat="41.246029" lon="0.817947">
        <ele>516.62</ele>
      </trkpt>
      <trkpt lat="41.246049" lon="0.8177">
        <ele>517.81</ele>
      </trkpt>
      <trkpt lat="41.246025" lon="0.817368">
        <ele>516.46</ele>
      </trkpt>
      <trkpt lat="41.245956" lon="0.817174">
        <ele>513.13</ele>
      </trkpt>
      <trkpt lat="41.245859" lon="0.817062">
        <ele>510.12</ele>
      </trkpt>
      <trkpt lat="41.245601" lon="0.816715">
        <ele>508.11</ele>
      </trkpt>
      <trkpt lat="41.245561" lon="0.81664">
        <ele>508.4</ele>
      </trkpt>
      <trkpt lat="41.245514" lon="0.816515">
        <ele>507.13</ele>
      </trkpt>
      <trkpt lat="41.24548" lon="0.816399">
        <ele>505.36</ele>
      </trkpt>
      <trkpt lat="41.245441" lon="0.816338">
        <ele>503.83</ele>
      </trkpt>
      <trkpt lat="41.245383" lon="0.816315">
        <ele>502.57</ele>
      </trkpt>
      <trkpt lat="41.245421" lon="0.816268">
        <ele>502.48</ele>
      </trkpt>
      <trkpt lat="41.245461" lon="0.816189">
        <ele>501.31</ele>
      </trkpt>
      <trkpt lat="41.245511" lon="0.816165">
        <ele>501.14</ele>
      </trkpt>
      <trkpt lat="41.24558" lon="0.816133">
        <ele>500.9</ele>
      </trkpt>
      <trkpt lat="41.245649" lon="0.816073">
        <ele>500.42</ele>
      </trkpt>
      <trkpt lat="41.245892" lon="0.815814">
        <ele>495.28</ele>
      </trkpt>
      <trkpt lat="41.246175" lon="0.815593">
        <ele>489.85</ele>
      </trkpt>
      <trkpt lat="41.246552" lon="0.815312">
        <ele>481.63</ele>
      </trkpt>
      <trkpt lat="41.246665" lon="0.815248">
        <ele>478.84</ele>
      </trkpt>
      <trkpt lat="41.246763" lon="0.815228">
        <ele>478.84</ele>
      </trkpt>
      <trkpt lat="41.246783" lon="0.815207">
        <ele>478.91</ele>
      </trkpt>
      <trkpt lat="41.246797" lon="0.815173">
        <ele>478.91</ele>
      </trkpt>
      <trkpt lat="41.246784" lon="0.815058">
        <ele>477.78</ele>
      </trkpt>
      <trkpt lat="41.246739" lon="0.814867">
        <ele>476.1</ele>
      </trkpt>
      <trkpt lat="41.246727" lon="0.814736">
        <ele>475.64</ele>
      </trkpt>
      <trkpt lat="41.246723" lon="0.814552">
        <ele>475.07</ele>
      </trkpt>
      <trkpt lat="41.246865" lon="0.814156">
        <ele>473.72</ele>
      </trkpt>
      <trkpt lat="41.246861" lon="0.814088">
        <ele>472.86</ele>
      </trkpt>
      <trkpt lat="41.246845" lon="0.814027">
        <ele>472.74</ele>
      </trkpt>
      <trkpt lat="41.2467" lon="0.813713">
        <ele>471.51</ele>
      </trkpt>
      <trkpt lat="41.246636" lon="0.813387">
        <ele>470.82</ele>
      </trkpt>
      <trkpt lat="41.246565" lon="0.813131">
        <ele>470.86</ele>
      </trkpt>
      <trkpt lat="41.246468" lon="0.812795">
        <ele>468.18</ele>
      </trkpt>
      <trkpt lat="41.246445" lon="0.81269">
        <ele>466.75</ele>
      </trkpt>
      <trkpt lat="41.246397" lon="0.812578">
        <ele>464.54</ele>
      </trkpt>
      <trkpt lat="41.246381" lon="0.812555">
        <ele>464.13</ele>
      </trkpt>
      <trkpt lat="41.246255" lon="0.812361">
        <ele>460.56</ele>
      </trkpt>
      <trkpt lat="41.246156" lon="0.812147">
        <ele>457.26</ele>
      </trkpt>
      <trkpt lat="41.246038" lon="0.812035">
        <ele>455.69</ele>
      </trkpt>
      <trkpt lat="41.245936" lon="0.811877">
        <ele>453.99</ele>
      </trkpt>
      <trkpt lat="41.245742" lon="0.811636">
        <ele>449.95</ele>
      </trkpt>
      <trkpt lat="41.245705" lon="0.811478">
        <ele>448.27</ele>
      </trkpt>
      <trkpt lat="41.245684" lon="0.811386">
        <ele>447.29</ele>
      </trkpt>
      <trkpt lat="41.245568" lon="0.811233">
        <ele>444.04</ele>
      </trkpt>
      <trkpt lat="41.245306" lon="0.811069">
        <ele>442.3</ele>
      </trkpt>
      <trkpt lat="41.245108" lon="0.810915">
        <ele>440.41</ele>
      </trkpt>
      <trkpt lat="41.244852" lon="0.81064">
        <ele>436.26</ele>
      </trkpt>
      <trkpt lat="41.244796" lon="0.810508">
        <ele>434.02</ele>
      </trkpt>
      <trkpt lat="41.244868" lon="0.810264">
        <ele>429.24</ele>
      </trkpt>
      <trkpt lat="41.244984" lon="0.810264">
        <ele>428.31</ele>
      </trkpt>
      <trkpt lat="41.245102" lon="0.810281">
        <ele>427.51</ele>
      </trkpt>
      <trkpt lat="41.245286" lon="0.81035">
        <ele>427.69</ele>
      </trkpt>
      <trkpt lat="41.245417" lon="0.810424">
        <ele>425.43</ele>
      </trkpt>
      <trkpt lat="41.245631" lon="0.810659">
        <ele>424.97</ele>
      </trkpt>
      <trkpt lat="41.245712" lon="0.810733">
        <ele>424.74</ele>
      </trkpt>
      <trkpt lat="41.245844" lon="0.810822">
        <ele>424.74</ele>
      </trkpt>
      <trkpt lat="41.245994" lon="0.810882">
        <ele>425.14</ele>
      </trkpt>
      <trkpt lat="41.246307" lon="0.81096">
        <ele>422.18</ele>
      </trkpt>
      <trkpt lat="41.246394" lon="0.811011">
        <ele>421.48</ele>
      </trkpt>
      <trkpt lat="41.246468" lon="0.811069">
        <ele>420.13</ele>
      </trkpt>
      <trkpt lat="41.24652" lon="0.81113">
        <ele>419.68</ele>
      </trkpt>
      <trkpt lat="41.246606" lon="0.811282">
        <ele>417.62</ele>
      </trkpt>
      <trkpt lat="41.24669" lon="0.811464">
        <ele>417.99</ele>
      </trkpt>
      <trkpt lat="41.24676" lon="0.811566">
        <ele>417.57</ele>
      </trkpt>
      <trkpt lat="41.2469" lon="0.811715">
        <ele>417.25</ele>
      </trkpt>
      <trkpt lat="41.247059" lon="0.811841">
        <ele>416.39</ele>
      </trkpt>
      <trkpt lat="41.247273" lon="0.811951">
        <ele>416.67</ele>
      </trkpt>
      <trkpt lat="41.24732" lon="0.811869">
        <ele>413.64</ele>
      </trkpt>
      <trkpt lat="41.247386" lon="0.811739">
        <ele>411.79</ele>
      </trkpt>
      <trkpt lat="41.247486" lon="0.811563">
        <ele>410.47</ele>
      </trkpt>
      <trkpt lat="41.247624" lon="0.811322">
        <ele>411.07</ele>
      </trkpt>
      <trkpt lat="41.247486" lon="0.811563">
        <ele>410.47</ele>
      </trkpt>
      <trkpt lat="41.247418" lon="0.811534">
        <ele>410.46</ele>
      </trkpt>
      <trkpt lat="41.247216" lon="0.811363">
        <ele>408.89</ele>
      </trkpt>
      <trkpt lat="41.247002" lon="0.811041">
        <ele>408.1</ele>
      </trkpt>
      <trkpt lat="41.246881" lon="0.810901">
        <ele>407.19</ele>
      </trkpt>
      <trkpt lat="41.246062" lon="0.810049">
        <ele>403.99</ele>
      </trkpt>
      <trkpt lat="41.245896" lon="0.809835">
        <ele>402.82</ele>
      </trkpt>
      <trkpt lat="41.245795" lon="0.809827">
        <ele>402.37</ele>
      </trkpt>
      <trkpt lat="41.245608" lon="0.809652">
        <ele>402.21</ele>
      </trkpt>
      <trkpt lat="41.245795" lon="0.809827">
        <ele>402.37</ele>
      </trkpt>
      <trkpt lat="41.245896" lon="0.809835">
        <ele>402.82</ele>
      </trkpt>
      <trkpt lat="41.246062" lon="0.810049">
        <ele>403.99</ele>
      </trkpt>
      <trkpt lat="41.246881" lon="0.810901">
        <ele>407.19</ele>
      </trkpt>
      <trkpt lat="41.247002" lon="0.811041">
        <ele>408.1</ele>
      </trkpt>
      <trkpt lat="41.247216" lon="0.811363">
        <ele>408.89</ele>
      </trkpt>
      <trkpt lat="41.247418" lon="0.811534">
        <ele>410.46</ele>
      </trkpt>
      <trkpt lat="41.247486" lon="0.811563">
        <ele>410.47</ele>
      </trkpt>
      <trkpt lat="41.247386" lon="0.811739">
        <ele>411.79</ele>
      </trkpt>
      <trkpt lat="41.24732" lon="0.811869">
        <ele>413.64</ele>
      </trkpt>
      <trkpt lat="41.247273" lon="0.811951">
        <ele>416.67</ele>
      </trkpt>
      <trkpt lat="41.247059" lon="0.811841">
        <ele>416.39</ele>
      </trkpt>
      <trkpt lat="41.2469" lon="0.811715">
        <ele>417.25</ele>
      </trkpt>
      <trkpt lat="41.24676" lon="0.811566">
        <ele>417.57</ele>
      </trkpt>
      <trkpt lat="41.24669" lon="0.811464">
        <ele>417.99</ele>
      </trkpt>
      <trkpt lat="41.246606" lon="0.811282">
        <ele>417.62</ele>
      </trkpt>
      <trkpt lat="41.24652" lon="0.81113">
        <ele>419.68</ele>
      </trkpt>
      <trkpt lat="41.246468" lon="0.811069">
        <ele>420.13</ele>
      </trkpt>
      <trkpt lat="41.246394" lon="0.811011">
        <ele>421.48</ele>
      </trkpt>
      <trkpt lat="41.246307" lon="0.81096">
        <ele>422.18</ele>
      </trkpt>
      <trkpt lat="41.245994" lon="0.810882">
        <ele>425.14</ele>
      </trkpt>
      <trkpt lat="41.245844" lon="0.810822">
        <ele>424.74</ele>
      </trkpt>
      <trkpt lat="41.245712" lon="0.810733">
        <ele>424.74</ele>
      </trkpt>
      <trkpt lat="41.245631" lon="0.810659">
        <ele>424.97</ele>
      </trkpt>
      <trkpt lat="41.245417" lon="0.810424">
        <ele>425.43</ele>
      </trkpt>
      <trkpt lat="41.245286" lon="0.81035">
        <ele>427.69</ele>
      </trkpt>
      <trkpt lat="41.245102" lon="0.810281">
        <ele>427.51</ele>
      </trkpt>
      <trkpt lat="41.244984" lon="0.810264">
        <ele>428.31</ele>
      </trkpt>
      <trkpt lat="41.244868" lon="0.810264">
        <ele>429.24</ele>
      </trkpt>
      <trkpt lat="41.24474" lon="0.810194">
        <ele>429.37</ele>
      </trkpt>
      <trkpt lat="41.244684" lon="0.81015">
        <ele>429.24</ele>
      </trkpt>
      <trkpt lat="41.244647" lon="0.810002">
        <ele>429.82</ele>
      </trkpt>
      <trkpt lat="41.24461" lon="0.809663">
        <ele>433.06</ele>
      </trkpt>
      <trkpt lat="41.244558" lon="0.809345">
        <ele>435.92</ele>
      </trkpt>
      <trkpt lat="41.244452" lon="0.809035">
        <ele>437.4</ele>
      </trkpt>
      <trkpt lat="41.24437" lon="0.808933">
        <ele>437.64</ele>
      </trkpt>
      <trkpt lat="41.244281" lon="0.808897">
        <ele>438.14</ele>
      </trkpt>
      <trkpt lat="41.244347" lon="0.80884">
        <ele>438.95</ele>
      </trkpt>
      <trkpt lat="41.244311" lon="0.808638">
        <ele>442.54</ele>
      </trkpt>
      <trkpt lat="41.244344" lon="0.808401">
        <ele>445.05</ele>
      </trkpt>
      <trkpt lat="41.2444" lon="0.808193">
        <ele>446.79</ele>
      </trkpt>
      <trkpt lat="41.244447" lon="0.807983">
        <ele>449.15</ele>
      </trkpt>
      <trkpt lat="41.244454" lon="0.807833">
        <ele>450.86</ele>
      </trkpt>
      <trkpt lat="41.244397" lon="0.807643">
        <ele>453.66</ele>
      </trkpt>
      <trkpt lat="41.244238" lon="0.807228">
        <ele>456.28</ele>
      </trkpt>
      <trkpt lat="41.244066" lon="0.80686">
        <ele>455.59</ele>
      </trkpt>
      <trkpt lat="41.243948" lon="0.806521">
        <ele>457.8</ele>
      </trkpt>
      <trkpt lat="41.243926" lon="0.806454">
        <ele>458.59</ele>
      </trkpt>
      <trkpt lat="41.243835" lon="0.806176">
        <ele>461.89</ele>
      </trkpt>
      <trkpt lat="41.243738" lon="0.805908">
        <ele>466.81</ele>
      </trkpt>
      <trkpt lat="41.243682" lon="0.805635">
        <ele>473.43</ele>
      </trkpt>
      <trkpt lat="41.243599" lon="0.805377">
        <ele>477.42</ele>
      </trkpt>
      <trkpt lat="41.243441" lon="0.804614">
        <ele>484.2</ele>
      </trkpt>
      <trkpt lat="41.243336" lon="0.804353">
        <ele>484.48</ele>
      </trkpt>
      <trkpt lat="41.24304" lon="0.804082">
        <ele>489.39</ele>
      </trkpt>
      <trkpt lat="41.243" lon="0.804045">
        <ele>490.06</ele>
      </trkpt>
      <trkpt lat="41.242712" lon="0.803915">
        <ele>498.71</ele>
      </trkpt>
      <trkpt lat="41.242341" lon="0.803951">
        <ele>498.31</ele>
      </trkpt>
      <trkpt lat="41.242299" lon="0.803884">
        <ele>498.22</ele>
      </trkpt>
      <trkpt lat="41.242248" lon="0.803833">
        <ele>498.39</ele>
      </trkpt>
      <trkpt lat="41.241955" lon="0.803697">
        <ele>500.84</ele>
      </trkpt>
      <trkpt lat="41.241742" lon="0.803532">
        <ele>501.09</ele>
      </trkpt>
      <trkpt lat="41.241526" lon="0.803121">
        <ele>504.86</ele>
      </trkpt>
      <trkpt lat="41.241484" lon="0.803066">
        <ele>506.2</ele>
      </trkpt>
      <trkpt lat="41.241239" lon="0.802998">
        <ele>507.02</ele>
      </trkpt>
      <trkpt lat="41.241166" lon="0.802951">
        <ele>508.37</ele>
      </trkpt>
      <trkpt lat="41.241115" lon="0.802919">
        <ele>509.31</ele>
      </trkpt>
      <trkpt lat="41.240986" lon="0.802881">
        <ele>511.93</ele>
      </trkpt>
      <trkpt lat="41.24086" lon="0.802905">
        <ele>514.04</ele>
      </trkpt>
      <trkpt lat="41.240771" lon="0.802959">
        <ele>515.08</ele>
      </trkpt>
      <trkpt lat="41.24066" lon="0.803052">
        <ele>516.12</ele>
      </trkpt>
      <trkpt lat="41.240497" lon="0.803239">
        <ele>517.85</ele>
      </trkpt>
      <trkpt lat="41.240428" lon="0.803301">
        <ele>517.66</ele>
      </trkpt>
      <trkpt lat="41.240354" lon="0.803329">
        <ele>517.8</ele>
      </trkpt>
      <trkpt lat="41.240039" lon="0.803274">
        <ele>518.52</ele>
      </trkpt>
      <trkpt lat="41.23953" lon="0.803104">
        <ele>519.47</ele>
      </trkpt>
      <trkpt lat="41.23916" lon="0.802905">
        <ele>523.06</ele>
      </trkpt>
      <trkpt lat="41.239079" lon="0.802635">
        <ele>522.35</ele>
      </trkpt>
      <trkpt lat="41.238925" lon="0.801754">
        <ele>517.4</ele>
      </trkpt>
      <trkpt lat="41.23889" lon="0.801627">
        <ele>517.03</ele>
      </trkpt>
      <trkpt lat="41.238832" lon="0.801529">
        <ele>516.04</ele>
      </trkpt>
      <trkpt lat="41.238764" lon="0.801507">
        <ele>516</ele>
      </trkpt>
      <trkpt lat="41.23852" lon="0.80169">
        <ele>512.28</ele>
      </trkpt>
      <trkpt lat="41.238377" lon="0.801737">
        <ele>508.95</ele>
      </trkpt>
      <trkpt lat="41.238263" lon="0.80171">
        <ele>508.62</ele>
      </trkpt>
      <trkpt lat="41.238221" lon="0.8017">
        <ele>508.5</ele>
      </trkpt>
      <trkpt lat="41.238071" lon="0.801724">
        <ele>506.79</ele>
      </trkpt>
      <trkpt lat="41.237997" lon="0.801691">
        <ele>506.96</ele>
      </trkpt>
      <trkpt lat="41.237956" lon="0.801617">
        <ele>506.91</ele>
      </trkpt>
      <trkpt lat="41.237938" lon="0.801496">
        <ele>506.6</ele>
      </trkpt>
      <trkpt lat="41.237999" lon="0.800918">
        <ele>503.22</ele>
      </trkpt>
      <trkpt lat="41.237976" lon="0.800691">
        <ele>501.05</ele>
      </trkpt>
      <trkpt lat="41.238008" lon="0.800513">
        <ele>501.94</ele>
      </trkpt>
      <trkpt lat="41.238084" lon="0.800346">
        <ele>502</ele>
      </trkpt>
      <trkpt lat="41.238209" lon="0.800138">
        <ele>500.9</ele>
      </trkpt>
      <trkpt lat="41.238269" lon="0.800013">
        <ele>499.85</ele>
      </trkpt>
      <trkpt lat="41.238326" lon="0.799815">
        <ele>498.58</ele>
      </trkpt>
      <trkpt lat="41.238336" lon="0.7996">
        <ele>495.84</ele>
      </trkpt>
      <trkpt lat="41.238315" lon="0.799423">
        <ele>494.71</ele>
      </trkpt>
      <trkpt lat="41.238254" lon="0.799292">
        <ele>493.26</ele>
      </trkpt>
      <trkpt lat="41.238154" lon="0.799125">
        <ele>492.23</ele>
      </trkpt>
      <trkpt lat="41.238027" lon="0.798621">
        <ele>493.63</ele>
      </trkpt>
      <trkpt lat="41.237941" lon="0.798049">
        <ele>495.25</ele>
      </trkpt>
      <trkpt lat="41.237941" lon="0.797769">
        <ele>497.13</ele>
      </trkpt>
      <trkpt lat="41.237941" lon="0.797605">
        <ele>498.24</ele>
      </trkpt>
      <trkpt lat="41.237966" lon="0.797296">
        <ele>497.55</ele>
      </trkpt>
      <trkpt lat="41.237999" lon="0.797171">
        <ele>496.94</ele>
      </trkpt>
      <trkpt lat="41.23815" lon="0.796917">
        <ele>495.69</ele>
      </trkpt>
      <trkpt lat="41.238167" lon="0.796796">
        <ele>496.83</ele>
      </trkpt>
      <trkpt lat="41.238078" lon="0.796623">
        <ele>500.07</ele>
      </trkpt>
      <trkpt lat="41.237976" lon="0.796394">
        <ele>500.29</ele>
      </trkpt>
      <trkpt lat="41.237919" lon="0.796119">
        <ele>499.31</ele>
      </trkpt>
      <trkpt lat="41.237841" lon="0.796049">
        <ele>498.84</ele>
      </trkpt>
      <trkpt lat="41.237734" lon="0.796033">
        <ele>497.77</ele>
      </trkpt>
      <trkpt lat="41.237553" lon="0.796051">
        <ele>495.55</ele>
      </trkpt>
      <trkpt lat="41.237463" lon="0.796022">
        <ele>497.16</ele>
      </trkpt>
      <trkpt lat="41.23738" lon="0.795891">
        <ele>497.57</ele>
      </trkpt>
      <trkpt lat="41.237321" lon="0.79573">
        <ele>496.78</ele>
      </trkpt>
      <trkpt lat="41.237297" lon="0.795593">
        <ele>496.75</ele>
      </trkpt>
      <trkpt lat="41.237158" lon="0.795122">
        <ele>498.4</ele>
      </trkpt>
      <trkpt lat="41.23713" lon="0.795053">
        <ele>498.69</ele>
      </trkpt>
      <trkpt lat="41.237083" lon="0.795001">
        <ele>498.86</ele>
      </trkpt>
      <trkpt lat="41.236747" lon="0.794912">
        <ele>501.07</ele>
      </trkpt>
      <trkpt lat="41.236524" lon="0.794493">
        <ele>498.59</ele>
      </trkpt>
      <trkpt lat="41.236466" lon="0.794358">
        <ele>497.77</ele>
      </trkpt>
      <trkpt lat="41.236371" lon="0.794282">
        <ele>497</ele>
      </trkpt>
      <trkpt lat="41.236241" lon="0.794133">
        <ele>493.26</ele>
      </trkpt>
      <trkpt lat="41.236046" lon="0.793873">
        <ele>490.08</ele>
      </trkpt>
      <trkpt lat="41.235861" lon="0.793769">
        <ele>488.08</ele>
      </trkpt>
      <trkpt lat="41.235433" lon="0.79353">
        <ele>483.44</ele>
      </trkpt>
      <trkpt lat="41.235129" lon="0.793381">
        <ele>480.43</ele>
      </trkpt>
      <trkpt lat="41.234943" lon="0.793161">
        <ele>477.65</ele>
      </trkpt>
      <trkpt lat="41.234801" lon="0.792877">
        <ele>478.96</ele>
      </trkpt>
      <trkpt lat="41.234687" lon="0.792679">
        <ele>479.39</ele>
      </trkpt>
      <trkpt lat="41.234491" lon="0.792587">
        <ele>477.71</ele>
      </trkpt>
      <trkpt lat="41.234273" lon="0.792308">
        <ele>478.81</ele>
      </trkpt>
      <trkpt lat="41.234191" lon="0.79226">
        <ele>478.21</ele>
      </trkpt>
      <trkpt lat="41.234092" lon="0.792227">
        <ele>478.18</ele>
      </trkpt>
      <trkpt lat="41.233866" lon="0.79224">
        <ele>477.06</ele>
      </trkpt>
      <trkpt lat="41.233723" lon="0.792316">
        <ele>475.77</ele>
      </trkpt>
      <trkpt lat="41.233554" lon="0.79233">
        <ele>474.33</ele>
      </trkpt>
      <trkpt lat="41.233438" lon="0.792288">
        <ele>474.34</ele>
      </trkpt>
      <trkpt lat="41.233198" lon="0.792093">
        <ele>474.93</ele>
      </trkpt>
      <trkpt lat="41.23305" lon="0.791946">
        <ele>476.42</ele>
      </trkpt>
      <trkpt lat="41.232933" lon="0.791915">
        <ele>476.1</ele>
      </trkpt>
      <trkpt lat="41.232776" lon="0.7919">
        <ele>475.29</ele>
      </trkpt>
      <trkpt lat="41.232647" lon="0.791866">
        <ele>475.55</ele>
      </trkpt>
      <trkpt lat="41.232542" lon="0.791804">
        <ele>475.61</ele>
      </trkpt>
      <trkpt lat="41.232423" lon="0.791761">
        <ele>475.05</ele>
      </trkpt>
      <trkpt lat="41.232381" lon="0.791771">
        <ele>474.21</ele>
      </trkpt>
      <trkpt lat="41.232342" lon="0.791781">
        <ele>473.43</ele>
      </trkpt>
      <trkpt lat="41.232245" lon="0.79183">
        <ele>472.44</ele>
      </trkpt>
      <trkpt lat="41.232065" lon="0.791895">
        <ele>470.86</ele>
      </trkpt>
      <trkpt lat="41.231984" lon="0.791878">
        <ele>470.19</ele>
      </trkpt>
      <trkpt lat="41.231862" lon="0.791788">
        <ele>469.25</ele>
      </trkpt>
      <trkpt lat="41.231772" lon="0.7917">
        <ele>469.05</ele>
      </trkpt>
      <trkpt lat="41.231678" lon="0.791575">
        <ele>468.86</ele>
      </trkpt>
      <trkpt lat="41.231615" lon="0.791466">
        <ele>468.89</ele>
      </trkpt>
      <trkpt lat="41.231537" lon="0.791404">
        <ele>468.22</ele>
      </trkpt>
      <trkpt lat="41.231461" lon="0.791393">
        <ele>467.21</ele>
      </trkpt>
      <trkpt lat="41.231305" lon="0.791489">
        <ele>465.79</ele>
      </trkpt>
      <trkpt lat="41.231123" lon="0.791633">
        <ele>464.36</ele>
      </trkpt>
      <trkpt lat="41.231035" lon="0.791646">
        <ele>464.05</ele>
      </trkpt>
      <trkpt lat="41.230978" lon="0.791622">
        <ele>463.93</ele>
      </trkpt>
      <trkpt lat="41.230785" lon="0.791476">
        <ele>462.33</ele>
      </trkpt>
      <trkpt lat="41.230732" lon="0.791276">
        <ele>462.43</ele>
      </trkpt>
      <trkpt lat="41.230762" lon="0.790942">
        <ele>463.34</ele>
      </trkpt>
      <trkpt lat="41.23073" lon="0.790857">
        <ele>464</ele>
      </trkpt>
      <trkpt lat="41.230687" lon="0.790796">
        <ele>464.65</ele>
      </trkpt>
      <trkpt lat="41.230249" lon="0.790688">
        <ele>460.25</ele>
      </trkpt>
      <trkpt lat="41.22999" lon="0.790679">
        <ele>458.25</ele>
      </trkpt>
      <trkpt lat="41.229876" lon="0.790636">
        <ele>456.55</ele>
      </trkpt>
      <trkpt lat="41.22982" lon="0.790559">
        <ele>455.3</ele>
      </trkpt>
      <trkpt lat="41.229711" lon="0.790331">
        <ele>454.62</ele>
      </trkpt>
      <trkpt lat="41.229623" lon="0.790259">
        <ele>454.38</ele>
      </trkpt>
      <trkpt lat="41.229518" lon="0.790246">
        <ele>453.46</ele>
      </trkpt>
      <trkpt lat="41.229415" lon="0.790256">
        <ele>451.73</ele>
      </trkpt>
      <trkpt lat="41.229163" lon="0.790219">
        <ele>448.09</ele>
      </trkpt>
      <trkpt lat="41.229104" lon="0.790174">
        <ele>447.39</ele>
      </trkpt>
      <trkpt lat="41.229071" lon="0.790108">
        <ele>446.42</ele>
      </trkpt>
      <trkpt lat="41.229052" lon="0.789888">
        <ele>444.57</ele>
      </trkpt>
      <trkpt lat="41.229049" lon="0.789727">
        <ele>443.11</ele>
      </trkpt>
      <trkpt lat="41.229085" lon="0.789574">
        <ele>441.66</ele>
      </trkpt>
      <trkpt lat="41.229152" lon="0.78939">
        <ele>440.8</ele>
      </trkpt>
      <trkpt lat="41.22899" lon="0.789124">
        <ele>438.97</ele>
      </trkpt>
      <trkpt lat="41.228841" lon="0.788921">
        <ele>439.03</ele>
      </trkpt>
      <trkpt lat="41.228696" lon="0.788769">
        <ele>439.47</ele>
      </trkpt>
      <trkpt lat="41.228581" lon="0.788705">
        <ele>438.17</ele>
      </trkpt>
      <trkpt lat="41.228468" lon="0.788683">
        <ele>436.88</ele>
      </trkpt>
      <trkpt lat="41.228113" lon="0.788542">
        <ele>433.92</ele>
      </trkpt>
      <trkpt lat="41.228027" lon="0.788238">
        <ele>431.33</ele>
      </trkpt>
      <trkpt lat="41.227969" lon="0.788187">
        <ele>431.05</ele>
      </trkpt>
      <trkpt lat="41.227834" lon="0.787872">
        <ele>427.73</ele>
      </trkpt>
      <trkpt lat="41.22764" lon="0.78758">
        <ele>427.34</ele>
      </trkpt>
      <trkpt lat="41.227575" lon="0.787301">
        <ele>424.4</ele>
      </trkpt>
      <trkpt lat="41.227522" lon="0.787177">
        <ele>422.95</ele>
      </trkpt>
      <trkpt lat="41.227457" lon="0.787079">
        <ele>421.38</ele>
      </trkpt>
      <trkpt lat="41.227339" lon="0.786966">
        <ele>419.06</ele>
      </trkpt>
      <trkpt lat="41.227206" lon="0.786905">
        <ele>418.15</ele>
      </trkpt>
      <trkpt lat="41.227102" lon="0.786807">
        <ele>418.11</ele>
      </trkpt>
      <trkpt lat="41.227027" lon="0.786683">
        <ele>419.45</ele>
      </trkpt>
      <trkpt lat="41.227063" lon="0.786598">
        <ele>420.84</ele>
      </trkpt>
      <trkpt lat="41.227159" lon="0.786426">
        <ele>421.3</ele>
      </trkpt>
      <trkpt lat="41.227192" lon="0.786366">
        <ele>421.47</ele>
      </trkpt>
      <trkpt lat="41.227253" lon="0.786167">
        <ele>420.09</ele>
      </trkpt>
      <trkpt lat="41.227291" lon="0.78593">
        <ele>421.57</ele>
      </trkpt>
      <trkpt lat="41.227364" lon="0.785808">
        <ele>420.78</ele>
      </trkpt>
      <trkpt lat="41.227469" lon="0.785671">
        <ele>419.16</ele>
      </trkpt>
      <trkpt lat="41.227514" lon="0.785526">
        <ele>418.12</ele>
      </trkpt>
      <trkpt lat="41.227492" lon="0.785356">
        <ele>417.93</ele>
      </trkpt>
      <trkpt lat="41.227456" lon="0.78524">
        <ele>417.03</ele>
      </trkpt>
      <trkpt lat="41.227425" lon="0.785166">
        <ele>415.9</ele>
      </trkpt>
      <trkpt lat="41.2274" lon="0.785107">
        <ele>415</ele>
      </trkpt>
      <trkpt lat="41.227237" lon="0.785035">
        <ele>414.69</ele>
      </trkpt>
      <trkpt lat="41.227174" lon="0.785027">
        <ele>414.36</ele>
      </trkpt>
      <trkpt lat="41.22696" lon="0.785127">
        <ele>412.46</ele>
      </trkpt>
      <trkpt lat="41.22675" lon="0.785181">
        <ele>411.35</ele>
      </trkpt>
      <trkpt lat="41.226667" lon="0.78519">
        <ele>411.52</ele>
      </trkpt>
      <trkpt lat="41.226381" lon="0.785077">
        <ele>411.21</ele>
      </trkpt>
      <trkpt lat="41.226102" lon="0.784968">
        <ele>415.18</ele>
      </trkpt>
      <trkpt lat="41.226049" lon="0.784784">
        <ele>414.69</ele>
      </trkpt>
      <trkpt lat="41.226072" lon="0.784753">
        <ele>413.84</ele>
      </trkpt>
      <trkpt lat="41.226076" lon="0.784659">
        <ele>412.65</ele>
      </trkpt>
      <trkpt lat="41.226057" lon="0.784618">
        <ele>412.09</ele>
      </trkpt>
      <trkpt lat="41.226034" lon="0.784509">
        <ele>409.88</ele>
      </trkpt>
      <trkpt lat="41.226037" lon="0.784383">
        <ele>408.17</ele>
      </trkpt>
      <trkpt lat="41.225984" lon="0.784235">
        <ele>404.27</ele>
      </trkpt>
      <trkpt lat="41.225966" lon="0.78415">
        <ele>402.22</ele>
      </trkpt>
      <trkpt lat="41.225986" lon="0.784018">
        <ele>400.17</ele>
      </trkpt>
      <trkpt lat="41.225984" lon="0.783917">
        <ele>398</ele>
      </trkpt>
      <trkpt lat="41.226007" lon="0.783879">
        <ele>397.8</ele>
      </trkpt>
      <trkpt lat="41.226009" lon="0.783856">
        <ele>397.29</ele>
      </trkpt>
      <trkpt lat="41.225983" lon="0.783819">
        <ele>396</ele>
      </trkpt>
      <trkpt lat="41.225924" lon="0.783805">
        <ele>394.74</ele>
      </trkpt>
      <trkpt lat="41.225948" lon="0.783636">
        <ele>391.85</ele>
      </trkpt>
      <trkpt lat="41.225944" lon="0.783588">
        <ele>390.94</ele>
      </trkpt>
      <trkpt lat="41.22587" lon="0.783483">
        <ele>389.41</ele>
      </trkpt>
      <trkpt lat="41.225857" lon="0.78341">
        <ele>388.37</ele>
      </trkpt>
      <trkpt lat="41.225794" lon="0.7833">
        <ele>387.18</ele>
      </trkpt>
      <trkpt lat="41.225745" lon="0.783151">
        <ele>386.57</ele>
      </trkpt>
      <trkpt lat="41.225662" lon="0.783031">
        <ele>383.48</ele>
      </trkpt>
      <trkpt lat="41.225595" lon="0.782772">
        <ele>379.04</ele>
      </trkpt>
      <trkpt lat="41.225527" lon="0.782513">
        <ele>372.48</ele>
      </trkpt>
      <trkpt lat="41.22551" lon="0.782495">
        <ele>371.91</ele>
      </trkpt>
      <trkpt lat="41.225489" lon="0.782496">
        <ele>371.53</ele>
      </trkpt>
      <trkpt lat="41.225416" lon="0.782583">
        <ele>370.68</ele>
      </trkpt>
      <trkpt lat="41.225363" lon="0.782511">
        <ele>367.84</ele>
      </trkpt>
      <trkpt lat="41.225363" lon="0.78249">
        <ele>367.52</ele>
      </trkpt>
      <trkpt lat="41.225356" lon="0.782269">
        <ele>364.18</ele>
      </trkpt>
      <trkpt lat="41.225336" lon="0.782199">
        <ele>362.43</ele>
      </trkpt>
      <trkpt lat="41.225217" lon="0.782066">
        <ele>357.26</ele>
      </trkpt>
      <trkpt lat="41.225204" lon="0.782018">
        <ele>355.48</ele>
      </trkpt>
      <trkpt lat="41.225213" lon="0.781941">
        <ele>353.36</ele>
      </trkpt>
      <trkpt lat="41.225286" lon="0.781842">
        <ele>351.99</ele>
      </trkpt>
      <trkpt lat="41.225446" lon="0.781699">
        <ele>349.54</ele>
      </trkpt>
      <trkpt lat="41.225553" lon="0.781513">
        <ele>345.92</ele>
      </trkpt>
      <trkpt lat="41.225575" lon="0.781476">
        <ele>345.37</ele>
      </trkpt>
      <trkpt lat="41.225718" lon="0.78082">
        <ele>338.25</ele>
      </trkpt>
      <trkpt lat="41.225765" lon="0.780644">
        <ele>334.45</ele>
      </trkpt>
      <trkpt lat="41.225804" lon="0.780641">
        <ele>334.18</ele>
      </trkpt>
      <trkpt lat="41.225765" lon="0.780644">
        <ele>334.45</ele>
      </trkpt>
      <trkpt lat="41.225557" lon="0.780525">
        <ele>329.92</ele>
      </trkpt>
      <trkpt lat="41.225512" lon="0.780549">
        <ele>329.93</ele>
      </trkpt>
      <trkpt lat="41.225361" lon="0.78063">
        <ele>328.28</ele>
      </trkpt>
      <trkpt lat="41.225425" lon="0.780872">
        <ele>330.95</ele>
      </trkpt>
      <trkpt lat="41.225389" lon="0.781148">
        <ele>330.9</ele>
      </trkpt>
      <trkpt lat="41.225325" lon="0.781276">
        <ele>331.56</ele>
      </trkpt>
      <trkpt lat="41.225107" lon="0.781366">
        <ele>331.31</ele>
      </trkpt>
      <trkpt lat="41.224806" lon="0.78158">
        <ele>331.6</ele>
      </trkpt>
      <trkpt lat="41.224764" lon="0.781224">
        <ele>324.99</ele>
      </trkpt>
      <trkpt lat="41.225021" lon="0.780962">
        <ele>317.47</ele>
      </trkpt>
      <trkpt lat="41.225121" lon="0.780881">
        <ele>317.71</ele>
      </trkpt>
      <trkpt lat="41.225077" lon="0.780756">
        <ele>316.62</ele>
      </trkpt>
      <trkpt lat="41.225121" lon="0.780881">
        <ele>317.71</ele>
      </trkpt>
      <trkpt lat="41.225021" lon="0.780962">
        <ele>317.47</ele>
      </trkpt>
      <trkpt lat="41.224764" lon="0.781224">
        <ele>324.99</ele>
      </trkpt>
      <trkpt lat="41.224806" lon="0.78158">
        <ele>331.6</ele>
      </trkpt>
      <trkpt lat="41.224703" lon="0.781875">
        <ele>331.89</ele>
      </trkpt>
      <trkpt lat="41.224631" lon="0.78216">
        <ele>332.51</ele>
      </trkpt>
      <trkpt lat="41.224799" lon="0.782393">
        <ele>337.18</ele>
      </trkpt>
      <trkpt lat="41.224814" lon="0.782626">
        <ele>336.65</ele>
      </trkpt>
      <trkpt lat="41.224864" lon="0.78294">
        <ele>337.71</ele>
      </trkpt>
      <trkpt lat="41.224857" lon="0.78302">
        <ele>337.2</ele>
      </trkpt>
      <trkpt lat="41.22482" lon="0.783129">
        <ele>336.08</ele>
      </trkpt>
      <trkpt lat="41.224782" lon="0.783187">
        <ele>335.8</ele>
      </trkpt>
      <trkpt lat="41.224724" lon="0.783236">
        <ele>335.84</ele>
      </trkpt>
      <trkpt lat="41.224716" lon="0.783286">
        <ele>337.19</ele>
      </trkpt>
      <trkpt lat="41.224741" lon="0.783413">
        <ele>338.62</ele>
      </trkpt>
      <trkpt lat="41.224737" lon="0.783468">
        <ele>339.52</ele>
      </trkpt>
      <trkpt lat="41.224707" lon="0.783571">
        <ele>342.18</ele>
      </trkpt>
      <trkpt lat="41.224676" lon="0.783602">
        <ele>343.36</ele>
      </trkpt>
      <trkpt lat="41.224639" lon="0.783618">
        <ele>344.28</ele>
      </trkpt>
      <trkpt lat="41.224518" lon="0.783553">
        <ele>346.57</ele>
      </trkpt>
      <trkpt lat="41.224345" lon="0.783518">
        <ele>351.74</ele>
      </trkpt>
      <trkpt lat="41.224204" lon="0.783527">
        <ele>353.76</ele>
      </trkpt>
      <trkpt lat="41.224149" lon="0.783565">
        <ele>354.66</ele>
      </trkpt>
      <trkpt lat="41.223951" lon="0.783773">
        <ele>358.9</ele>
      </trkpt>
      <trkpt lat="41.223822" lon="0.783893">
        <ele>362.16</ele>
      </trkpt>
      <trkpt lat="41.223711" lon="0.78394">
        <ele>365.81</ele>
      </trkpt>
      <trkpt lat="41.223487" lon="0.783957">
        <ele>371.64</ele>
      </trkpt>
      <trkpt lat="41.223391" lon="0.784001">
        <ele>374.16</ele>
      </trkpt>
      <trkpt lat="41.223312" lon="0.784081">
        <ele>376.64</ele>
      </trkpt>
      <trkpt lat="41.223239" lon="0.784268">
        <ele>382.04</ele>
      </trkpt>
      <trkpt lat="41.223216" lon="0.784452">
        <ele>383.63</ele>
      </trkpt>
      <trkpt lat="41.22327" lon="0.784623">
        <ele>383.27</ele>
      </trkpt>
      <trkpt lat="41.22333" lon="0.784737">
        <ele>384.35</ele>
      </trkpt>
      <trkpt lat="41.223349" lon="0.784838">
        <ele>384.35</ele>
      </trkpt>
      <trkpt lat="41.22327" lon="0.78511">
        <ele>383.54</ele>
      </trkpt>
      <trkpt lat="41.223258" lon="0.785189">
        <ele>384.22</ele>
      </trkpt>
      <trkpt lat="41.223263" lon="0.785326">
        <ele>385.8</ele>
      </trkpt>
      <trkpt lat="41.223242" lon="0.785397">
        <ele>386.13</ele>
      </trkpt>
      <trkpt lat="41.223187" lon="0.785467">
        <ele>385.33</ele>
      </trkpt>
      <trkpt lat="41.222873" lon="0.785674">
        <ele>383.78</ele>
      </trkpt>
      <trkpt lat="41.222822" lon="0.785719">
        <ele>384.06</ele>
      </trkpt>
      <trkpt lat="41.222653" lon="0.785765">
        <ele>383.8</ele>
      </trkpt>
      <trkpt lat="41.222585" lon="0.785807">
        <ele>383.85</ele>
      </trkpt>
      <trkpt lat="41.222437" lon="0.785941">
        <ele>387.17</ele>
      </trkpt>
      <trkpt lat="41.222311" lon="0.786015">
        <ele>390.13</ele>
      </trkpt>
      <trkpt lat="41.222293" lon="0.786058">
        <ele>390.38</ele>
      </trkpt>
      <trkpt lat="41.222168" lon="0.786078">
        <ele>390.87</ele>
      </trkpt>
      <trkpt lat="41.222077" lon="0.786121">
        <ele>390.16</ele>
      </trkpt>
      <trkpt lat="41.221772" lon="0.786348">
        <ele>386.46</ele>
      </trkpt>
      <trkpt lat="41.221663" lon="0.786354">
        <ele>384.88</ele>
      </trkpt>
      <trkpt lat="41.22144" lon="0.786515">
        <ele>378.73</ele>
      </trkpt>
      <trkpt lat="41.221418" lon="0.786726">
        <ele>377.33</ele>
      </trkpt>
      <trkpt lat="41.221341" lon="0.786917">
        <ele>375.73</ele>
      </trkpt>
      <trkpt lat="41.221188" lon="0.787167">
        <ele>374.26</ele>
      </trkpt>
      <trkpt lat="41.221167" lon="0.787361">
        <ele>374.1</ele>
      </trkpt>
      <trkpt lat="41.221166" lon="0.78737">
        <ele>374.09</ele>
      </trkpt>
      <trkpt lat="41.221262" lon="0.78751">
        <ele>373.86</ele>
      </trkpt>
      <trkpt lat="41.221446" lon="0.787497">
        <ele>373.35</ele>
      </trkpt>
      <trkpt lat="41.22179" lon="0.787201">
        <ele>369.76</ele>
      </trkpt>
      <trkpt lat="41.22193" lon="0.787196">
        <ele>367.65</ele>
      </trkpt>
      <trkpt lat="41.222007" lon="0.787323">
        <ele>365.93</ele>
      </trkpt>
      <trkpt lat="41.221972" lon="0.78762">
        <ele>364.77</ele>
      </trkpt>
      <trkpt lat="41.221991" lon="0.787857">
        <ele>364.69</ele>
      </trkpt>
      <trkpt lat="41.222021" lon="0.787909">
        <ele>365.18</ele>
      </trkpt>
      <trkpt lat="41.222242" lon="0.788149">
        <ele>362.27</ele>
      </trkpt>
      <trkpt lat="41.222279" lon="0.788229">
        <ele>361.52</ele>
      </trkpt>
      <trkpt lat="41.222185" lon="0.788283">
        <ele>360.04</ele>
      </trkpt>
      <trkpt lat="41.222071" lon="0.788238">
        <ele>360.37</ele>
      </trkpt>
      <trkpt lat="41.221899" lon="0.788221">
        <ele>357.98</ele>
      </trkpt>
      <trkpt lat="41.221787" lon="0.788014">
        <ele>356.65</ele>
      </trkpt>
      <trkpt lat="41.221714" lon="0.787908">
        <ele>357.05</ele>
      </trkpt>
      <trkpt lat="41.221602" lon="0.788047">
        <ele>357.42</ele>
      </trkpt>
      <trkpt lat="41.221481" lon="0.788365">
        <ele>355.43</ele>
      </trkpt>
      <trkpt lat="41.221262" lon="0.788805">
        <ele>352.82</ele>
      </trkpt>
      <trkpt lat="41.221182" lon="0.788856">
        <ele>351.42</ele>
      </trkpt>
      <trkpt lat="41.221074" lon="0.788695">
        <ele>350.38</ele>
      </trkpt>
      <trkpt lat="41.220994" lon="0.788555">
        <ele>351.38</ele>
      </trkpt>
      <trkpt lat="41.220813" lon="0.788682">
        <ele>349.93</ele>
      </trkpt>
      <trkpt lat="41.220552" lon="0.78892">
        <ele>345.26</ele>
      </trkpt>
      <trkpt lat="41.220618" lon="0.789148">
        <ele>340.64</ele>
      </trkpt>
      <trkpt lat="41.220724" lon="0.789267">
        <ele>335.8</ele>
      </trkpt>
      <trkpt lat="41.220647" lon="0.789274">
        <ele>337.04</ele>
      </trkpt>
      <trkpt lat="41.220492" lon="0.789308">
        <ele>338.43</ele>
      </trkpt>
      <trkpt lat="41.220449" lon="0.789301">
        <ele>338.14</ele>
      </trkpt>
      <trkpt lat="41.220492" lon="0.789308">
        <ele>338.43</ele>
      </trkpt>
      <trkpt lat="41.220647" lon="0.789274">
        <ele>337.04</ele>
      </trkpt>
      <trkpt lat="41.220724" lon="0.789267">
        <ele>335.8</ele>
      </trkpt>
      <trkpt lat="41.220755" lon="0.789521">
        <ele>333.78</ele>
      </trkpt>
      <trkpt lat="41.220679" lon="0.789737">
        <ele>330.43</ele>
      </trkpt>
      <trkpt lat="41.220552" lon="0.790139">
        <ele>327.02</ele>
      </trkpt>
      <trkpt lat="41.220542" lon="0.790482">
        <ele>326.73</ele>
      </trkpt>
      <trkpt lat="41.220638" lon="0.790621">
        <ele>327.24</ele>
      </trkpt>
      <trkpt lat="41.220816" lon="0.790681">
        <ele>327.54</ele>
      </trkpt>
      <trkpt lat="41.221039" lon="0.790672">
        <ele>324.45</ele>
      </trkpt>
      <trkpt lat="41.221249" lon="0.790609">
        <ele>322.83</ele>
      </trkpt>
      <trkpt lat="41.221516" lon="0.790621">
        <ele>323.57</ele>
      </trkpt>
      <trkpt lat="41.221535" lon="0.790695">
        <ele>322.75</ele>
      </trkpt>
      <trkpt lat="41.22152" lon="0.790748">
        <ele>322.56</ele>
      </trkpt>
      <trkpt lat="41.221493" lon="0.790788">
        <ele>322.06</ele>
      </trkpt>
      <trkpt lat="41.221335" lon="0.790867">
        <ele>321.13</ele>
      </trkpt>
      <trkpt lat="41.221296" lon="0.79093">
        <ele>321.26</ele>
      </trkpt>
      <trkpt lat="41.221259" lon="0.79102">
        <ele>322.61</ele>
      </trkpt>
      <trkpt lat="41.22125" lon="0.791128">
        <ele>321.59</ele>
      </trkpt>
      <trkpt lat="41.221254" lon="0.791206">
        <ele>320.96</ele>
      </trkpt>
      <trkpt lat="41.221283" lon="0.791285">
        <ele>320.27</ele>
      </trkpt>
      <trkpt lat="41.221408" lon="0.791559">
        <ele>319.69</ele>
      </trkpt>
      <trkpt lat="41.221419" lon="0.791714">
        <ele>321.55</ele>
      </trkpt>
      <trkpt lat="41.221465" lon="0.791969">
        <ele>324.09</ele>
      </trkpt>
      <trkpt lat="41.221479" lon="0.792102">
        <ele>326.21</ele>
      </trkpt>
      <trkpt lat="41.221465" lon="0.79218">
        <ele>327.77</ele>
      </trkpt>
      <trkpt lat="41.221431" lon="0.792212">
        <ele>327.96</ele>
      </trkpt>
      <trkpt lat="41.221198" lon="0.792577">
        <ele>328.67</ele>
      </trkpt>
      <trkpt lat="41.221204" lon="0.79284">
        <ele>327.19</ele>
      </trkpt>
      <trkpt lat="41.221239" lon="0.793094">
        <ele>326.33</ele>
      </trkpt>
      <trkpt lat="41.22116" lon="0.793511">
        <ele>325.23</ele>
      </trkpt>
      <trkpt lat="41.221147" lon="0.793576">
        <ele>325.05</ele>
      </trkpt>
      <trkpt lat="41.221048" lon="0.7939">
        <ele>322.3</ele>
      </trkpt>
      <trkpt lat="41.220981" lon="0.794169">
        <ele>319.78</ele>
      </trkpt>
      <trkpt lat="41.221039" lon="0.794893">
        <ele>315.46</ele>
      </trkpt>
      <trkpt lat="41.220978" lon="0.795211">
        <ele>314.06</ele>
      </trkpt>
      <trkpt lat="41.220841" lon="0.795329">
        <ele>313.33</ele>
      </trkpt>
      <trkpt lat="41.220673" lon="0.795338">
        <ele>314.36</ele>
      </trkpt>
      <trkpt lat="41.220466" lon="0.795566">
        <ele>317.54</ele>
      </trkpt>
      <trkpt lat="41.220391" lon="0.795677">
        <ele>317.48</ele>
      </trkpt>
      <trkpt lat="41.220332" lon="0.795765">
        <ele>317.43</ele>
      </trkpt>
      <trkpt lat="41.220364" lon="0.795973">
        <ele>318.7</ele>
      </trkpt>
      <trkpt lat="41.220733" lon="0.796434">
        <ele>321.6</ele>
      </trkpt>
      <trkpt lat="41.220851" lon="0.796633">
        <ele>323.59</ele>
      </trkpt>
      <trkpt lat="41.220934" lon="0.797001">
        <ele>324.84</ele>
      </trkpt>
      <trkpt lat="41.22072" lon="0.797234">
        <ele>324.78</ele>
      </trkpt>
      <trkpt lat="41.220485" lon="0.79759">
        <ele>326.72</ele>
      </trkpt>
      <trkpt lat="41.220093" lon="0.798369">
        <ele>324.85</ele>
      </trkpt>
      <trkpt lat="41.21996" lon="0.798737">
        <ele>322.32</ele>
      </trkpt>
      <trkpt lat="41.219896" lon="0.798915">
        <ele>321.1</ele>
      </trkpt>
      <trkpt lat="41.219784" lon="0.799537">
        <ele>316.09</ele>
      </trkpt>
      <trkpt lat="41.219695" lon="0.800113">
        <ele>312.89</ele>
      </trkpt>
      <trkpt lat="41.219461" lon="0.800443">
        <ele>311.06</ele>
      </trkpt>
      <trkpt lat="41.219128" lon="0.800935">
        <ele>306.82</ele>
      </trkpt>
      <trkpt lat="41.218915" lon="0.801256">
        <ele>301.06</ele>
      </trkpt>
      <trkpt lat="41.218832" lon="0.801413">
        <ele>299.14</ele>
      </trkpt>
      <trkpt lat="41.218781" lon="0.801512">
        <ele>297.93</ele>
      </trkpt>
      <trkpt lat="41.218711" lon="0.801553">
        <ele>298.16</ele>
      </trkpt>
      <trkpt lat="41.218542" lon="0.801822">
        <ele>295.9</ele>
      </trkpt>
      <trkpt lat="41.218435" lon="0.802024">
        <ele>294.83</ele>
      </trkpt>
      <trkpt lat="41.218367" lon="0.802321">
        <ele>291.08</ele>
      </trkpt>
      <trkpt lat="41.218274" lon="0.802634">
        <ele>285.29</ele>
      </trkpt>
      <trkpt lat="41.218202" lon="0.802778">
        <ele>282.74</ele>
      </trkpt>
      <trkpt lat="41.218202" lon="0.802778">
        <ele>282.74</ele>
      </trkpt>
      <trkpt lat="41.218116" lon="0.802952">
        <ele>279.68</ele>
      </trkpt>
      <trkpt lat="41.218221" lon="0.802986">
        <ele>279.55</ele>
      </trkpt>
      <trkpt lat="41.218224" lon="0.803301">
        <ele>276.9</ele>
      </trkpt>
      <trkpt lat="41.218214" lon="0.803665">
        <ele>276.51</ele>
      </trkpt>
      <trkpt lat="41.218125" lon="0.803902">
        <ele>275.91</ele>
      </trkpt>
      <trkpt lat="41.217961" lon="0.804097">
        <ele>276.28</ele>
      </trkpt>
      <trkpt lat="41.217797" lon="0.804292">
        <ele>274.56</ele>
      </trkpt>
      <trkpt lat="41.217657" lon="0.804588">
        <ele>272.75</ele>
      </trkpt>
      <trkpt lat="41.217593" lon="0.80469">
        <ele>271.56</ele>
      </trkpt>
      <trkpt lat="41.217423" lon="0.804895">
        <ele>272.48</ele>
      </trkpt>
      <trkpt lat="41.217504" lon="0.805295">
        <ele>269.8</ele>
      </trkpt>
      <trkpt lat="41.217545" lon="0.805587">
        <ele>268.26</ele>
      </trkpt>
      <trkpt lat="41.217364" lon="0.80643">
        <ele>263.72</ele>
      </trkpt>
      <trkpt lat="41.217264" lon="0.806698">
        <ele>262.05</ele>
      </trkpt>
      <trkpt lat="41.217131" lon="0.806719">
        <ele>261.68</ele>
      </trkpt>
      <trkpt lat="41.21684" lon="0.806959">
        <ele>259.48</ele>
      </trkpt>
      <trkpt lat="41.216655" lon="0.807008">
        <ele>260.08</ele>
      </trkpt>
      <trkpt lat="41.216655" lon="0.807008">
        <ele>260.08</ele>
      </trkpt>
      <trkpt lat="41.216437" lon="0.806903">
        <ele>260.38</ele>
      </trkpt>
      <trkpt lat="41.216602" lon="0.807118">
        <ele>257.04</ele>
      </trkpt>
      <trkpt lat="41.216654" lon="0.807145">
        <ele>256.6</ele>
      </trkpt>
      <trkpt lat="41.216755" lon="0.807146">
        <ele>256.69</ele>
      </trkpt>
      <trkpt lat="41.216816" lon="0.807168">
        <ele>256.2</ele>
      </trkpt>
      <trkpt lat="41.216833" lon="0.807262">
        <ele>256.02</ele>
      </trkpt>
      <trkpt lat="41.216769" lon="0.807381">
        <ele>254.23</ele>
      </trkpt>
      <trkpt lat="41.216389" lon="0.807858">
        <ele>250.61</ele>
      </trkpt>
      <trkpt lat="41.216348" lon="0.807934">
        <ele>249.89</ele>
      </trkpt>
      <trkpt lat="41.216328" lon="0.80802">
        <ele>249.24</ele>
      </trkpt>
      <trkpt lat="41.216332" lon="0.808075">
        <ele>249.11</ele>
      </trkpt>
      <trkpt lat="41.216383" lon="0.808165">
        <ele>249.16</ele>
      </trkpt>
      <trkpt lat="41.216439" lon="0.808206">
        <ele>249.05</ele>
      </trkpt>
      <trkpt lat="41.216578" lon="0.808259">
        <ele>249.24</ele>
      </trkpt>
      <trkpt lat="41.216618" lon="0.808265">
        <ele>249.28</ele>
      </trkpt>
      <trkpt lat="41.216862" lon="0.808299">
        <ele>249.51</ele>
      </trkpt>
      <trkpt lat="41.217062" lon="0.808363">
        <ele>249.14</ele>
      </trkpt>
      <trkpt lat="41.21714" lon="0.808376">
        <ele>249.09</ele>
      </trkpt>
      <trkpt lat="41.21722" lon="0.808575">
        <ele>250.46</ele>
      </trkpt>
      <trkpt lat="41.217255" lon="0.808627">
        <ele>251.55</ele>
      </trkpt>
      <trkpt lat="41.2173" lon="0.808671">
        <ele>251.64</ele>
      </trkpt>
      <trkpt lat="41.21737" lon="0.808698">
        <ele>250.81</ele>
      </trkpt>
      <trkpt lat="41.217312" lon="0.808709">
        <ele>251.9</ele>
      </trkpt>
      <trkpt lat="41.217274" lon="0.808783">
        <ele>254.58</ele>
      </trkpt>
      <trkpt lat="41.217281" lon="0.808856">
        <ele>256.07</ele>
      </trkpt>
      <trkpt lat="41.217318" lon="0.808996">
        <ele>256.17</ele>
      </trkpt>
      <trkpt lat="41.217308" lon="0.809056">
        <ele>256.87</ele>
      </trkpt>
      <trkpt lat="41.217082" lon="0.809611">
        <ele>263.39</ele>
      </trkpt>
      <trkpt lat="41.217064" lon="0.809726">
        <ele>265.15</ele>
      </trkpt>
      <trkpt lat="41.21707" lon="0.809766">
        <ele>265.71</ele>
      </trkpt>
      <trkpt lat="41.217064" lon="0.809726">
        <ele>265.15</ele>
      </trkpt>
      <trkpt lat="41.217082" lon="0.809611">
        <ele>263.39</ele>
      </trkpt>
      <trkpt lat="41.216938" lon="0.809621">
        <ele>264.97</ele>
      </trkpt>
      <trkpt lat="41.216895" lon="0.809665">
        <ele>263.93</ele>
      </trkpt>
      <trkpt lat="41.216874" lon="0.809805">
        <ele>263.04</ele>
      </trkpt>
      <trkpt lat="41.21683" lon="0.809937">
        <ele>262.01</ele>
      </trkpt>
      <trkpt lat="41.216792" lon="0.80998">
        <ele>262.13</ele>
      </trkpt>
      <trkpt lat="41.216749" lon="0.810002">
        <ele>261.24</ele>
      </trkpt>
      <trkpt lat="41.216701" lon="0.810008">
        <ele>259.86</ele>
      </trkpt>
      <trkpt lat="41.216659" lon="0.81003">
        <ele>260.41</ele>
      </trkpt>
      <trkpt lat="41.216597" lon="0.810108">
        <ele>261</ele>
      </trkpt>
      <trkpt lat="41.216569" lon="0.810128">
        <ele>261.1</ele>
      </trkpt>
      <trkpt lat="41.21652" lon="0.810136">
        <ele>262.25</ele>
      </trkpt>
      <trkpt lat="41.216487" lon="0.810122">
        <ele>263</ele>
      </trkpt>
      <trkpt lat="41.216461" lon="0.810093">
        <ele>263.53</ele>
      </trkpt>
      <trkpt lat="41.216443" lon="0.81005">
        <ele>263.71</ele>
      </trkpt>
      <trkpt lat="41.21642" lon="0.810018">
        <ele>264.41</ele>
      </trkpt>
      <trkpt lat="41.216389" lon="0.810006">
        <ele>265.48</ele>
      </trkpt>
      <trkpt lat="41.216348" lon="0.810022">
        <ele>267.22</ele>
      </trkpt>
      <trkpt lat="41.216339" lon="0.810069">
        <ele>268.28</ele>
      </trkpt>
      <trkpt lat="41.216366" lon="0.810151">
        <ele>267.46</ele>
      </trkpt>
      <trkpt lat="41.216361" lon="0.81021">
        <ele>267.46</ele>
      </trkpt>
      <trkpt lat="41.216237" lon="0.810409">
        <ele>270.81</ele>
      </trkpt>
      <trkpt lat="41.216003" lon="0.810666">
        <ele>275.57</ele>
      </trkpt>
      <trkpt lat="41.215833" lon="0.810999">
        <ele>276.87</ele>
      </trkpt>
      <trkpt lat="41.215632" lon="0.811117">
        <ele>280.4</ele>
      </trkpt>
      <trkpt lat="41.215454" lon="0.811081">
        <ele>284.85</ele>
      </trkpt>
      <trkpt lat="41.215365" lon="0.811063">
        <ele>287.08</ele>
      </trkpt>
      <trkpt lat="41.215018" lon="0.811106">
        <ele>293.05</ele>
      </trkpt>
      <trkpt lat="41.214978" lon="0.811161">
        <ele>293.28</ele>
      </trkpt>
      <trkpt lat="41.214992" lon="0.811275">
        <ele>292.73</ele>
      </trkpt>
      <trkpt lat="41.215081" lon="0.811444">
        <ele>290.92</ele>
      </trkpt>
      <trkpt lat="41.215027" lon="0.811605">
        <ele>291.39</ele>
      </trkpt>
      <trkpt lat="41.214591" lon="0.811846">
        <ele>299.32</ele>
      </trkpt>
      <trkpt lat="41.214048" lon="0.812">
        <ele>306.04</ele>
      </trkpt>
      <trkpt lat="41.213977" lon="0.811915">
        <ele>307.11</ele>
      </trkpt>
      <trkpt lat="41.214264" lon="0.811565">
        <ele>304.55</ele>
      </trkpt>
      <trkpt lat="41.213977" lon="0.811915">
        <ele>307.11</ele>
      </trkpt>
      <trkpt lat="41.213909" lon="0.812021">
        <ele>307.62</ele>
      </trkpt>
      <trkpt lat="41.213751" lon="0.812072">
        <ele>309.7</ele>
      </trkpt>
      <trkpt lat="41.213614" lon="0.812065">
        <ele>312.3</ele>
      </trkpt>
      <trkpt lat="41.21348" lon="0.811266">
        <ele>322.51</ele>
      </trkpt>
      <trkpt lat="41.213447" lon="0.811157">
        <ele>325.52</ele>
      </trkpt>
      <trkpt lat="41.213441" lon="0.810818">
        <ele>330.28</ele>
      </trkpt>
      <trkpt lat="41.213407" lon="0.81071">
        <ele>331.71</ele>
      </trkpt>
      <trkpt lat="41.213282" lon="0.81082">
        <ele>334.4</ele>
      </trkpt>
    </trkseg>
  </trk>
</gpx>
