<?xml version="1.0" encoding="UTF-8"?>
<gpx creator="https://gpx.studio" version="1.1" xmlns="http://www.topografix.com/GPX/1/1" xmlns:xsi="http://www.w3.org/2001/XMLSchema-instance" xsi:schemaLocation="http://www.topografix.com/GPX/1/1 http://www.topografix.com/GPX/1/1/gpx.xsd http://www.garmin.com/xmlschemas/GpxExtensions/v3 http://www.garmin.com/xmlschemas/GpxExtensionsv3.xsd http://www.garmin.com/xmlschemas/TrackPointExtension/v1 http://www.garmin.com/xmlschemas/TrackPointExtensionv1.xsd http://www.garmin.com/xmlschemas/PowerExtension/v1 http://www.garmin.com/xmlschemas/PowerExtensionv1.xsd http://www.topografix.com/GPX/gpx_style/0/2 http://www.topografix.com/GPX/gpx_style/0/2/gpx_style.xsd" xmlns:gpxtpx="http://www.garmin.com/xmlschemas/TrackPointExtension/v1" xmlns:gpxx="http://www.garmin.com/xmlschemas/GpxExtensions/v3" xmlns:gpxpx="http://www.garmin.com/xmlschemas/PowerExtension/v1" xmlns:gpx_style="http://www.topografix.com/GPX/gpx_style/0/2">
  <metadata>
    <name>Nuevo archivo 11</name>
    <author>
      <name>gpx.studio</name>
      <link href="https://gpx.studio"/>
    </author>
  </metadata>
  <trk>
    <name>Nuevo archivo 11</name>
    <trkseg>
      <trkpt lat="41.166061" lon="0.767606">
        <ele>249.39</ele>
      </trkpt>
      <trkpt lat="41.166163" lon="0.767717">
        <ele>248.29</ele>
      </trkpt>
      <trkpt lat="41.166198" lon="0.767764">
        <ele>248.56</ele>
      </trkpt>
      <trkpt lat="41.166207" lon="0.767814">
        <ele>248.88</ele>
      </trkpt>
      <trkpt lat="41.166196" lon="0.767904">
        <ele>248.23</ele>
      </trkpt>
      <trkpt lat="41.166145" lon="0.767952">
        <ele>247.53</ele>
      </trkpt>
      <trkpt lat="41.166081" lon="0.767962">
        <ele>246.63</ele>
      </trkpt>
      <trkpt lat="41.166014" lon="0.767928">
        <ele>245.24</ele>
      </trkpt>
      <trkpt lat="41.165868" lon="0.767804">
        <ele>243.78</ele>
      </trkpt>
      <trkpt lat="41.165761" lon="0.76775">
        <ele>242.74</ele>
      </trkpt>
      <trkpt lat="41.165673" lon="0.767747">
        <ele>241.37</ele>
      </trkpt>
      <trkpt lat="41.165506" lon="0.767783">
        <ele>238.23</ele>
      </trkpt>
      <trkpt lat="41.165437" lon="0.767769">
        <ele>237.37</ele>
      </trkpt>
      <trkpt lat="41.165281" lon="0.767682">
        <ele>236.26</ele>
      </trkpt>
      <trkpt lat="41.165167" lon="0.76767">
        <ele>235.83</ele>
      </trkpt>
      <trkpt lat="41.164945" lon="0.767706">
        <ele>236.08</ele>
      </trkpt>
      <trkpt lat="41.164839" lon="0.767694">
        <ele>235.44</ele>
      </trkpt>
      <trkpt lat="41.164731" lon="0.767642">
        <ele>234.95</ele>
      </trkpt>
      <trkpt lat="41.164393" lon="0.767481">
        <ele>233.45</ele>
      </trkpt>
      <trkpt lat="41.164253" lon="0.767456">
        <ele>231.92</ele>
      </trkpt>
      <trkpt lat="41.164184" lon="0.767456">
        <ele>231.95</ele>
      </trkpt>
      <trkpt lat="41.164137" lon="0.767517">
        <ele>231.65</ele>
      </trkpt>
      <trkpt lat="41.164141" lon="0.767603">
        <ele>230.69</ele>
      </trkpt>
      <trkpt lat="41.164215" lon="0.767653">
        <ele>229.32</ele>
      </trkpt>
      <trkpt lat="41.164367" lon="0.767944">
        <ele>226.74</ele>
      </trkpt>
      <trkpt lat="41.164394" lon="0.768103">
        <ele>225.03</ele>
      </trkpt>
      <trkpt lat="41.164386" lon="0.768197">
        <ele>224.09</ele>
      </trkpt>
      <trkpt lat="41.164191" lon="0.768363">
        <ele>227.57</ele>
      </trkpt>
      <trkpt lat="41.164074" lon="0.768523">
        <ele>229.33</ele>
      </trkpt>
      <trkpt lat="41.164054" lon="0.768535">
        <ele>229.71</ele>
      </trkpt>
      <trkpt lat="41.164018" lon="0.768557">
        <ele>230.4</ele>
      </trkpt>
      <trkpt lat="41.163905" lon="0.768564">
        <ele>232.04</ele>
      </trkpt>
      <trkpt lat="41.163537" lon="0.768471">
        <ele>236.51</ele>
      </trkpt>
      <trkpt lat="41.163465" lon="0.768466">
        <ele>237.61</ele>
      </trkpt>
      <trkpt lat="41.163398" lon="0.768489">
        <ele>238.46</ele>
      </trkpt>
      <trkpt lat="41.163326" lon="0.768596">
        <ele>240.69</ele>
      </trkpt>
      <trkpt lat="41.163244" lon="0.768898">
        <ele>246.14</ele>
      </trkpt>
      <trkpt lat="41.163184" lon="0.769027">
        <ele>248.53</ele>
      </trkpt>
      <trkpt lat="41.163011" lon="0.769177">
        <ele>251.22</ele>
      </trkpt>
      <trkpt lat="41.16297" lon="0.769246">
        <ele>251.89</ele>
      </trkpt>
      <trkpt lat="41.162921" lon="0.769598">
        <ele>252.86</ele>
      </trkpt>
      <trkpt lat="41.162862" lon="0.769718">
        <ele>253.99</ele>
      </trkpt>
      <trkpt lat="41.162588" lon="0.769919">
        <ele>257.39</ele>
      </trkpt>
      <trkpt lat="41.162501" lon="0.770001">
        <ele>257.88</ele>
      </trkpt>
      <trkpt lat="41.162443" lon="0.770039">
        <ele>259.22</ele>
      </trkpt>
      <trkpt lat="41.162396" lon="0.770096">
        <ele>261.05</ele>
      </trkpt>
      <trkpt lat="41.16237" lon="0.770163">
        <ele>261.9</ele>
      </trkpt>
      <trkpt lat="41.162399" lon="0.770272">
        <ele>261.48</ele>
      </trkpt>
      <trkpt lat="41.162538" lon="0.770471">
        <ele>257.97</ele>
      </trkpt>
      <trkpt lat="41.162558" lon="0.770556">
        <ele>257.78</ele>
      </trkpt>
      <trkpt lat="41.16253" lon="0.770654">
        <ele>257.37</ele>
      </trkpt>
      <trkpt lat="41.162419" lon="0.770848">
        <ele>257.95</ele>
      </trkpt>
      <trkpt lat="41.162349" lon="0.770985">
        <ele>259.48</ele>
      </trkpt>
      <trkpt lat="41.162347" lon="0.771131">
        <ele>259.86</ele>
      </trkpt>
      <trkpt lat="41.162494" lon="0.771489">
        <ele>259.66</ele>
      </trkpt>
      <trkpt lat="41.162567" lon="0.771726">
        <ele>260.3</ele>
      </trkpt>
      <trkpt lat="41.162612" lon="0.771866">
        <ele>259.05</ele>
      </trkpt>
      <trkpt lat="41.162622" lon="0.771992">
        <ele>257.92</ele>
      </trkpt>
      <trkpt lat="41.162592" lon="0.772036">
        <ele>258.31</ele>
      </trkpt>
      <trkpt lat="41.162436" lon="0.771616">
        <ele>265.41</ele>
      </trkpt>
      <trkpt lat="41.162236" lon="0.771406">
        <ele>271.31</ele>
      </trkpt>
      <trkpt lat="41.16205" lon="0.77121">
        <ele>276.82</ele>
      </trkpt>
      <trkpt lat="41.161995" lon="0.771128">
        <ele>279.7</ele>
      </trkpt>
      <trkpt lat="41.162007" lon="0.770959">
        <ele>279.48</ele>
      </trkpt>
      <trkpt lat="41.162093" lon="0.770616">
        <ele>279.09</ele>
      </trkpt>
      <trkpt lat="41.162061" lon="0.770595">
        <ele>280.74</ele>
      </trkpt>
      <trkpt lat="41.162016" lon="0.770667">
        <ele>282.72</ele>
      </trkpt>
      <trkpt lat="41.161955" lon="0.77084">
        <ele>283.77</ele>
      </trkpt>
      <trkpt lat="41.161841" lon="0.771091">
        <ele>287.15</ele>
      </trkpt>
      <trkpt lat="41.161707" lon="0.771411">
        <ele>288.11</ele>
      </trkpt>
      <trkpt lat="41.161668" lon="0.771654">
        <ele>287.5</ele>
      </trkpt>
      <trkpt lat="41.161601" lon="0.771829">
        <ele>287.21</ele>
      </trkpt>
      <trkpt lat="41.161386" lon="0.772112">
        <ele>286.97</ele>
      </trkpt>
      <trkpt lat="41.161172" lon="0.772394">
        <ele>288.91</ele>
      </trkpt>
      <trkpt lat="41.160697" lon="0.772692">
        <ele>292.83</ele>
      </trkpt>
      <trkpt lat="41.16046" lon="0.772842">
        <ele>296.34</ele>
      </trkpt>
      <trkpt lat="41.160227" lon="0.773043">
        <ele>299.69</ele>
      </trkpt>
      <trkpt lat="41.160104" lon="0.773223">
        <ele>301.83</ele>
      </trkpt>
      <trkpt lat="41.159886" lon="0.773024">
        <ele>300.88</ele>
      </trkpt>
      <trkpt lat="41.159616" lon="0.773375">
        <ele>306.93</ele>
      </trkpt>
      <trkpt lat="41.159472" lon="0.773562">
        <ele>310.16</ele>
      </trkpt>
      <trkpt lat="41.159156" lon="0.773753">
        <ele>314.35</ele>
      </trkpt>
      <trkpt lat="41.158593" lon="0.773873">
        <ele>325.83</ele>
      </trkpt>
      <trkpt lat="41.158455" lon="0.77394">
        <ele>328</ele>
      </trkpt>
      <trkpt lat="41.158427" lon="0.773743">
        <ele>327.67</ele>
      </trkpt>
      <trkpt lat="41.158401" lon="0.773672">
        <ele>327.52</ele>
      </trkpt>
      <trkpt lat="41.158082" lon="0.773139">
        <ele>326.27</ele>
      </trkpt>
      <trkpt lat="41.157762" lon="0.772606">
        <ele>321.54</ele>
      </trkpt>
      <trkpt lat="41.157596" lon="0.772299">
        <ele>318.95</ele>
      </trkpt>
      <trkpt lat="41.157452" lon="0.772069">
        <ele>319.52</ele>
      </trkpt>
      <trkpt lat="41.157366" lon="0.771957">
        <ele>319.7</ele>
      </trkpt>
      <trkpt lat="41.157267" lon="0.771865">
        <ele>320.08</ele>
      </trkpt>
      <trkpt lat="41.157139" lon="0.771807">
        <ele>320.11</ele>
      </trkpt>
      <trkpt lat="41.156628" lon="0.771753">
        <ele>315.97</ele>
      </trkpt>
      <trkpt lat="41.156357" lon="0.771689">
        <ele>313.26</ele>
      </trkpt>
      <trkpt lat="41.156252" lon="0.771597">
        <ele>311.65</ele>
      </trkpt>
      <trkpt lat="41.156117" lon="0.77144">
        <ele>312.13</ele>
      </trkpt>
      <trkpt lat="41.156002" lon="0.77137">
        <ele>312.22</ele>
      </trkpt>
      <trkpt lat="41.155931" lon="0.771357">
        <ele>312.31</ele>
      </trkpt>
      <trkpt lat="41.155728" lon="0.771351">
        <ele>310.82</ele>
      </trkpt>
      <trkpt lat="41.155603" lon="0.771293">
        <ele>308.56</ele>
      </trkpt>
      <trkpt lat="41.155559" lon="0.771245">
        <ele>307.45</ele>
      </trkpt>
      <trkpt lat="41.155533" lon="0.771185">
        <ele>306.84</ele>
      </trkpt>
      <trkpt lat="41.155501" lon="0.770987">
        <ele>306.28</ele>
      </trkpt>
      <trkpt lat="41.155325" lon="0.770648">
        <ele>305.13</ele>
      </trkpt>
      <trkpt lat="41.155359" lon="0.77056">
        <ele>306.03</ele>
      </trkpt>
      <trkpt lat="41.155513" lon="0.77002">
        <ele>303.22</ele>
      </trkpt>
      <trkpt lat="41.155472" lon="0.769749">
        <ele>302.57</ele>
      </trkpt>
      <trkpt lat="41.155429" lon="0.769685">
        <ele>302.28</ele>
      </trkpt>
      <trkpt lat="41.155212" lon="0.769361">
        <ele>300.8</ele>
      </trkpt>
      <trkpt lat="41.154613" lon="0.768119">
        <ele>296.12</ele>
      </trkpt>
      <trkpt lat="41.154067" lon="0.767279">
        <ele>287.87</ele>
      </trkpt>
      <trkpt lat="41.153952" lon="0.767085">
        <ele>286.75</ele>
      </trkpt>
      <trkpt lat="41.153895" lon="0.766752">
        <ele>287</ele>
      </trkpt>
      <trkpt lat="41.153875" lon="0.766468">
        <ele>287.3</ele>
      </trkpt>
      <trkpt lat="41.153895" lon="0.766752">
        <ele>287</ele>
      </trkpt>
      <trkpt lat="41.153973" lon="0.76655">
        <ele>286.77</ele>
      </trkpt>
      <trkpt lat="41.154068" lon="0.766364">
        <ele>285.73</ele>
      </trkpt>
      <trkpt lat="41.154248" lon="0.766109">
        <ele>282.29</ele>
      </trkpt>
      <trkpt lat="41.154428" lon="0.765854">
        <ele>281.18</ele>
      </trkpt>
      <trkpt lat="41.154497" lon="0.765815">
        <ele>280.69</ele>
      </trkpt>
      <trkpt lat="41.154673" lon="0.765815">
        <ele>277.57</ele>
      </trkpt>
      <trkpt lat="41.15474" lon="0.765794">
        <ele>276.05</ele>
      </trkpt>
      <trkpt lat="41.154963" lon="0.765624">
        <ele>269.49</ele>
      </trkpt>
      <trkpt lat="41.155094" lon="0.765465">
        <ele>266.93</ele>
      </trkpt>
      <trkpt lat="41.15514" lon="0.765428">
        <ele>265.83</ele>
      </trkpt>
      <trkpt lat="41.155224" lon="0.765361">
        <ele>263.84</ele>
      </trkpt>
      <trkpt lat="41.155398" lon="0.765264">
        <ele>259.89</ele>
      </trkpt>
      <trkpt lat="41.155451" lon="0.765191">
        <ele>258.49</ele>
      </trkpt>
      <trkpt lat="41.155461" lon="0.76511">
        <ele>257.19</ele>
      </trkpt>
      <trkpt lat="41.155386" lon="0.764921">
        <ele>257.19</ele>
      </trkpt>
      <trkpt lat="41.155331" lon="0.764734">
        <ele>258.75</ele>
      </trkpt>
      <trkpt lat="41.155306" lon="0.764584">
        <ele>259.94</ele>
      </trkpt>
      <trkpt lat="41.155347" lon="0.764129">
        <ele>259.35</ele>
      </trkpt>
      <trkpt lat="41.155337" lon="0.763949">
        <ele>260.19</ele>
      </trkpt>
      <trkpt lat="41.155287" lon="0.763853">
        <ele>260.54</ele>
      </trkpt>
      <trkpt lat="41.155223" lon="0.763834">
        <ele>260.86</ele>
      </trkpt>
      <trkpt lat="41.15509" lon="0.763844">
        <ele>262.06</ele>
      </trkpt>
      <trkpt lat="41.154912" lon="0.763795">
        <ele>261.86</ele>
      </trkpt>
      <trkpt lat="41.15474" lon="0.763737">
        <ele>260.6</ele>
      </trkpt>
      <trkpt lat="41.154268" lon="0.763578">
        <ele>261.29</ele>
      </trkpt>
      <trkpt lat="41.154177" lon="0.763595">
        <ele>262.19</ele>
      </trkpt>
      <trkpt lat="41.154047" lon="0.763589">
        <ele>263.02</ele>
      </trkpt>
      <trkpt lat="41.153592" lon="0.763426">
        <ele>265.41</ele>
      </trkpt>
      <trkpt lat="41.153532" lon="0.763432">
        <ele>265.31</ele>
      </trkpt>
      <trkpt lat="41.153474" lon="0.76352">
        <ele>264.27</ele>
      </trkpt>
      <trkpt lat="41.153383" lon="0.763857">
        <ele>268.89</ele>
      </trkpt>
      <trkpt lat="41.153333" lon="0.764045">
        <ele>271.47</ele>
      </trkpt>
      <trkpt lat="41.15323" lon="0.764285">
        <ele>273.61</ele>
      </trkpt>
      <trkpt lat="41.153128" lon="0.764601">
        <ele>276.85</ele>
      </trkpt>
      <trkpt lat="41.153101" lon="0.764814">
        <ele>278.89</ele>
      </trkpt>
      <trkpt lat="41.152917" lon="0.765597">
        <ele>283.56</ele>
      </trkpt>
      <trkpt lat="41.15287" lon="0.76597">
        <ele>281.62</ele>
      </trkpt>
      <trkpt lat="41.152704" lon="0.766563">
        <ele>275.99</ele>
      </trkpt>
      <trkpt lat="41.152684" lon="0.766788">
        <ele>273.43</ele>
      </trkpt>
      <trkpt lat="41.152662" lon="0.766887">
        <ele>273.5</ele>
      </trkpt>
      <trkpt lat="41.152561" lon="0.767214">
        <ele>274.68</ele>
      </trkpt>
      <trkpt lat="41.152455" lon="0.767695">
        <ele>279.2</ele>
      </trkpt>
      <trkpt lat="41.152243" lon="0.768491">
        <ele>269.99</ele>
      </trkpt>
      <trkpt lat="41.152162" lon="0.768673">
        <ele>267.9</ele>
      </trkpt>
      <trkpt lat="41.15207" lon="0.768798">
        <ele>267.26</ele>
      </trkpt>
      <trkpt lat="41.151855" lon="0.768961">
        <ele>267.34</ele>
      </trkpt>
      <trkpt lat="41.151639" lon="0.769123">
        <ele>270.22</ele>
      </trkpt>
      <trkpt lat="41.15157" lon="0.769215">
        <ele>271.36</ele>
      </trkpt>
      <trkpt lat="41.151479" lon="0.769416">
        <ele>272.22</ele>
      </trkpt>
      <trkpt lat="41.151439" lon="0.76958">
        <ele>272.34</ele>
      </trkpt>
      <trkpt lat="41.15144" lon="0.769726">
        <ele>272.94</ele>
      </trkpt>
      <trkpt lat="41.151441" lon="0.769936">
        <ele>273.81</ele>
      </trkpt>
      <trkpt lat="41.151497" lon="0.770574">
        <ele>278.27</ele>
      </trkpt>
      <trkpt lat="41.151188" lon="0.770536">
        <ele>280.47</ele>
      </trkpt>
      <trkpt lat="41.151094" lon="0.770513">
        <ele>281.7</ele>
      </trkpt>
      <trkpt lat="41.150988" lon="0.770427">
        <ele>282.86</ele>
      </trkpt>
      <trkpt lat="41.150774" lon="0.770082">
        <ele>278.36</ele>
      </trkpt>
      <trkpt lat="41.15049" lon="0.769689">
        <ele>274.49</ele>
      </trkpt>
      <trkpt lat="41.150398" lon="0.769581">
        <ele>273.29</ele>
      </trkpt>
      <trkpt lat="41.150219" lon="0.769462">
        <ele>272.88</ele>
      </trkpt>
      <trkpt lat="41.150011" lon="0.769472">
        <ele>272.1</ele>
      </trkpt>
      <trkpt lat="41.149765" lon="0.769315">
        <ele>271.97</ele>
      </trkpt>
      <trkpt lat="41.14958" lon="0.769223">
        <ele>270.49</ele>
      </trkpt>
      <trkpt lat="41.149529" lon="0.769181">
        <ele>270.08</ele>
      </trkpt>
      <trkpt lat="41.149072" lon="0.768571">
        <ele>269.34</ele>
      </trkpt>
      <trkpt lat="41.148762" lon="0.768236">
        <ele>266.34</ele>
      </trkpt>
      <trkpt lat="41.148711" lon="0.768111">
        <ele>266.64</ele>
      </trkpt>
      <trkpt lat="41.148663" lon="0.76806">
        <ele>266.37</ele>
      </trkpt>
      <trkpt lat="41.148548" lon="0.767977">
        <ele>265.84</ele>
      </trkpt>
      <trkpt lat="41.148366" lon="0.767885">
        <ele>264.64</ele>
      </trkpt>
      <trkpt lat="41.148136" lon="0.767738">
        <ele>263.08</ele>
      </trkpt>
      <trkpt lat="41.148095" lon="0.767683">
        <ele>262.65</ele>
      </trkpt>
      <trkpt lat="41.148067" lon="0.767561">
        <ele>263.07</ele>
      </trkpt>
      <trkpt lat="41.147974" lon="0.767383">
        <ele>262.96</ele>
      </trkpt>
      <trkpt lat="41.147579" lon="0.766829">
        <ele>259.64</ele>
      </trkpt>
      <trkpt lat="41.147185" lon="0.766275">
        <ele>258.81</ele>
      </trkpt>
      <trkpt lat="41.14713" lon="0.766234">
        <ele>258.46</ele>
      </trkpt>
      <trkpt lat="41.147063" lon="0.766236">
        <ele>257.96</ele>
      </trkpt>
      <trkpt lat="41.146905" lon="0.766104">
        <ele>254.81</ele>
      </trkpt>
      <trkpt lat="41.14672" lon="0.766043">
        <ele>252.19</ele>
      </trkpt>
      <trkpt lat="41.146905" lon="0.766104">
        <ele>254.81</ele>
      </trkpt>
      <trkpt lat="41.147063" lon="0.766236">
        <ele>257.96</ele>
      </trkpt>
      <trkpt lat="41.146942" lon="0.76631">
        <ele>256.16</ele>
      </trkpt>
      <trkpt lat="41.146661" lon="0.766425">
        <ele>254.05</ele>
      </trkpt>
      <trkpt lat="41.146517" lon="0.766447">
        <ele>255.18</ele>
      </trkpt>
      <trkpt lat="41.14645" lon="0.766441">
        <ele>256.19</ele>
      </trkpt>
      <trkpt lat="41.146393" lon="0.766406">
        <ele>256.82</ele>
      </trkpt>
      <trkpt lat="41.14631" lon="0.766301">
        <ele>257.71</ele>
      </trkpt>
      <trkpt lat="41.145932" lon="0.766118">
        <ele>255.69</ele>
      </trkpt>
      <trkpt lat="41.145709" lon="0.765962">
        <ele>251.91</ele>
      </trkpt>
      <trkpt lat="41.14562" lon="0.765863">
        <ele>250.57</ele>
      </trkpt>
      <trkpt lat="41.145559" lon="0.765678">
        <ele>248.62</ele>
      </trkpt>
      <trkpt lat="41.145272" lon="0.765588">
        <ele>243.26</ele>
      </trkpt>
      <trkpt lat="41.145201" lon="0.765473">
        <ele>241.32</ele>
      </trkpt>
      <trkpt lat="41.145112" lon="0.765221">
        <ele>237.12</ele>
      </trkpt>
      <trkpt lat="41.145023" lon="0.765033">
        <ele>234.83</ele>
      </trkpt>
      <trkpt lat="41.144952" lon="0.765007">
        <ele>234.36</ele>
      </trkpt>
      <trkpt lat="41.144885" lon="0.765023">
        <ele>234.07</ele>
      </trkpt>
      <trkpt lat="41.144828" lon="0.765058">
        <ele>233.48</ele>
      </trkpt>
      <trkpt lat="41.14478" lon="0.765113">
        <ele>233</ele>
      </trkpt>
      <trkpt lat="41.144342" lon="0.765288">
        <ele>225.59</ele>
      </trkpt>
      <trkpt lat="41.144221" lon="0.765355">
        <ele>223.29</ele>
      </trkpt>
      <trkpt lat="41.144045" lon="0.76548">
        <ele>220.32</ele>
      </trkpt>
      <trkpt lat="41.143975" lon="0.765509">
        <ele>219.36</ele>
      </trkpt>
      <trkpt lat="41.14363" lon="0.765454">
        <ele>215.11</ele>
      </trkpt>
      <trkpt lat="41.143477" lon="0.765317">
        <ele>212.13</ele>
      </trkpt>
      <trkpt lat="41.14341" lon="0.765326">
        <ele>211.66</ele>
      </trkpt>
      <trkpt lat="41.143365" lon="0.765364">
        <ele>211.56</ele>
      </trkpt>
      <trkpt lat="41.143324" lon="0.765433">
        <ele>211.24</ele>
      </trkpt>
      <trkpt lat="41.143305" lon="0.76545">
        <ele>211.02</ele>
      </trkpt>
      <trkpt lat="41.143265" lon="0.765469">
        <ele>212.31</ele>
      </trkpt>
      <trkpt lat="41.143233" lon="0.76546">
        <ele>213.4</ele>
      </trkpt>
      <trkpt lat="41.143204" lon="0.76536">
        <ele>214.65</ele>
      </trkpt>
      <trkpt lat="41.143154" lon="0.765344">
        <ele>216.77</ele>
      </trkpt>
      <trkpt lat="41.142896" lon="0.765531">
        <ele>223.76</ele>
      </trkpt>
      <trkpt lat="41.142829" lon="0.76554">
        <ele>225.14</ele>
      </trkpt>
      <trkpt lat="41.142682" lon="0.765483">
        <ele>226.53</ele>
      </trkpt>
      <trkpt lat="41.142611" lon="0.765422">
        <ele>225.64</ele>
      </trkpt>
      <trkpt lat="41.142522" lon="0.765346">
        <ele>224.52</ele>
      </trkpt>
      <trkpt lat="41.142404" lon="0.765272">
        <ele>223.33</ele>
      </trkpt>
      <trkpt lat="41.142333" lon="0.765266">
        <ele>223.16</ele>
      </trkpt>
      <trkpt lat="41.142052" lon="0.765288">
        <ele>222.4</ele>
      </trkpt>
      <trkpt lat="41.141683" lon="0.765214">
        <ele>221.49</ele>
      </trkpt>
      <trkpt lat="41.141647" lon="0.765252">
        <ele>221.84</ele>
      </trkpt>
      <trkpt lat="41.141604" lon="0.76534">
        <ele>223.2</ele>
      </trkpt>
      <trkpt lat="41.1416" lon="0.765439">
        <ele>224.47</ele>
      </trkpt>
      <trkpt lat="41.141604" lon="0.76534">
        <ele>223.2</ele>
      </trkpt>
      <trkpt lat="41.141647" lon="0.765252">
        <ele>221.84</ele>
      </trkpt>
      <trkpt lat="41.141683" lon="0.765214">
        <ele>221.49</ele>
      </trkpt>
      <trkpt lat="41.141484" lon="0.765167">
        <ele>222.34</ele>
      </trkpt>
      <trkpt lat="41.141052" lon="0.765046">
        <ele>224.99</ele>
      </trkpt>
      <trkpt lat="41.140943" lon="0.764956">
        <ele>225.91</ele>
      </trkpt>
      <trkpt lat="41.140876" lon="0.764819">
        <ele>227.11</ele>
      </trkpt>
      <trkpt lat="41.140755" lon="0.764497">
        <ele>230.65</ele>
      </trkpt>
      <trkpt lat="41.140515" lon="0.764069">
        <ele>233.61</ele>
      </trkpt>
      <trkpt lat="41.140496" lon="0.763934">
        <ele>234.74</ele>
      </trkpt>
      <trkpt lat="41.140454" lon="0.763813">
        <ele>235.17</ele>
      </trkpt>
      <trkpt lat="41.140433" lon="0.763784">
        <ele>235.16</ele>
      </trkpt>
      <trkpt lat="41.140333" lon="0.763647">
        <ele>235.08</ele>
      </trkpt>
      <trkpt lat="41.140253" lon="0.763462">
        <ele>235.2</ele>
      </trkpt>
      <trkpt lat="41.140234" lon="0.763264">
        <ele>236.35</ele>
      </trkpt>
      <trkpt lat="41.14025" lon="0.763059">
        <ele>237.54</ele>
      </trkpt>
      <trkpt lat="41.140253" lon="0.762606">
        <ele>241.18</ele>
      </trkpt>
      <trkpt lat="41.140247" lon="0.762542">
        <ele>241.55</ele>
      </trkpt>
      <trkpt lat="41.140147" lon="0.762254">
        <ele>244.22</ele>
      </trkpt>
      <trkpt lat="41.140088" lon="0.76217">
        <ele>244.71</ele>
      </trkpt>
      <trkpt lat="41.140014" lon="0.7621">
        <ele>245.12</ele>
      </trkpt>
      <trkpt lat="41.139856" lon="0.761983">
        <ele>245.8</ele>
      </trkpt>
      <trkpt lat="41.13977" lon="0.761861">
        <ele>246.51</ele>
      </trkpt>
      <trkpt lat="41.139664" lon="0.76175">
        <ele>247.15</ele>
      </trkpt>
      <trkpt lat="41.139551" lon="0.761587">
        <ele>248.1</ele>
      </trkpt>
      <trkpt lat="41.139423" lon="0.761315">
        <ele>249.73</ele>
      </trkpt>
      <trkpt lat="41.139287" lon="0.760973">
        <ele>251.67</ele>
      </trkpt>
      <trkpt lat="41.138988" lon="0.761366">
        <ele>251.58</ele>
      </trkpt>
      <trkpt lat="41.138648" lon="0.761736">
        <ele>252.17</ele>
      </trkpt>
      <trkpt lat="41.138427" lon="0.761914">
        <ele>253.97</ele>
      </trkpt>
      <trkpt lat="41.138315" lon="0.761956">
        <ele>254.42</ele>
      </trkpt>
      <trkpt lat="41.138191" lon="0.761976">
        <ele>255.61</ele>
      </trkpt>
      <trkpt lat="41.138068" lon="0.761963">
        <ele>256.83</ele>
      </trkpt>
      <trkpt lat="41.137965" lon="0.761893">
        <ele>258.1</ele>
      </trkpt>
      <trkpt lat="41.137575" lon="0.761429">
        <ele>261.26</ele>
      </trkpt>
      <trkpt lat="41.137527" lon="0.76141">
        <ele>261.85</ele>
      </trkpt>
      <trkpt lat="41.13746" lon="0.761425">
        <ele>262.3</ele>
      </trkpt>
      <trkpt lat="41.137348" lon="0.761545">
        <ele>263.29</ele>
      </trkpt>
      <trkpt lat="41.136947" lon="0.762222">
        <ele>266.29</ele>
      </trkpt>
      <trkpt lat="41.136734" lon="0.762583">
        <ele>268.74</ele>
      </trkpt>
      <trkpt lat="41.136673" lon="0.762728">
        <ele>269.09</ele>
      </trkpt>
      <trkpt lat="41.13663" lon="0.762897">
        <ele>268.75</ele>
      </trkpt>
      <trkpt lat="41.136599" lon="0.763094">
        <ele>268.26</ele>
      </trkpt>
      <trkpt lat="41.136564" lon="0.763684">
        <ele>267.89</ele>
      </trkpt>
      <trkpt lat="41.136423" lon="0.764541">
        <ele>269.89</ele>
      </trkpt>
      <trkpt lat="41.13637" lon="0.76486">
        <ele>269.07</ele>
      </trkpt>
      <trkpt lat="41.136244" lon="0.765425">
        <ele>265.68</ele>
      </trkpt>
      <trkpt lat="41.136157" lon="0.765672">
        <ele>264.46</ele>
      </trkpt>
      <trkpt lat="41.136037" lon="0.765924">
        <ele>263.9</ele>
      </trkpt>
      <trkpt lat="41.135775" lon="0.766588">
        <ele>265.97</ele>
      </trkpt>
      <trkpt lat="41.135553" lon="0.767273">
        <ele>268.96</ele>
      </trkpt>
      <trkpt lat="41.135413" lon="0.767833">
        <ele>271.61</ele>
      </trkpt>
      <trkpt lat="41.135352" lon="0.768222">
        <ele>272.75</ele>
      </trkpt>
      <trkpt lat="41.135341" lon="0.768294">
        <ele>272.96</ele>
      </trkpt>
      <trkpt lat="41.135363" lon="0.768695">
        <ele>273.34</ele>
      </trkpt>
      <trkpt lat="41.135362" lon="0.769077">
        <ele>273.39</ele>
      </trkpt>
      <trkpt lat="41.135326" lon="0.769343">
        <ele>272.83</ele>
      </trkpt>
      <trkpt lat="41.135281" lon="0.769485">
        <ele>272.96</ele>
      </trkpt>
      <trkpt lat="41.135072" lon="0.769856">
        <ele>273.87</ele>
      </trkpt>
      <trkpt lat="41.134995" lon="0.77004">
        <ele>275.72</ele>
      </trkpt>
      <trkpt lat="41.134954" lon="0.770377">
        <ele>279.64</ele>
      </trkpt>
      <trkpt lat="41.134976" lon="0.770572">
        <ele>281.05</ele>
      </trkpt>
      <trkpt lat="41.135069" lon="0.770744">
        <ele>281.51</ele>
      </trkpt>
      <trkpt lat="41.135371" lon="0.771058">
        <ele>282.62</ele>
      </trkpt>
      <trkpt lat="41.13553" lon="0.771298">
        <ele>282.39</ele>
      </trkpt>
      <trkpt lat="41.135584" lon="0.77138">
        <ele>282.3</ele>
      </trkpt>
      <trkpt lat="41.135672" lon="0.771558">
        <ele>282.31</ele>
      </trkpt>
      <trkpt lat="41.135747" lon="0.771787">
        <ele>282.2</ele>
      </trkpt>
      <trkpt lat="41.135767" lon="0.771936">
        <ele>281.83</ele>
      </trkpt>
      <trkpt lat="41.135755" lon="0.77204">
        <ele>281.91</ele>
      </trkpt>
      <trkpt lat="41.135727" lon="0.772127">
        <ele>282.18</ele>
      </trkpt>
      <trkpt lat="41.135493" lon="0.772676">
        <ele>284.19</ele>
      </trkpt>
      <trkpt lat="41.135446" lon="0.772876">
        <ele>284.82</ele>
      </trkpt>
      <trkpt lat="41.135454" lon="0.772992">
        <ele>284.59</ele>
      </trkpt>
      <trkpt lat="41.135508" lon="0.773155">
        <ele>284.31</ele>
      </trkpt>
      <trkpt lat="41.135791" lon="0.773719">
        <ele>286.88</ele>
      </trkpt>
      <trkpt lat="41.13585" lon="0.773903">
        <ele>289.24</ele>
      </trkpt>
      <trkpt lat="41.135872" lon="0.774041">
        <ele>290</ele>
      </trkpt>
      <trkpt lat="41.135877" lon="0.774228">
        <ele>289.6</ele>
      </trkpt>
      <trkpt lat="41.135836" lon="0.774468">
        <ele>288.44</ele>
      </trkpt>
      <trkpt lat="41.135849" lon="0.774821">
        <ele>287.71</ele>
      </trkpt>
      <trkpt lat="41.135799" lon="0.775456">
        <ele>281.76</ele>
      </trkpt>
      <trkpt lat="41.1358" lon="0.775766">
        <ele>279.82</ele>
      </trkpt>
      <trkpt lat="41.135835" lon="0.776165">
        <ele>278.19</ele>
      </trkpt>
      <trkpt lat="41.136015" lon="0.776819">
        <ele>279.34</ele>
      </trkpt>
      <trkpt lat="41.136052" lon="0.777295">
        <ele>282.06</ele>
      </trkpt>
      <trkpt lat="41.136134" lon="0.777774">
        <ele>283.65</ele>
      </trkpt>
      <trkpt lat="41.136147" lon="0.777986">
        <ele>284.27</ele>
      </trkpt>
      <trkpt lat="41.136159" lon="0.778181">
        <ele>284.85</ele>
      </trkpt>
      <trkpt lat="41.136127" lon="0.778534">
        <ele>285.6</ele>
      </trkpt>
      <trkpt lat="41.136085" lon="0.779198">
        <ele>287</ele>
      </trkpt>
      <trkpt lat="41.136069" lon="0.779306">
        <ele>287</ele>
      </trkpt>
      <trkpt lat="41.135921" lon="0.779884">
        <ele>288.28</ele>
      </trkpt>
      <trkpt lat="41.135697" lon="0.780521">
        <ele>290.44</ele>
      </trkpt>
      <trkpt lat="41.135633" lon="0.781314">
        <ele>290.09</ele>
      </trkpt>
      <trkpt lat="41.135678" lon="0.781855">
        <ele>289.86</ele>
      </trkpt>
      <trkpt lat="41.135511" lon="0.782191">
        <ele>289.33</ele>
      </trkpt>
      <trkpt lat="41.135678" lon="0.781855">
        <ele>289.86</ele>
      </trkpt>
      <trkpt lat="41.135697" lon="0.782078">
        <ele>290.03</ele>
      </trkpt>
      <trkpt lat="41.135623" lon="0.782956">
        <ele>288.86</ele>
      </trkpt>
      <trkpt lat="41.135644" lon="0.783763">
        <ele>286</ele>
      </trkpt>
      <trkpt lat="41.135953" lon="0.784853">
        <ele>287.04</ele>
      </trkpt>
      <trkpt lat="41.136326" lon="0.785759">
        <ele>290.14</ele>
      </trkpt>
      <trkpt lat="41.13643" lon="0.785928">
        <ele>290.98</ele>
      </trkpt>
      <trkpt lat="41.136614" lon="0.786226">
        <ele>292.46</ele>
      </trkpt>
      <trkpt lat="41.137339" lon="0.786297">
        <ele>297.39</ele>
      </trkpt>
      <trkpt lat="41.138326" lon="0.786501">
        <ele>304.56</ele>
      </trkpt>
      <trkpt lat="41.138757" lon="0.786609">
        <ele>305.78</ele>
      </trkpt>
      <trkpt lat="41.138981" lon="0.787147">
        <ele>308.63</ele>
      </trkpt>
      <trkpt lat="41.139173" lon="0.787954">
        <ele>308.92</ele>
      </trkpt>
      <trkpt lat="41.139546" lon="0.788407">
        <ele>307.34</ele>
      </trkpt>
      <trkpt lat="41.139759" lon="0.788845">
        <ele>305.11</ele>
      </trkpt>
      <trkpt lat="41.139813" lon="0.789695">
        <ele>307.1</ele>
      </trkpt>
      <trkpt lat="41.140079" lon="0.790785">
        <ele>310.11</ele>
      </trkpt>
      <trkpt lat="41.14041" lon="0.791705">
        <ele>317.66</ele>
      </trkpt>
      <trkpt lat="41.140465" lon="0.791898">
        <ele>317.59</ele>
      </trkpt>
      <trkpt lat="41.140591" lon="0.792342">
        <ele>317.41</ele>
      </trkpt>
      <trkpt lat="41.14074" lon="0.792951">
        <ele>315.16</ele>
      </trkpt>
      <trkpt lat="41.141113" lon="0.79339">
        <ele>312.2</ele>
      </trkpt>
      <trkpt lat="41.141298" lon="0.793522">
        <ele>312.22</ele>
      </trkpt>
      <trkpt lat="41.141668" lon="0.793786">
        <ele>312.27</ele>
      </trkpt>
      <trkpt lat="41.14239" lon="0.794517">
        <ele>314.55</ele>
      </trkpt>
      <trkpt lat="41.142521" lon="0.79465">
        <ele>314.96</ele>
      </trkpt>
      <trkpt lat="41.142589" lon="0.794929">
        <ele>315.85</ele>
      </trkpt>
      <trkpt lat="41.141979" lon="0.796299">
        <ele>313.33</ele>
      </trkpt>
      <trkpt lat="41.141777" lon="0.796715">
        <ele>312.22</ele>
      </trkpt>
      <trkpt lat="41.141684" lon="0.797052">
        <ele>310.99</ele>
      </trkpt>
      <trkpt lat="41.141628" lon="0.797293">
        <ele>310.14</ele>
      </trkpt>
      <trkpt lat="41.14153" lon="0.797639">
        <ele>308.62</ele>
      </trkpt>
      <trkpt lat="41.141464" lon="0.797709">
        <ele>307.98</ele>
      </trkpt>
      <trkpt lat="41.1414" lon="0.797708">
        <ele>307.94</ele>
      </trkpt>
      <trkpt lat="41.141343" lon="0.797676">
        <ele>307.41</ele>
      </trkpt>
      <trkpt lat="41.141237" lon="0.797618">
        <ele>306.44</ele>
      </trkpt>
      <trkpt lat="41.141171" lon="0.797614">
        <ele>306.37</ele>
      </trkpt>
      <trkpt lat="41.141112" lon="0.797633">
        <ele>306.47</ele>
      </trkpt>
      <trkpt lat="41.141002" lon="0.797709">
        <ele>306.15</ele>
      </trkpt>
      <trkpt lat="41.140509" lon="0.798223">
        <ele>306.33</ele>
      </trkpt>
      <trkpt lat="41.140399" lon="0.798309">
        <ele>305.98</ele>
      </trkpt>
      <trkpt lat="41.140135" lon="0.798124">
        <ele>305.28</ele>
      </trkpt>
      <trkpt lat="41.139525" lon="0.797695">
        <ele>303.67</ele>
      </trkpt>
      <trkpt lat="41.138763" lon="0.79756">
        <ele>299.05</ele>
      </trkpt>
      <trkpt lat="41.138575" lon="0.797582">
        <ele>298.98</ele>
      </trkpt>
      <trkpt lat="41.138368" lon="0.797607">
        <ele>298.9</ele>
      </trkpt>
      <trkpt lat="41.138472" lon="0.797822">
        <ele>299</ele>
      </trkpt>
      <trkpt lat="41.138283" lon="0.797954">
        <ele>296.49</ele>
      </trkpt>
      <trkpt lat="41.13812" lon="0.79801">
        <ele>295.65</ele>
      </trkpt>
      <trkpt lat="41.137997" lon="0.797596">
        <ele>295.25</ele>
      </trkpt>
      <trkpt lat="41.137746" lon="0.797728">
        <ele>294.18</ele>
      </trkpt>
      <trkpt lat="41.137496" lon="0.79786">
        <ele>289.2</ele>
      </trkpt>
      <trkpt lat="41.137474" lon="0.797966">
        <ele>289</ele>
      </trkpt>
      <trkpt lat="41.137423" lon="0.79832">
        <ele>289.68</ele>
      </trkpt>
      <trkpt lat="41.137317" lon="0.798379">
        <ele>290.11</ele>
      </trkpt>
      <trkpt lat="41.137159" lon="0.798467">
        <ele>290.76</ele>
      </trkpt>
      <trkpt lat="41.135988" lon="0.799421">
        <ele>297.8</ele>
      </trkpt>
      <trkpt lat="41.135698" lon="0.799673">
        <ele>298.97</ele>
      </trkpt>
      <trkpt lat="41.134917" lon="0.800361">
        <ele>302.51</ele>
      </trkpt>
      <trkpt lat="41.135017" lon="0.800658">
        <ele>304.13</ele>
      </trkpt>
      <trkpt lat="41.135075" lon="0.800833">
        <ele>305.08</ele>
      </trkpt>
      <trkpt lat="41.135102" lon="0.800883">
        <ele>305.37</ele>
      </trkpt>
      <trkpt lat="41.135237" lon="0.801459">
        <ele>308.92</ele>
      </trkpt>
      <trkpt lat="41.135248" lon="0.801686">
        <ele>308.99</ele>
      </trkpt>
      <trkpt lat="41.135302" lon="0.802139">
        <ele>309</ele>
      </trkpt>
      <trkpt lat="41.13537" lon="0.802701">
        <ele>309</ele>
      </trkpt>
      <trkpt lat="41.135653" lon="0.803158">
        <ele>309.82</ele>
      </trkpt>
      <trkpt lat="41.135587" lon="0.803294">
        <ele>308.31</ele>
      </trkpt>
      <trkpt lat="41.135325" lon="0.803375">
        <ele>306.22</ele>
      </trkpt>
      <trkpt lat="41.135309" lon="0.803421">
        <ele>306.16</ele>
      </trkpt>
      <trkpt lat="41.135332" lon="0.803574">
        <ele>309.48</ele>
      </trkpt>
      <trkpt lat="41.135607" lon="0.803516">
        <ele>310.3</ele>
      </trkpt>
      <trkpt lat="41.13566" lon="0.803554">
        <ele>311.59</ele>
      </trkpt>
      <trkpt lat="41.135733" lon="0.803927">
        <ele>313.04</ele>
      </trkpt>
      <trkpt lat="41.135924" lon="0.804182">
        <ele>314</ele>
      </trkpt>
      <trkpt lat="41.135961" lon="0.804511">
        <ele>315.22</ele>
      </trkpt>
      <trkpt lat="41.136" lon="0.804867">
        <ele>316.53</ele>
      </trkpt>
      <trkpt lat="41.135955" lon="0.805249">
        <ele>317</ele>
      </trkpt>
      <trkpt lat="41.135608" lon="0.806611">
        <ele>320</ele>
      </trkpt>
      <trkpt lat="41.135602" lon="0.806693">
        <ele>320.07</ele>
      </trkpt>
      <trkpt lat="41.135526" lon="0.807776">
        <ele>321</ele>
      </trkpt>
      <trkpt lat="41.135357" lon="0.808769">
        <ele>322</ele>
      </trkpt>
      <trkpt lat="41.135313" lon="0.808899">
        <ele>322.21</ele>
      </trkpt>
      <trkpt lat="41.134961" lon="0.809944">
        <ele>323.92</ele>
      </trkpt>
      <trkpt lat="41.134759" lon="0.810644">
        <ele>329.2</ele>
      </trkpt>
      <trkpt lat="41.134599" lon="0.81053">
        <ele>329.55</ele>
      </trkpt>
      <trkpt lat="41.134543" lon="0.810699">
        <ele>330.79</ele>
      </trkpt>
      <trkpt lat="41.134499" lon="0.8109">
        <ele>331.59</ele>
      </trkpt>
      <trkpt lat="41.134476" lon="0.811063">
        <ele>332</ele>
      </trkpt>
      <trkpt lat="41.134478" lon="0.811182">
        <ele>332</ele>
      </trkpt>
      <trkpt lat="41.134455" lon="0.811306">
        <ele>332</ele>
      </trkpt>
      <trkpt lat="41.134386" lon="0.811526">
        <ele>332.84</ele>
      </trkpt>
      <trkpt lat="41.134351" lon="0.811552">
        <ele>333</ele>
      </trkpt>
      <trkpt lat="41.134294" lon="0.811538">
        <ele>333</ele>
      </trkpt>
      <trkpt lat="41.134279" lon="0.811569">
        <ele>333</ele>
      </trkpt>
      <trkpt lat="41.134191" lon="0.81186">
        <ele>333.75</ele>
      </trkpt>
      <trkpt lat="41.134052" lon="0.812321">
        <ele>334.92</ele>
      </trkpt>
      <trkpt lat="41.133924" lon="0.812838">
        <ele>335.64</ele>
      </trkpt>
      <trkpt lat="41.133913" lon="0.812928">
        <ele>335.11</ele>
      </trkpt>
      <trkpt lat="41.133914" lon="0.812996">
        <ele>334.72</ele>
      </trkpt>
      <trkpt lat="41.13395" lon="0.813039">
        <ele>334.76</ele>
      </trkpt>
      <trkpt lat="41.13422" lon="0.813158">
        <ele>334.26</ele>
      </trkpt>
      <trkpt lat="41.134131" lon="0.813168">
        <ele>334.2</ele>
      </trkpt>
      <trkpt lat="41.134007" lon="0.813233">
        <ele>333.83</ele>
      </trkpt>
      <trkpt lat="41.133856" lon="0.813338">
        <ele>333.21</ele>
      </trkpt>
      <trkpt lat="41.133732" lon="0.813461">
        <ele>332.06</ele>
      </trkpt>
      <trkpt lat="41.13361" lon="0.813596">
        <ele>331.12</ele>
      </trkpt>
      <trkpt lat="41.133524" lon="0.813777">
        <ele>331.15</ele>
      </trkpt>
      <trkpt lat="41.133388" lon="0.813923">
        <ele>330.63</ele>
      </trkpt>
      <trkpt lat="41.133222" lon="0.814079">
        <ele>328.91</ele>
      </trkpt>
      <trkpt lat="41.133148" lon="0.814185">
        <ele>328.29</ele>
      </trkpt>
      <trkpt lat="41.132995" lon="0.814538">
        <ele>326.68</ele>
      </trkpt>
      <trkpt lat="41.132896" lon="0.814748">
        <ele>327</ele>
      </trkpt>
      <trkpt lat="41.132755" lon="0.815211">
        <ele>325.48</ele>
      </trkpt>
      <trkpt lat="41.132712" lon="0.815247">
        <ele>325.7</ele>
      </trkpt>
      <trkpt lat="41.132647" lon="0.815241">
        <ele>325.58</ele>
      </trkpt>
      <trkpt lat="41.132592" lon="0.815214">
        <ele>325.16</ele>
      </trkpt>
      <trkpt lat="41.132034" lon="0.814939">
        <ele>320.91</ele>
      </trkpt>
      <trkpt lat="41.13182" lon="0.814852">
        <ele>319.35</ele>
      </trkpt>
      <trkpt lat="41.131759" lon="0.814902">
        <ele>318.78</ele>
      </trkpt>
      <trkpt lat="41.131724" lon="0.814993">
        <ele>318.22</ele>
      </trkpt>
      <trkpt lat="41.131709" lon="0.815197">
        <ele>317.39</ele>
      </trkpt>
      <trkpt lat="41.131714" lon="0.815378">
        <ele>316.72</ele>
      </trkpt>
      <trkpt lat="41.131734" lon="0.815529">
        <ele>316.33</ele>
      </trkpt>
      <trkpt lat="41.131792" lon="0.815663">
        <ele>316.18</ele>
      </trkpt>
      <trkpt lat="41.131832" lon="0.815783">
        <ele>316.89</ele>
      </trkpt>
      <trkpt lat="41.131827" lon="0.815897">
        <ele>316.81</ele>
      </trkpt>
      <trkpt lat="41.131802" lon="0.816007">
        <ele>316.6</ele>
      </trkpt>
      <trkpt lat="41.131739" lon="0.816058">
        <ele>316.59</ele>
      </trkpt>
      <trkpt lat="41.131522" lon="0.816078">
        <ele>316.44</ele>
      </trkpt>
      <trkpt lat="41.131441" lon="0.816158">
        <ele>316.06</ele>
      </trkpt>
      <trkpt lat="41.131371" lon="0.816198">
        <ele>315.61</ele>
      </trkpt>
      <trkpt lat="41.131308" lon="0.816282">
        <ele>315.11</ele>
      </trkpt>
      <trkpt lat="41.13126" lon="0.816381">
        <ele>313.57</ele>
      </trkpt>
      <trkpt lat="41.131254" lon="0.816458">
        <ele>313</ele>
      </trkpt>
      <trkpt lat="41.131275" lon="0.816515">
        <ele>312.01</ele>
      </trkpt>
      <trkpt lat="41.131331" lon="0.816606">
        <ele>310.32</ele>
      </trkpt>
      <trkpt lat="41.131389" lon="0.816658">
        <ele>309.77</ele>
      </trkpt>
      <trkpt lat="41.131475" lon="0.816671">
        <ele>310.22</ele>
      </trkpt>
      <trkpt lat="41.131556" lon="0.816722">
        <ele>309.81</ele>
      </trkpt>
      <trkpt lat="41.131579" lon="0.816775">
        <ele>308.82</ele>
      </trkpt>
      <trkpt lat="41.131583" lon="0.816835">
        <ele>307.83</ele>
      </trkpt>
      <trkpt lat="41.131541" lon="0.816896">
        <ele>307.15</ele>
      </trkpt>
      <trkpt lat="41.131473" lon="0.816941">
        <ele>306.45</ele>
      </trkpt>
      <trkpt lat="41.131289" lon="0.816986">
        <ele>305.26</ele>
      </trkpt>
      <trkpt lat="41.131132" lon="0.816998">
        <ele>304.1</ele>
      </trkpt>
      <trkpt lat="41.130993" lon="0.816991">
        <ele>303.08</ele>
      </trkpt>
      <trkpt lat="41.131028" lon="0.817047">
        <ele>303.85</ele>
      </trkpt>
      <trkpt lat="41.131101" lon="0.817067">
        <ele>304.36</ele>
      </trkpt>
      <trkpt lat="41.131339" lon="0.817035">
        <ele>305.4</ele>
      </trkpt>
      <trkpt lat="41.131532" lon="0.81701">
        <ele>306.24</ele>
      </trkpt>
      <trkpt lat="41.131595" lon="0.817046">
        <ele>306.74</ele>
      </trkpt>
      <trkpt lat="41.131706" lon="0.817209">
        <ele>307.88</ele>
      </trkpt>
      <trkpt lat="41.131838" lon="0.817282">
        <ele>308.22</ele>
      </trkpt>
      <trkpt lat="41.131916" lon="0.817283">
        <ele>308.07</ele>
      </trkpt>
      <trkpt lat="41.132092" lon="0.817209">
        <ele>308.29</ele>
      </trkpt>
      <trkpt lat="41.132251" lon="0.817163">
        <ele>308.7</ele>
      </trkpt>
      <trkpt lat="41.132308" lon="0.817176">
        <ele>309.21</ele>
      </trkpt>
      <trkpt lat="41.1324" lon="0.817241">
        <ele>309.91</ele>
      </trkpt>
      <trkpt lat="41.132492" lon="0.817353">
        <ele>310.13</ele>
      </trkpt>
      <trkpt lat="41.132563" lon="0.817408">
        <ele>310.49</ele>
      </trkpt>
      <trkpt lat="41.132592" lon="0.817417">
        <ele>310.68</ele>
      </trkpt>
      <trkpt lat="41.132773" lon="0.817475">
        <ele>311.83</ele>
      </trkpt>
      <trkpt lat="41.132844" lon="0.817259">
        <ele>313.36</ele>
      </trkpt>
      <trkpt lat="41.132905" lon="0.817153">
        <ele>314.44</ele>
      </trkpt>
      <trkpt lat="41.133064" lon="0.816995">
        <ele>315.96</ele>
      </trkpt>
      <trkpt lat="41.133164" lon="0.816933">
        <ele>317.31</ele>
      </trkpt>
      <trkpt lat="41.133251" lon="0.816892">
        <ele>317.62</ele>
      </trkpt>
      <trkpt lat="41.133348" lon="0.816885">
        <ele>318.04</ele>
      </trkpt>
      <trkpt lat="41.133824" lon="0.816968">
        <ele>322.8</ele>
      </trkpt>
      <trkpt lat="41.133987" lon="0.817019">
        <ele>323.7</ele>
      </trkpt>
      <trkpt lat="41.134068" lon="0.817019">
        <ele>324.83</ele>
      </trkpt>
      <trkpt lat="41.134177" lon="0.816985">
        <ele>326.1</ele>
      </trkpt>
      <trkpt lat="41.134385" lon="0.816952">
        <ele>328.15</ele>
      </trkpt>
      <trkpt lat="41.134473" lon="0.816911">
        <ele>328.83</ele>
      </trkpt>
      <trkpt lat="41.134617" lon="0.816799">
        <ele>329.85</ele>
      </trkpt>
      <trkpt lat="41.13469" lon="0.816765">
        <ele>330.58</ele>
      </trkpt>
      <trkpt lat="41.135473" lon="0.816533">
        <ele>336.35</ele>
      </trkpt>
      <trkpt lat="41.135556" lon="0.81649">
        <ele>337.23</ele>
      </trkpt>
      <trkpt lat="41.135635" lon="0.816418">
        <ele>338.86</ele>
      </trkpt>
      <trkpt lat="41.135711" lon="0.816321">
        <ele>340.37</ele>
      </trkpt>
      <trkpt lat="41.135952" lon="0.815986">
        <ele>345.07</ele>
      </trkpt>
      <trkpt lat="41.136012" lon="0.815933">
        <ele>345.84</ele>
      </trkpt>
      <trkpt lat="41.136127" lon="0.815868">
        <ele>347.11</ele>
      </trkpt>
      <trkpt lat="41.136317" lon="0.815739">
        <ele>349.39</ele>
      </trkpt>
      <trkpt lat="41.136386" lon="0.81571">
        <ele>350.62</ele>
      </trkpt>
      <trkpt lat="41.136653" lon="0.815729">
        <ele>353.96</ele>
      </trkpt>
      <trkpt lat="41.136813" lon="0.815756">
        <ele>355.36</ele>
      </trkpt>
      <trkpt lat="41.136917" lon="0.815796">
        <ele>357.07</ele>
      </trkpt>
      <trkpt lat="41.13696" lon="0.815848">
        <ele>357.64</ele>
      </trkpt>
      <trkpt lat="41.137015" lon="0.815914">
        <ele>358.37</ele>
      </trkpt>
      <trkpt lat="41.137176" lon="0.81626">
        <ele>360.86</ele>
      </trkpt>
      <trkpt lat="41.137225" lon="0.816382">
        <ele>362.44</ele>
      </trkpt>
      <trkpt lat="41.137274" lon="0.816433">
        <ele>363.32</ele>
      </trkpt>
      <trkpt lat="41.137344" lon="0.816466">
        <ele>363.91</ele>
      </trkpt>
      <trkpt lat="41.137406" lon="0.816459">
        <ele>363.75</ele>
      </trkpt>
      <trkpt lat="41.137491" lon="0.816423">
        <ele>362.97</ele>
      </trkpt>
      <trkpt lat="41.137621" lon="0.816347">
        <ele>361.53</ele>
      </trkpt>
      <trkpt lat="41.137789" lon="0.816227">
        <ele>359.83</ele>
      </trkpt>
      <trkpt lat="41.137859" lon="0.81619">
        <ele>359.12</ele>
      </trkpt>
      <trkpt lat="41.137879" lon="0.816179">
        <ele>358.92</ele>
      </trkpt>
      <trkpt lat="41.137941" lon="0.816098">
        <ele>357.55</ele>
      </trkpt>
      <trkpt lat="41.138275" lon="0.81586">
        <ele>353.99</ele>
      </trkpt>
      <trkpt lat="41.138342" lon="0.815778">
        <ele>353.67</ele>
      </trkpt>
      <trkpt lat="41.138391" lon="0.815692">
        <ele>353.59</ele>
      </trkpt>
      <trkpt lat="41.138485" lon="0.815442">
        <ele>354.42</ele>
      </trkpt>
      <trkpt lat="41.138534" lon="0.815351">
        <ele>354.73</ele>
      </trkpt>
      <trkpt lat="41.138592" lon="0.81531">
        <ele>353.9</ele>
      </trkpt>
      <trkpt lat="41.138699" lon="0.815276">
        <ele>353.51</ele>
      </trkpt>
      <trkpt lat="41.138724" lon="0.815066">
        <ele>353.18</ele>
      </trkpt>
      <trkpt lat="41.13873" lon="0.814815">
        <ele>351.92</ele>
      </trkpt>
      <trkpt lat="41.138778" lon="0.814803">
        <ele>352.07</ele>
      </trkpt>
      <trkpt lat="41.138827" lon="0.814765">
        <ele>352.44</ele>
      </trkpt>
      <trkpt lat="41.138857" lon="0.814726">
        <ele>352.68</ele>
      </trkpt>
      <trkpt lat="41.138881" lon="0.814668">
        <ele>352.86</ele>
      </trkpt>
      <trkpt lat="41.139011" lon="0.814751">
        <ele>353</ele>
      </trkpt>
      <trkpt lat="41.139572" lon="0.8152">
        <ele>357.53</ele>
      </trkpt>
      <trkpt lat="41.139704" lon="0.815264">
        <ele>357.97</ele>
      </trkpt>
      <trkpt lat="41.139859" lon="0.815331">
        <ele>360.67</ele>
      </trkpt>
      <trkpt lat="41.140447" lon="0.815492">
        <ele>361.45</ele>
      </trkpt>
      <trkpt lat="41.14079" lon="0.815592">
        <ele>363.84</ele>
      </trkpt>
      <trkpt lat="41.141366" lon="0.815805">
        <ele>365.32</ele>
      </trkpt>
      <trkpt lat="41.141446" lon="0.815858">
        <ele>365.07</ele>
      </trkpt>
      <trkpt lat="41.141501" lon="0.815918">
        <ele>364.77</ele>
      </trkpt>
      <trkpt lat="41.141544" lon="0.815993">
        <ele>364.36</ele>
      </trkpt>
      <trkpt lat="41.141555" lon="0.81612">
        <ele>363.54</ele>
      </trkpt>
      <trkpt lat="41.141537" lon="0.816231">
        <ele>362.81</ele>
      </trkpt>
      <trkpt lat="41.141278" lon="0.816839">
        <ele>362.59</ele>
      </trkpt>
      <trkpt lat="41.141251" lon="0.816933">
        <ele>362.73</ele>
      </trkpt>
      <trkpt lat="41.141175" lon="0.816719">
        <ele>364.62</ele>
      </trkpt>
      <trkpt lat="41.141173" lon="0.816523">
        <ele>365.59</ele>
      </trkpt>
      <trkpt lat="41.14125" lon="0.81634">
        <ele>365.58</ele>
      </trkpt>
      <trkpt lat="41.141404" lon="0.816124">
        <ele>366.01</ele>
      </trkpt>
      <trkpt lat="41.14125" lon="0.81634">
        <ele>365.58</ele>
      </trkpt>
      <trkpt lat="41.141173" lon="0.816523">
        <ele>365.59</ele>
      </trkpt>
      <trkpt lat="41.141175" lon="0.816719">
        <ele>364.62</ele>
      </trkpt>
      <trkpt lat="41.141251" lon="0.816933">
        <ele>362.73</ele>
      </trkpt>
      <trkpt lat="41.141254" lon="0.817086">
        <ele>362.74</ele>
      </trkpt>
      <trkpt lat="41.141271" lon="0.817206">
        <ele>362.69</ele>
      </trkpt>
      <trkpt lat="41.141309" lon="0.817335">
        <ele>362.42</ele>
      </trkpt>
      <trkpt lat="41.141447" lon="0.817679">
        <ele>363.01</ele>
      </trkpt>
      <trkpt lat="41.141574" lon="0.817727">
        <ele>361.46</ele>
      </trkpt>
      <trkpt lat="41.141978" lon="0.818015">
        <ele>358.24</ele>
      </trkpt>
      <trkpt lat="41.142011" lon="0.818039">
        <ele>357.98</ele>
      </trkpt>
      <trkpt lat="41.142131" lon="0.817472">
        <ele>355.83</ele>
      </trkpt>
      <trkpt lat="41.142658" lon="0.81739">
        <ele>352.25</ele>
      </trkpt>
      <trkpt lat="41.143584" lon="0.817228">
        <ele>350</ele>
      </trkpt>
      <trkpt lat="41.143582" lon="0.817217">
        <ele>349.97</ele>
      </trkpt>
    </trkseg>
  </trk>
</gpx>
